{
  "version": 0.6,
  "generator": "Overpass API 0.7.55.7 8b86ff77",
  "osm3s": {
    "timestamp_osm_base": "2019-07-28T06:05:02Z",
    "copyright": "The data included in this document is from www.openstreetmap.org. The data is made available under ODbL."
  },
  "elements": [

{
  "type": "way",
  "id": 25575256,
  "nodes": [
    278787093,
    1000652214
  ],
  "tags": {
    "addr:postcode": "666033",
    "highway": "tertiary",
    "lanes": "2",
    "maxspeed": "60",
    "name": "проспект Строителей и Монтажников",
    "oneway": "yes",
    "surface": "asphalt"
  }
},
{
  "type": "way",
  "id": 25575268,
  "nodes": [
    278786066,
    1000652275,
    5788304646,
    1000652138,
    5788304645,
    5788304644,
    5788304643,
    5788304642,
    278787097
  ],
  "tags": {
    "bicycle": "yes",
    "highway": "primary",
    "lanes": "2",
    "maxspeed": "60",
    "old_ref": "М55",
    "oneway": "yes",
    "ref": "Р-258",
    "surface": "asphalt"
  }
},
{
  "type": "way",
  "id": 25575411,
  "nodes": [
    278788370,
    278788332
  ],
  "tags": {
    "bicycle": "yes",
    "bridge": "yes",
    "highway": "primary",
    "lanes": "4",
    "layer": "1",
    "maxspeed": "60",
    "old_ref": "М55",
    "ref": "Р-258",
    "surface": "asphalt"
  }
},
{
  "type": "way",
  "id": 25575413,
  "nodes": [
    278787097,
    3053017616,
    5652677871,
    6487044876
  ],
  "tags": {
    "bicycle": "yes",
    "highway": "primary",
    "lanes": "4",
    "maxspeed": "40",
    "old_ref": "М55",
    "ref": "Р-258",
    "surface": "asphalt"
  }
},
{
  "type": "way",
  "id": 25575481,
  "nodes": [
    1779042027,
    1779042029,
    1779042030,
    278790634,
    3204456633,
    278790635,
    278790636,
    3204456636,
    278790637,
    3204456634,
    278790638,
    278790639,
    278790640,
    278790624,
    4944346928,
    4944346926,
    5745624008,
    5745624009,
    278790011,
    278790012,
    278790014,
    278790015,
    5745624000,
    1000651989,
    3170010751,
    5788283592,
    5756692236,
    278789380,
    278789381,
    278789382,
    278789383,
    278789384,
    278789385,
    1000652170,
    278789387
  ],
  "tags": {
    "highway": "secondary",
    "lanes": "2",
    "maxspeed": "40",
    "name": "Центральный проспект",
    "oneway": "yes",
    "surface": "asphalt"
  }
},
{
  "type": "way",
  "id": 25575504,
  "nodes": [
    345518003,
    3253655647,
    3232361519,
    3232361515,
    5752855835,
    5756692272,
    5756692271,
    5752857790,
    4944346867,
    278789848,
    4944346872,
    1449307384,
    3249402136,
    278789849,
    278789850,
    278789851,
    278789852,
    1000652004,
    278789430
  ],
  "tags": {
    "highway": "tertiary",
    "lanes": "2",
    "name": "бульвар Созидателей",
    "oneway": "yes",
    "surface": "asphalt"
  }
},
{
  "type": "way",
  "id": 25575512,
  "nodes": [
    278789433,
    1000652211,
    278789476,
    278789477,
    278789478,
    278789479,
    278789388
  ],
  "tags": {
    "highway": "secondary",
    "oneway": "yes"
  }
},
{
  "type": "way",
  "id": 25575541,
  "nodes": [
    278789690,
    5756691609,
    699044021,
    1000652022,
    3286073007,
    3286073006,
    4943181746,
    3424344569,
    4943181747,
    4943181751,
    699044020,
    3424332882,
    1000651948,
    699030035,
    937607433,
    3424335630,
    278789068,
    1000652073,
    1000652217
  ],
  "tags": {
    "addr:postcode": "666036",
    "highway": "secondary",
    "name": "улица Белобородова",
    "name:en": "Beloborodov street",
    "name:ru": "улица Белобородова"
  }
},
{
  "type": "way",
  "id": 25575542,
  "nodes": [
    278789690,
    278789858,
    278789758,
    278789759,
    278789760,
    1000652197,
    1000652152,
    278789761
  ],
  "tags": {
    "addr:postcode": "666036",
    "highway": "secondary",
    "name": "улица Белобородова",
    "name:en": "Beloborodov street",
    "name:ru": "улица Белобородова",
    "oneway": "yes"
  }
},
{
  "type": "way",
  "id": 25575603,
  "nodes": [
    278790486,
    5745610528,
    4944384987,
    5745610109,
    4944384988,
    5745610114,
    278790487,
    3166469712,
    3166575227
  ],
  "tags": {
    "highway": "secondary",
    "lanes": "2",
    "surface": "asphalt"
  }
},
{
  "type": "way",
  "id": 25575607,
  "nodes": [
    278790419,
    278790534,
    278790535,
    4944346944
  ],
  "tags": {
    "highway": "secondary",
    "oneway": "yes",
    "surface": "asphalt"
  }
},
{
  "type": "way",
  "id": 25575612,
  "nodes": [
    278790486,
    278790620,
    278790621,
    4086952754,
    278790622,
    278790623,
    278790624
  ],
  "tags": {
    "highway": "secondary",
    "oneway": "yes",
    "surface": "asphalt"
  }
},
{
  "type": "way",
  "id": 25575624,
  "nodes": [
    278787092,
    4487797266,
    1000652056,
    2281041407,
    3204465841,
    1779042031,
    1809755139,
    278785564,
    278790596,
    4944385000,
    5715012454,
    1779042025
  ],
  "tags": {
    "bicycle": "yes",
    "highway": "primary",
    "lanes": "2",
    "maxspeed": "60",
    "name": "Култукский тракт",
    "old_ref": "М55",
    "ref": "Р-258",
    "surface": "asphalt"
  }
},
{
  "type": "way",
  "id": 25575710,
  "nodes": [
    278790890,
    278790892,
    278791256,
    278791257,
    278791258,
    278791259,
    278791260,
    3204456633
  ],
  "tags": {
    "highway": "tertiary",
    "lanes": "2",
    "oneway": "yes",
    "surface": "asphalt"
  }
},
{
  "type": "way",
  "id": 26299910,
  "nodes": [
    278788332,
    3858943389,
    937592776
  ],
  "tags": {
    "bicycle": "yes",
    "highway": "primary",
    "lanes": "4",
    "maxspeed": "60",
    "old_ref": "М55",
    "ref": "Р-258",
    "surface": "asphalt"
  }
},
{
  "type": "way",
  "id": 30994816,
  "nodes": [
    278786066,
    5788304681,
    5788304680,
    1000652187,
    5788304679,
    1000651956,
    5788304678,
    1000652148
  ],
  "tags": {
    "highway": "tertiary",
    "lanes": "2",
    "maxspeed": "60",
    "name": "улица Петра Красильникова",
    "name:en": "Peter Krasilnikov street",
    "name:ru": "улица Петра Красильникова",
    "oneway": "yes",
    "surface": "asphalt"
  }
},
{
  "type": "way",
  "id": 30994818,
  "nodes": [
    2611504490,
    2611504498,
    3160992697,
    2611504500,
    5355743971,
    2611504502,
    2001993149,
    2611504482
  ],
  "tags": {
    "highway": "residential",
    "name": "улица Ленина",
    "name:en": "Lenin street",
    "name:ru": "улица Ленина"
  }
},
{
  "type": "way",
  "id": 30994841,
  "nodes": [
    2611504561,
    3285962639,
    5714042663,
    3655063055,
    5714042665,
    3298444927,
    3232409180,
    5714042668,
    5714042669,
    2611504560
  ],
  "tags": {
    "highway": "tertiary",
    "lanes": "2",
    "name": "улица Паньжина",
    "name:en": "Panjin street",
    "name:ru": "улица Паньжина",
    "surface": "asphalt"
  }
},
{
  "type": "way",
  "id": 30995169,
  "nodes": [
    344620831,
    5187306811,
    344620839,
    1815487127,
    3437006143,
    5785447694,
    5785447691,
    3994701963,
    344620842,
    3058550124,
    344620845,
    344620848,
    344620856,
    344620859,
    344620863,
    5556256413,
    344620866
  ],
  "tags": {
    "highway": "unclassified",
    "lit": "yes",
    "name": "Вокзальная улица",
    "oneway": "no",
    "surface": "unpaved;asphalt"
  }
},
{
  "type": "way",
  "id": 30995170,
  "nodes": [
    3160992686,
    3166614931,
    3152577187,
    2611504482,
    1987026565,
    2611504475
  ],
  "tags": {
    "highway": "tertiary",
    "lanes": "2",
    "name": "улица Леонида Кулика",
    "surface": "asphalt"
  }
},
{
  "type": "way",
  "id": 30995253,
  "nodes": [
    2611504601,
    3429581365,
    3429581366,
    2001993143,
    5714042682,
    2611504558,
    3232857336,
    3285936247,
    3232857335,
    3232857332,
    3285963370,
    3285963367,
    3232857333,
    3232857334,
    2611504564
  ],
  "tags": {
    "highway": "residential",
    "name": "улица Александра Невского",
    "name:en": "Alexander Nevsky street",
    "name:ru": "улица Александра Невского"
  }
},
{
  "type": "way",
  "id": 30995255,
  "nodes": [
    344621840,
    346585055,
    5712825822,
    344621841,
    3190015852,
    5769516268,
    5769516269,
    3160980069,
    1987026562,
    5769530025,
    344621842,
    344621843,
    344621848,
    344621849,
    3232825211,
    344619640
  ],
  "tags": {
    "highway": "residential",
    "name": "улица Комарова",
    "name:en": "Komarov street",
    "name:ru": "улица Комарова"
  }
},
{
  "type": "way",
  "id": 30995256,
  "nodes": [
    3160980069,
    5769521026,
    5769522253,
    3160980068
  ],
  "tags": {
    "addr:postcode": "666032",
    "highway": "residential",
    "motor_vehicle": "designated",
    "name": "улица Левитана",
    "name:en": "Levitan street",
    "name:ru": "улица Левитана",
    "surface": "asphalt"
  }
},
{
  "type": "way",
  "id": 31091016,
  "nodes": [
    2611504484,
    1987026566,
    2611504502
  ],
  "tags": {
    "highway": "residential",
    "name": "Трудовая улица",
    "name:en": "Labour street",
    "name:ru": "Трудовая улица"
  }
},
{
  "type": "way",
  "id": 31091023,
  "nodes": [
    345517745,
    3249272162,
    3152588024,
    3152588096,
    3160991188
  ],
  "tags": {
    "addr:postcode": "666034",
    "highway": "residential",
    "name": "улица Сибирякова",
    "name:en": "Sibiryakov street",
    "name:ru": "улица Сибирякова"
  }
},
{
  "type": "way",
  "id": 31091024,
  "nodes": [
    3160980071,
    3232844486,
    3232831698,
    3232831699,
    3232825210,
    345517747,
    3160980081
  ],
  "tags": {
    "addr:postcode": "666032",
    "highway": "tertiary",
    "lanes": "2",
    "name": "улица Репина",
    "name:en": "Repin street",
    "name:ru": "улица Репина",
    "surface": "asphalt"
  }
},
{
  "type": "way",
  "id": 31091025,
  "nodes": [
    3160980081,
    345517771,
    3160980068
  ],
  "tags": {
    "addr:postcode": "666032",
    "highway": "tertiary",
    "name": "Октябрьская улица",
    "name:en": "October street",
    "name:ru": "Октябрьская улица"
  }
},
{
  "type": "way",
  "id": 31091064,
  "nodes": [
    345517997,
    345518003
  ],
  "tags": {
    "highway": "tertiary",
    "lanes": "2",
    "oneway": "yes",
    "surface": "asphalt"
  }
},
{
  "type": "way",
  "id": 31091065,
  "nodes": [
    699044020,
    4944036898,
    4944036892,
    699044033,
    5756599520,
    4944036899,
    4944036925,
    345518006,
    345518007,
    699044032,
    345518008,
    4944036839,
    699044031,
    4944036503,
    4944036489,
    3222828987,
    699044030,
    699044029,
    4944345385
  ],
  "tags": {
    "addr:postcode": "666036",
    "highway": "tertiary",
    "lanes": "2",
    "name": "Кольцевая улица",
    "name:en": "Circle street",
    "name:ru": "Кольцевая улица",
    "surface": "asphalt"
  }
},
{
  "type": "way",
  "id": 31149994,
  "nodes": [
    345518036,
    346578433,
    6546920078,
    6546920076,
    346578435,
    346578437,
    346578440,
    346578442,
    346578445,
    346578447,
    346578450,
    346578452,
    346578455,
    346578461,
    346578463,
    346578466,
    346578468,
    346578499,
    346578471,
    346578473,
    346578476,
    1000652265
  ],
  "tags": {
    "addr:postcode": "666033",
    "highway": "tertiary",
    "lanes": "2",
    "name": "Индустриальная улица",
    "name:en": "Industrial street",
    "name:ru": "Индустриальная улица",
    "surface": "asphalt"
  }
},
{
  "type": "way",
  "id": 31149996,
  "nodes": [
    346578499,
    346578502,
    346578505,
    346578508,
    346578510
  ],
  "tags": {
    "addr:postcode": "666033",
    "highway": "residential",
    "name": "Индустриальная улица"
  }
},
{
  "type": "way",
  "id": 31149997,
  "nodes": [
    346578471,
    2606782195,
    346578512,
    346578513,
    346578514,
    346578515,
    346578516,
    6546944401,
    6546938218,
    346578526
  ],
  "tags": {
    "addr:postcode": "666033",
    "highway": "tertiary",
    "name": "проспект Металлургов"
  }
},
{
  "type": "way",
  "id": 31149999,
  "nodes": [
    278786965,
    5187321526,
    1000652028,
    346578542,
    346578544,
    5187321527,
    346578555,
    1000652224,
    346578565
  ],
  "tags": {
    "highway": "tertiary",
    "lanes": "2",
    "name": "проспект Строителей и Монтажников",
    "surface": "asphalt"
  }
},
{
  "type": "way",
  "id": 31150071,
  "nodes": [
    346578516,
    3169860413,
    346581061,
    346581065,
    346581070,
    1000652079,
    346581073,
    1000652112,
    346581076,
    1000652252
  ],
  "tags": {
    "highway": "tertiary",
    "name": "проезд от проспекта металлургов до проспекта строителей"
  }
},
{
  "type": "way",
  "id": 31150073,
  "nodes": [
    346581173,
    1589626735,
    346581174,
    346581175,
    346581176,
    5593399834,
    5593399835,
    346581177,
    346581178,
    1809754855,
    4111610612,
    346581179,
    4839365342,
    346581180,
    346581181,
    346581182,
    4839365344,
    4839365343,
    346581183,
    4839365345,
    346581184,
    346581185,
    346581188,
    346581191,
    346581192,
    346581193,
    346581194,
    346581195,
    346581196,
    346581197,
    346581198,
    346581199,
    346581201,
    346581202,
    346581203,
    346581204,
    346581205,
    346581206,
    3143217719,
    346581207,
    346581208,
    346581209,
    346581210,
    4839365346,
    346581211,
    346581212,
    346581213,
    346581214,
    346581215,
    346581216,
    346581217,
    345518036
  ],
  "tags": {
    "highway": "unclassified"
  }
},
{
  "type": "way",
  "id": 31150112,
  "nodes": [
    699044213,
    346582166,
    6432077474,
    6432077672,
    346582169,
    346582171,
    346582181,
    346582188,
    5788289372,
    3923118465,
    3923118466,
    3923117735,
    1449307313,
    5763503585,
    1000651990,
    1000651989
  ],
  "tags": {
    "addr:postcode": "666033",
    "highway": "residential",
    "name": "улица Энергетиков",
    "name:en": "Energetics street",
    "name:ru": "улица Энергетиков"
  }
},
{
  "type": "way",
  "id": 31150317,
  "nodes": [
    344621841,
    5714042657,
    344619639
  ],
  "tags": {
    "highway": "residential"
  }
},
{
  "type": "way",
  "id": 31150318,
  "nodes": [
    346585056,
    346585057,
    346585069,
    346585210
  ],
  "tags": {
    "highway": "residential",
    "name": "улица Любы Шевцовой",
    "name:en": "Lyuba Shevtsova street",
    "name:ru": "улица Любы Шевцовой",
    "surface": "ground"
  }
},
{
  "type": "way",
  "id": 31150319,
  "nodes": [
    346585058,
    346585059,
    346585060,
    346585061,
    346585063,
    346585064
  ],
  "tags": {
    "addr:postcode": "666032",
    "highway": "residential",
    "name": "Сосновая улица",
    "name:en": "Pine street",
    "name:ru": "Сосновая улица",
    "surface": "ground"
  }
},
{
  "type": "way",
  "id": 31150320,
  "nodes": [
    346585065,
    346585066,
    346585067
  ],
  "tags": {
    "addr:postcode": "666032",
    "highway": "residential",
    "name": "улица Ульяны Громовой",
    "name:en": "Ulyana Gromova street",
    "name:ru": "улица Ульяны Громовой",
    "surface": "ground"
  }
},
{
  "type": "way",
  "id": 31150322,
  "nodes": [
    346585068,
    346585067,
    346585063,
    346585069
  ],
  "tags": {
    "highway": "residential",
    "surface": "ground"
  }
},
{
  "type": "way",
  "id": 31150323,
  "nodes": [
    344621858,
    3249288762,
    346585071,
    346585075,
    346585210,
    346585064,
    346585081,
    346585087,
    346585092,
    3232390963,
    346585068,
    346585097,
    346585103,
    346585109,
    346585115,
    2637233002,
    346585121,
    3232390961,
    2637233004,
    2637233016,
    346585139,
    2637233018,
    346585142,
    2637233019,
    4944036870,
    346585144,
    2637233021,
    4944036877,
    346585153
  ],
  "tags": {
    "highway": "tertiary",
    "name": "Заводская улица",
    "surface": "asphalt"
  }
},
{
  "type": "way",
  "id": 31150325,
  "nodes": [
    346585121,
    346585180,
    346585181,
    346585182,
    346585183,
    346585184,
    346585185,
    346585186,
    346585198,
    346585187,
    346585188,
    346585189,
    346585190,
    346585191,
    346585192,
    346585193,
    346585194,
    346585195,
    346585196,
    346585068
  ],
  "tags": {
    "addr:postcode": "666032",
    "highway": "residential",
    "name": "Заводская улица",
    "name:en": "Factory street",
    "name:ru": "Заводская улица",
    "surface": "ground"
  }
},
{
  "type": "way",
  "id": 31150327,
  "nodes": [
    346585198,
    3232390962,
    346585115
  ],
  "tags": {
    "highway": "residential",
    "surface": "ground"
  }
},
{
  "type": "way",
  "id": 31150328,
  "nodes": [
    346585064,
    346585203,
    346585206,
    346585207,
    346585208,
    346585213
  ],
  "tags": {
    "highway": "residential",
    "name": "улица Маршака",
    "name:en": "Marshak street",
    "name:ru": "улица Маршака",
    "surface": "ground"
  }
},
{
  "type": "way",
  "id": 31150329,
  "nodes": [
    346585210,
    346585211,
    346585227,
    346585221,
    346585212
  ],
  "tags": {
    "highway": "residential",
    "name": "улица Горького",
    "name:en": "Gorky street",
    "name:ru": "улица Горького",
    "surface": "ground"
  }
},
{
  "type": "way",
  "id": 31150330,
  "nodes": [
    346585213,
    346585211,
    346585215,
    346585217,
    346585214
  ],
  "tags": {
    "highway": "residential",
    "surface": "ground"
  }
},
{
  "type": "way",
  "id": 31150332,
  "nodes": [
    346585215,
    346585229,
    346585222,
    346585216
  ],
  "tags": {
    "highway": "residential",
    "name": "переулок Шевченко",
    "name:en": "Shevchenko lane",
    "name:ru": "переулок Шевченко",
    "surface": "ground"
  }
},
{
  "type": "way",
  "id": 31150334,
  "nodes": [
    346585217,
    346585232,
    346585224,
    346585218
  ],
  "tags": {
    "highway": "residential",
    "name": "переулок Есенина",
    "name:en": "Yesenin lane",
    "name:ru": "переулок Есенина",
    "surface": "ground"
  }
},
{
  "type": "way",
  "id": 31150336,
  "nodes": [
    346585221,
    346585222,
    346585224
  ],
  "tags": {
    "highway": "residential",
    "surface": "unpaved"
  }
},
{
  "type": "way",
  "id": 31150338,
  "nodes": [
    346585225,
    346585227,
    346585228,
    346585229,
    346585230,
    346585232,
    344621867
  ],
  "tags": {
    "highway": "residential",
    "name": "улица Сергея Тюленина",
    "name:en": "Sergey Tyulenev street",
    "name:ru": "улица Сергея Тюленина",
    "surface": "ground"
  }
},
{
  "type": "way",
  "id": 31150339,
  "nodes": [
    698943921,
    346586947,
    346585258,
    346585259,
    346585260,
    346585261,
    346591249,
    346594006,
    346585265,
    346585266,
    346593973,
    346585267,
    346593080,
    346593072,
    346591398,
    346585270
  ],
  "tags": {
    "highway": "tertiary",
    "lanes": "2",
    "name": "улица Олега Кошевого",
    "name:en": "Oleg Koshevoi street",
    "name:ru": "улица Олега Кошевого",
    "surface": "asphalt"
  }
},
{
  "type": "way",
  "id": 31150391,
  "nodes": [
    346586947,
    346585243,
    346586950
  ],
  "tags": {
    "highway": "residential"
  }
},
{
  "type": "way",
  "id": 31150392,
  "nodes": [
    558521976,
    346586984,
    346586991,
    346586997,
    346586950,
    346591216,
    346586961,
    346586963,
    346586967,
    346586970,
    346586973,
    3160980075,
    3160980074,
    2637232729
  ],
  "tags": {
    "highway": "residential",
    "name": "Советская улица"
  }
},
{
  "type": "way",
  "id": 31150393,
  "nodes": [
    346586984,
    346586986
  ],
  "tags": {
    "addr:postcode": "666032",
    "highway": "residential",
    "name": "Юбилейный переулок",
    "name:en": "Anniversary lane",
    "name:ru": "Юбилейный переулок",
    "surface": "unpaved"
  }
},
{
  "type": "way",
  "id": 31150394,
  "nodes": [
    346586991,
    346586993
  ],
  "tags": {
    "addr:postcode": "666032",
    "highway": "residential",
    "name": "Весенний переулок",
    "name:en": "Spring lane",
    "name:ru": "Весенний переулок",
    "surface": "unpaved"
  }
},
{
  "type": "way",
  "id": 31150396,
  "nodes": [
    346586997,
    346587001,
    1809766788,
    1809766787,
    1809766786,
    345517771
  ],
  "tags": {
    "addr:postcode": "666032",
    "highway": "residential",
    "name": "Солнечный переулок",
    "name:en": "Sunny lane",
    "name:ru": "Солнечный переулок"
  }
},
{
  "type": "way",
  "id": 31150597,
  "nodes": [
    346591216,
    346591219,
    346591222,
    346591224,
    346591227,
    346591229,
    346591232,
    346591234,
    346591237,
    346591240,
    346591243,
    3160980080
  ],
  "tags": {
    "addr:postcode": "666032",
    "highway": "residential",
    "name": "Ангарская улица",
    "name:en": "Angara street",
    "name:ru": "Ангарская улица"
  }
},
{
  "type": "way",
  "id": 31150599,
  "nodes": [
    698945526,
    346591263,
    346591294,
    346591266,
    344619652
  ],
  "tags": {
    "highway": "residential",
    "name": "переулок Челюскина",
    "name:en": "Cheluskin lane",
    "name:ru": "переулок Челюскина",
    "surface": "ground"
  }
},
{
  "type": "way",
  "id": 31150600,
  "nodes": [
    2978025975,
    346591267,
    346591269,
    346591272,
    698947007,
    346591274,
    698951187,
    346591284
  ],
  "tags": {
    "highway": "residential",
    "name": "улица Чкалова",
    "name:en": "Chkalov street",
    "name:ru": "улица Чкалова",
    "surface": "ground"
  }
},
{
  "type": "way",
  "id": 31150601,
  "nodes": [
    2637232729,
    2978025975,
    698945526,
    346591282,
    346591325,
    346591284,
    346591378,
    346591287,
    346591289
  ],
  "tags": {
    "highway": "residential",
    "name": "Иркутная улица",
    "name:en": "Irkut street",
    "name:ru": "Иркутная улица",
    "surface": "ground"
  }
},
{
  "type": "way",
  "id": 31150602,
  "nodes": [
    3232806220,
    346591310,
    346591318,
    346591294,
    346591321,
    3160991182,
    346591328,
    3160991194,
    346591333,
    346591301,
    346591346,
    346591353,
    346591304
  ],
  "tags": {
    "highway": "residential",
    "name": "Байкальская улица",
    "name:en": "Baikal street",
    "name:ru": "Байкальская улица",
    "surface": "ground"
  }
},
{
  "type": "way",
  "id": 31150603,
  "nodes": [
    346591310,
    346591313,
    346591315,
    346591318
  ],
  "tags": {
    "addr:postcode": "666032",
    "highway": "residential",
    "name": "Зелёный переулок",
    "name:en": "Green lane",
    "name:ru": "Зелёный переулок",
    "surface": "ground"
  }
},
{
  "type": "way",
  "id": 31150604,
  "nodes": [
    346591321,
    346591323
  ],
  "tags": {
    "addr:postcode": "666032",
    "highway": "residential",
    "name": "Комсомольский переулок",
    "name:en": "Komsomol lane",
    "name:ru": "Комсомольский переулок",
    "surface": "ground"
  }
},
{
  "type": "way",
  "id": 31150605,
  "nodes": [
    698951187,
    346591325,
    3160991182,
    2637232722,
    344619657
  ],
  "tags": {
    "highway": "residential",
    "name": "улица Седова",
    "surface": "ground"
  }
},
{
  "type": "way",
  "id": 31150606,
  "nodes": [
    346591328,
    346591331
  ],
  "tags": {
    "addr:postcode": "666033",
    "highway": "residential",
    "name": "Школьный переулок",
    "name:en": "School lane",
    "name:ru": "Школьный переулок",
    "surface": "ground"
  }
},
{
  "type": "way",
  "id": 31150607,
  "nodes": [
    346591333,
    346591335
  ],
  "tags": {
    "addr:postcode": "666033",
    "highway": "residential",
    "name": "Майский переулок",
    "name:en": "May lane",
    "name:ru": "Майский переулок",
    "surface": "ground"
  }
},
{
  "type": "way",
  "id": 31150608,
  "nodes": [
    346591343,
    346591346,
    346591348
  ],
  "tags": {
    "addr:postcode": "666033",
    "highway": "residential",
    "name": "улица Некрасова",
    "surface": "ground"
  }
},
{
  "type": "way",
  "id": 31150609,
  "nodes": [
    346591350,
    346591353,
    2637232715
  ],
  "tags": {
    "addr:postcode": "666033",
    "highway": "residential",
    "name": "улица Гоголя",
    "name:en": "Gogol street",
    "name:ru": "улица Гоголя",
    "surface": "ground"
  }
},
{
  "type": "way",
  "id": 31150610,
  "nodes": [
    346591358,
    346591304,
    2637232713
  ],
  "tags": {
    "addr:postcode": "666033",
    "highway": "residential",
    "name": "улица Лермонтова",
    "name:en": "Lermontov street",
    "name:ru": "улица Лермонтова",
    "surface": "ground"
  }
},
{
  "type": "way",
  "id": 31150612,
  "nodes": [
    3160991186,
    3160991183,
    3160991194,
    346591378,
    346591380
  ],
  "tags": {
    "addr:postcode": "666033",
    "highway": "residential",
    "name": "Сибирская улица",
    "name:en": "Siberian street",
    "name:ru": "Сибирская улица",
    "surface": "ground"
  }
},
{
  "type": "way",
  "id": 31150613,
  "nodes": [
    3160991184,
    3160991196,
    346591301,
    346591388,
    346591383,
    346591289
  ],
  "tags": {
    "addr:postcode": "666033",
    "highway": "residential",
    "name": "Олхинская улица"
  }
},
{
  "type": "way",
  "id": 31150614,
  "nodes": [
    346591388,
    346591343,
    346591350
  ],
  "tags": {
    "highway": "residential",
    "surface": "ground"
  }
},
{
  "type": "way",
  "id": 31150615,
  "nodes": [
    346591390,
    346591393,
    346591396,
    346591398,
    346591401,
    346591403,
    346591406,
    346591408,
    346591410,
    346591415
  ],
  "tags": {
    "addr:postcode": "666033",
    "highway": "unclassified",
    "name": "улица Щорса"
  }
},
{
  "type": "way",
  "id": 31150706,
  "nodes": [
    346591289,
    346593080,
    1000651933,
    346593085,
    346593981,
    346593028
  ],
  "tags": {
    "addr:postcode": "666033",
    "highway": "residential",
    "name": "улица Котовского"
  }
},
{
  "type": "way",
  "id": 31150731,
  "nodes": [
    346593971,
    5851525524,
    346593973,
    346593976,
    346593978,
    698961073,
    346593025
  ],
  "tags": {
    "addr:postcode": "666033",
    "highway": "residential",
    "name": "улица Руднева"
  }
},
{
  "type": "way",
  "id": 38745716,
  "nodes": [
    1000652217,
    1000652174,
    1000651885,
    1000651915,
    278789070,
    1000652098,
    1000652238,
    4943181598,
    1000652033,
    278789071,
    3784115668,
    4943181617,
    4943181613,
    278789073,
    1000652133,
    1000652270,
    1000651909,
    4943181712,
    1000651877,
    4943181709,
    1000651999,
    1809761641,
    278783223,
    1000651932,
    278783224,
    1000652092,
    5686498818,
    1000651970,
    278783225,
    1809761663
  ],
  "tags": {
    "highway": "secondary",
    "lanes": "2",
    "surface": "asphalt"
  }
},
{
  "type": "way",
  "id": 55610050,
  "nodes": [
    2611504561,
    5714042659,
    3190015847,
    3169999829,
    344619639,
    3190015850,
    3190015851,
    2611504562,
    2611504563,
    5714042656,
    3285963377,
    3160978593,
    3285967946,
    3285936243,
    344619640,
    3160980070,
    2611504564,
    3286029372,
    3232864099,
    3160980071,
    4111615055,
    3428223555,
    2611504466,
    3232857338,
    2666424857,
    1987026563,
    3160991188
  ],
  "tags": {
    "addr:postcode": "666034",
    "highway": "tertiary",
    "lanes": "2",
    "name": "улица Орловских Комсомольцев",
    "name:en": "Oryol Komsomol Members' street",
    "name:ru": "улица Орловских Комсомольцев",
    "surface": "asphalt"
  }
},
{
  "type": "way",
  "id": 55610951,
  "nodes": [
    3160991188,
    2611504475,
    3450047543,
    344619652
  ],
  "tags": {
    "addr:postcode": "666034",
    "highway": "tertiary",
    "lanes": "2",
    "name": "улица Орловских Комсомольцев",
    "name:en": "Oryol Komsomol Members' street",
    "name:ru": "улица Орловских Комсомольцев",
    "oneway": "no",
    "surface": "asphalt"
  }
},
{
  "type": "way",
  "id": 55616516,
  "nodes": [
    344621867,
    346585243,
    346585248,
    346585249,
    346591251,
    346585250,
    346591380,
    346585251,
    698952428,
    698952432,
    698952435,
    346593971
  ],
  "tags": {
    "highway": "residential",
    "name": "улица Сергея Тюленина",
    "name:en": "Sergey Tyulenev street",
    "name:ru": "улица Сергея Тюленина"
  }
},
{
  "type": "way",
  "id": 55619076,
  "nodes": [
    699044213,
    1449307258,
    699044262,
    699044263
  ],
  "tags": {
    "highway": "residential",
    "oneway": "yes"
  }
},
{
  "type": "way",
  "id": 55619086,
  "nodes": [
    345518025,
    699044276,
    699044277,
    699044365
  ],
  "tags": {
    "highway": "residential",
    "oneway": "yes"
  }
},
{
  "type": "way",
  "id": 55619195,
  "nodes": [
    699044351,
    699044353,
    699044355,
    699044358,
    699044360,
    699044362,
    699044365,
    699044279,
    699044371,
    699044342,
    699044343,
    699044344,
    699044263,
    699044346,
    699044347,
    699044348,
    699044349,
    699044350,
    699044351
  ],
  "tags": {
    "highway": "residential",
    "junction": "roundabout",
    "oneway": "yes",
    "surface": "asphalt"
  }
},
{
  "type": "way",
  "id": 80340050,
  "nodes": [
    5745676805,
    5745676806,
    5745676807,
    5745676808,
    5745676810,
    346597033
  ],
  "tags": {
    "highway": "unclassified",
    "surface": "ground"
  }
},
{
  "type": "way",
  "id": 86203821,
  "nodes": [
    278787097,
    5788304638,
    5788304639,
    3161061860
  ],
  "tags": {
    "bicycle": "yes",
    "highway": "primary",
    "lanes": "2",
    "old_ref": "М55",
    "oneway": "yes",
    "ref": "Р-258",
    "surface": "asphalt"
  }
},
{
  "type": "way",
  "id": 86203827,
  "nodes": [
    2611504603,
    3166616661,
    3189977119,
    6389868415,
    3152542146,
    3161061859,
    344618133,
    1000652108
  ],
  "tags": {
    "highway": "tertiary",
    "lanes": "2",
    "name": "улица Петра Красильникова",
    "name:en": "Peter Krasilnikov street",
    "name:ru": "улица Петра Красильникова",
    "oneway": "yes",
    "surface": "asphalt"
  }
},
{
  "type": "way",
  "id": 86203831,
  "nodes": [
    278786961,
    1000652263,
    5788304651,
    5788304650,
    1000651966,
    1000652194,
    1000651895,
    278786066
  ],
  "tags": {
    "addr:postcode": "666033",
    "highway": "tertiary",
    "lanes": "2",
    "maxspeed": "60",
    "name": "проспект Строителей и Монтажников",
    "oneway": "yes",
    "surface": "asphalt"
  }
},
{
  "type": "way",
  "id": 86203832,
  "nodes": [
    278789433,
    5756692242,
    278789434,
    278789435,
    1000652039,
    5756692239,
    278789436,
    5755183699,
    278789437,
    278789439,
    278789440,
    278789441,
    1449307412,
    5756692237,
    1449307399,
    1449307364,
    1000651990,
    278790413,
    278790414,
    278790415,
    278790416,
    4944346936,
    4944346927,
    4944346929,
    278790419,
    278790420,
    4086952754,
    278790421,
    5745610531,
    3204456635,
    278790422,
    3204456637,
    278790651,
    3253576533,
    278790652,
    3166564987
  ],
  "tags": {
    "highway": "secondary",
    "lanes": "2",
    "maxspeed": "40",
    "name": "Центральный проспект",
    "oneway": "yes",
    "surface": "asphalt"
  }
},
{
  "type": "way",
  "id": 86203839,
  "nodes": [
    278787092,
    1000652251,
    5788304655,
    1000651954,
    5788304654,
    1000651981,
    278787093
  ],
  "tags": {
    "bicycle": "yes",
    "highway": "primary",
    "lanes": "2",
    "layer": "1",
    "maxspeed": "60",
    "old_ref": "М55",
    "oneway": "yes",
    "ref": "Р-258",
    "surface": "asphalt"
  }
},
{
  "type": "way",
  "id": 86203842,
  "nodes": [
    1000652224,
    1000652179,
    1000652049,
    1000652252
  ],
  "tags": {
    "highway": "tertiary",
    "oneway": "yes"
  }
},
{
  "type": "way",
  "id": 86203845,
  "nodes": [
    278786961,
    3681613234,
    1000652051,
    5187321524,
    1000652188,
    1000652094,
    278786963,
    3058578938,
    1000651935,
    5165507282,
    5745684484,
    3058619571,
    3169860412,
    3058571916,
    5187321525,
    1000652088,
    278786965
  ],
  "tags": {
    "addr:postcode": "666033",
    "highway": "tertiary",
    "lanes": "4",
    "maxspeed": "40",
    "name": "проспект Строителей и Монтажников",
    "surface": "asphalt"
  }
},
{
  "type": "way",
  "id": 86203847,
  "nodes": [
    344620831,
    344619681,
    344619682,
    344619683,
    344619684,
    344619685,
    1000652083,
    1000651959,
    1000651923,
    344619686,
    5355743974,
    2611504490,
    2611504488,
    2637232717,
    2637232715,
    2637232713,
    2637232711,
    346591390,
    346585270,
    344619690,
    346594002,
    3249309004,
    344619691,
    346593986,
    346593032,
    346592990,
    344619693,
    5852244006,
    344619694,
    344619695
  ],
  "tags": {
    "highway": "tertiary",
    "lanes": "2",
    "name": "улица Ивана Кочубея",
    "surface": "asphalt"
  }
},
{
  "type": "way",
  "id": 86203851,
  "nodes": [
    346578526,
    5788304689,
    5788304657,
    1000652069,
    1000652214
  ],
  "tags": {
    "addr:postcode": "666033",
    "highway": "tertiary",
    "lanes": "1",
    "maxspeed": "60",
    "name": "проспект Металлургов",
    "oneway": "yes",
    "surface": "paved"
  }
},
{
  "type": "way",
  "id": 86203853,
  "nodes": [
    278787093,
    1000652219,
    1000652177,
    346578526
  ],
  "tags": {
    "addr:postcode": "666033",
    "highway": "tertiary",
    "lanes": "1",
    "maxspeed": "60",
    "name": "проспект Металлургов",
    "oneway": "yes",
    "surface": "asphalt"
  }
},
{
  "type": "way",
  "id": 154843281,
  "nodes": [
    699044279,
    699044280,
    699044213
  ],
  "tags": {
    "highway": "residential",
    "oneway": "yes"
  }
},
{
  "type": "way",
  "id": 154843282,
  "nodes": [
    699044346,
    1449307254,
    699044264
  ],
  "tags": {
    "highway": "residential",
    "oneway": "yes"
  }
},
{
  "type": "way",
  "id": 166456093,
  "nodes": [
    1779042025,
    278790818,
    1779042026,
    3166575228,
    3166575767,
    3166564987
  ],
  "tags": {
    "addr:postcode": "666034",
    "highway": "secondary",
    "name": "улица Мира",
    "surface": "asphalt"
  }
},
{
  "type": "way",
  "id": 166456094,
  "nodes": [
    3166564987,
    1779042027
  ],
  "tags": {
    "addr:postcode": "666034",
    "highway": "secondary",
    "lanes": "2",
    "name": "улица Мира",
    "surface": "asphalt"
  }
},
{
  "type": "way",
  "id": 166456095,
  "nodes": [
    278790890,
    3204492677,
    5714042670,
    278791053,
    2611504560,
    5714973006,
    3204492676,
    5767652229,
    5767653218,
    5745823032,
    5745823037,
    5767658892,
    3280467766,
    5767668088,
    2611504599,
    3433222612,
    3433222616,
    1779042057,
    4111615040,
    2611504601,
    3429573485,
    6527889208,
    5919569556,
    3429573500,
    2611504603,
    2611504454,
    3166610621,
    1000651871,
    3152565834,
    3152561401,
    3232867440,
    3160992686
  ],
  "tags": {
    "addr:postcode": "666034",
    "highway": "tertiary",
    "lanes": "2",
    "name": "улица Мира",
    "surface": "asphalt"
  }
},
{
  "type": "way",
  "id": 169816700,
  "nodes": [
    1000652224,
    346603125,
    346603127,
    346603130,
    3058683793,
    346603133,
    346603135,
    346603138,
    346603140,
    346603143,
    346603145,
    346603148,
    3058681872,
    3052996860,
    346603150,
    346603153,
    346603156,
    346603157,
    346603160,
    346603163,
    346603166,
    346603168,
    346603170,
    346603171
  ],
  "tags": {
    "highway": "unclassified",
    "name": "проспект Строителей и Монтажников"
  }
},
{
  "type": "way",
  "id": 187573628,
  "nodes": [
    1982258989,
    1449307384
  ],
  "tags": {
    "highway": "residential",
    "name": "1-й микрорайон",
    "name:ru": "1-й микрорайон",
    "name:uk": "1-й мікрорайон"
  }
},
{
  "type": "way",
  "id": 188078002,
  "nodes": [
    346585055,
    345517773,
    1987026561,
    1987026564,
    699006413
  ],
  "tags": {
    "highway": "residential",
    "name": "18-й квартал"
  }
},
{
  "type": "way",
  "id": 189614058,
  "nodes": [
    2611504500,
    2001993151
  ],
  "tags": {
    "highway": "residential",
    "name": "11-й квартал"
  }
},
{
  "type": "way",
  "id": 196364545,
  "nodes": [
    1000652265,
    346581111,
    5593399827,
    346581109,
    346581107,
    346581106,
    346581103,
    346581101,
    5593399825,
    1000652210,
    1000652010,
    346578565
  ],
  "tags": {
    "highway": "tertiary",
    "lanes": "2",
    "surface": "asphalt"
  }
},
{
  "type": "way",
  "id": 296809209,
  "nodes": [
    3006283783,
    3006297898,
    3006297899,
    3006297900,
    3006297901,
    3006297902,
    3232350680,
    3006297903,
    3006297904,
    3006297905
  ],
  "tags": {
    "highway": "unclassified",
    "surface": "unpaved"
  }
},
{
  "type": "way",
  "id": 296814365,
  "nodes": [
    3006335047,
    3006335048,
    3058697808,
    3006335049,
    3006335050,
    3006335051,
    3058700341,
    3006297905
  ],
  "tags": {
    "highway": "residential",
    "oneway": "no",
    "surface": "asphalt"
  }
},
{
  "type": "way",
  "id": 301746573,
  "nodes": [
    3058619571,
    3058619573,
    3058619572
  ],
  "tags": {
    "highway": "residential",
    "surface": "asphalt"
  }
},
{
  "type": "way",
  "id": 301749328,
  "nodes": [
    1779042025,
    278790491,
    2281041957,
    5715012474,
    4944346995,
    5715012477,
    4944346990,
    1809755110,
    4944346994,
    1809755106,
    2606782191,
    345518030
  ],
  "tags": {
    "bicycle": "yes",
    "highway": "primary",
    "lanes": "2",
    "lanes:backward": "1",
    "lanes:forward": "1",
    "maxspeed": "60",
    "name": "Култукский тракт",
    "old_ref": "М55",
    "ref": "Р-258",
    "surface": "asphalt"
  }
},
{
  "type": "way",
  "id": 309007576,
  "nodes": [
    4487797229,
    6430677211,
    4943181524
  ],
  "tags": {
    "highway": "unclassified"
  }
},
{
  "type": "way",
  "id": 309025369,
  "nodes": [
    3655063055,
    5714042664,
    1987026545,
    1987026546,
    5668386319,
    3285976137,
    3280462385,
    3280467767,
    3285976134,
    3285936245,
    3450028955,
    5714042680,
    5714042681,
    3450028959,
    3286003879,
    2611504558
  ],
  "tags": {
    "highway": "residential",
    "name": "улица Ленина",
    "name:en": "Lenin street",
    "name:ru": "улица Ленина",
    "oneway": "no"
  }
},
{
  "type": "way",
  "id": 309025409,
  "nodes": [
    2637232717,
    346591348,
    3160991184,
    3160991186,
    2611504484,
    344619657,
    3160991187,
    344619652
  ],
  "tags": {
    "addr:postcode": "666034",
    "highway": "tertiary",
    "lanes": "1",
    "name": "улица Орловских Комсомольцев",
    "name:en": "Oryol Komsomol Members' street",
    "name:ru": "улица Орловских Комсомольцев",
    "oneway": "yes",
    "surface": "asphalt"
  }
},
{
  "type": "way",
  "id": 309026040,
  "nodes": [
    344619681,
    3160992688,
    3160992687,
    3160992686
  ],
  "tags": {
    "highway": "unclassified"
  }
},
{
  "type": "way",
  "id": 309397238,
  "nodes": [
    2281049989,
    2281049987,
    5619300741,
    5715012497,
    2281049979,
    2281049977,
    5715012514,
    456748916,
    4487797229,
    278785569,
    4487797160,
    278785570,
    278785571,
    278785572
  ],
  "tags": {
    "bicycle": "yes",
    "highway": "primary",
    "lanes": "2",
    "lanes:backward": "1",
    "lanes:forward": "1",
    "maxspeed": "90",
    "name": "Култукский тракт",
    "old_ref": "М55",
    "ref": "Р-258",
    "surface": "asphalt"
  }
},
{
  "type": "way",
  "id": 309397239,
  "nodes": [
    345518030,
    345518031,
    2281049988,
    6430677213,
    345518032,
    6430677215,
    3208858160,
    345518033,
    345518034,
    345518035,
    345518036
  ],
  "tags": {
    "highway": "tertiary",
    "lanes": "2",
    "maxspeed": "60",
    "name": "улица Кабельщиков",
    "surface": "asphalt"
  }
},
{
  "type": "way",
  "id": 309920405,
  "nodes": [
    344619638,
    2611504561
  ],
  "tags": {
    "addr:postcode": "666034",
    "highway": "residential",
    "name": "улица Орловских Комсомольцев",
    "name:en": "Oryol Komsomol Members' street",
    "name:ru": "улица Орловских Комсомольцев"
  }
},
{
  "type": "way",
  "id": 309921783,
  "nodes": [
    3152539862,
    3152539863,
    3152539864,
    3152539865,
    278789430
  ],
  "tags": {
    "highway": "secondary",
    "oneway": "yes"
  }
},
{
  "type": "way",
  "id": 309921827,
  "nodes": [
    3152539862,
    278789391,
    278789392,
    1000651898,
    5756692268,
    278789393,
    278789394,
    278789395,
    4943181759,
    1449307387,
    4944346868,
    278789921,
    4944346863,
    5756692273,
    4943181780,
    3232364262,
    345517997,
    699031404,
    699044022
  ],
  "tags": {
    "highway": "tertiary",
    "lanes": "2",
    "name": "бульвар Созидателей",
    "oneway": "yes",
    "surface": "asphalt"
  }
},
{
  "type": "way",
  "id": 309921984,
  "nodes": [
    278789430,
    5756692247,
    278789431,
    4943986689,
    278789433
  ],
  "tags": {
    "highway": "secondary",
    "lanes": "2",
    "name": "бульвар Созидателей",
    "oneway": "yes"
  }
},
{
  "type": "way",
  "id": 309922800,
  "nodes": [
    3152542146,
    3152542147
  ],
  "tags": {
    "highway": "unclassified",
    "surface": "asphalt"
  }
},
{
  "type": "way",
  "id": 309923789,
  "nodes": [
    3152553352,
    1000652245,
    344620831
  ],
  "tags": {
    "bicycle": "yes",
    "highway": "primary",
    "lanes": "4",
    "maxspeed": "60",
    "old_ref": "М55",
    "ref": "Р-258",
    "surface": "asphalt"
  }
},
{
  "type": "way",
  "id": 309925446,
  "nodes": [
    2611504454,
    3166611261,
    3160964340,
    3152573787,
    3152576078,
    3429555865,
    2666424860,
    3424348655,
    3152582988,
    3232859642,
    3428244730,
    3428244733,
    2666424857
  ],
  "tags": {
    "addr:postcode": "666034",
    "highway": "residential",
    "maxspeed": "40",
    "name": "улица Первостроителей",
    "name:en": "First Builders street",
    "name:ru": "улица Первостроителей"
  }
},
{
  "type": "way",
  "id": 309926392,
  "nodes": [
    3160991188,
    3232844485,
    2637232726,
    3232844480,
    3232806220,
    3429594849,
    3232806218,
    3169968658,
    2637232729
  ],
  "tags": {
    "addr:postcode": "666034",
    "highway": "residential",
    "name": "улица Сибирякова",
    "name:en": "Sibiryakov street",
    "name:ru": "улица Сибирякова"
  }
},
{
  "type": "way",
  "id": 310638369,
  "nodes": [
    698943921,
    344621871,
    344621872
  ],
  "tags": {
    "addr:postcode": "666032",
    "highway": "residential",
    "name": "улица Левитана",
    "name:en": "Levitan street",
    "name:ru": "улица Левитана"
  }
},
{
  "type": "way",
  "id": 310638675,
  "nodes": [
    3160980068,
    3160980085,
    699022636,
    699006432,
    344621857,
    344621858,
    344621859,
    344621860,
    346585214,
    558521976,
    344621862,
    344621867,
    698943921
  ],
  "tags": {
    "addr:postcode": "666032",
    "highway": "tertiary",
    "name": "улица Левитана",
    "name:en": "Levitan street",
    "name:ru": "улица Левитана"
  }
},
{
  "type": "way",
  "id": 310638676,
  "nodes": [
    3160980068,
    5769516947,
    345517772,
    5769516272,
    345517773
  ],
  "tags": {
    "addr:postcode": "666032",
    "highway": "residential",
    "name": "Октябрьская улица",
    "name:en": "October street",
    "name:ru": "Октябрьская улица"
  }
},
{
  "type": "way",
  "id": 310638891,
  "nodes": [
    3160980081,
    3160980080,
    345517752,
    345517756,
    345517760,
    346587001,
    346586993,
    346586986,
    344621860
  ],
  "tags": {
    "addr:postcode": "666032",
    "highway": "residential",
    "name": "улица Репина",
    "name:en": "Repin street",
    "name:ru": "улица Репина"
  }
},
{
  "type": "way",
  "id": 310649075,
  "nodes": [
    3161061859,
    3161061858,
    3161061857,
    5788304636,
    3161061856,
    5788304637,
    1000652015
  ],
  "tags": {
    "highway": "tertiary_link",
    "oneway": "yes",
    "surface": "asphalt"
  }
},
{
  "type": "way",
  "id": 310649076,
  "nodes": [
    3161061860,
    5788304640,
    3161062061,
    5788304641,
    3161062062,
    3161062063,
    3152555507
  ],
  "tags": {
    "highway": "tertiary_link",
    "oneway": "yes",
    "surface": "asphalt"
  }
},
{
  "type": "way",
  "id": 311110674,
  "nodes": [
    1779042027,
    278790887,
    3143319851,
    278790888,
    3166564986,
    278790889,
    278790890
  ],
  "tags": {
    "addr:postcode": "666034",
    "highway": "tertiary",
    "lanes": "2",
    "name": "улица Мира",
    "surface": "asphalt"
  }
},
{
  "type": "way",
  "id": 311111077,
  "nodes": [
    3166575227,
    278790491
  ],
  "tags": {
    "highway": "secondary",
    "lanes": "2",
    "surface": "asphalt"
  }
},
{
  "type": "way",
  "id": 314403279,
  "nodes": [
    3204456634,
    3204456635
  ],
  "tags": {
    "highway": "tertiary"
  }
},
{
  "type": "way",
  "id": 314403280,
  "nodes": [
    3204456636,
    3204456637
  ],
  "tags": {
    "highway": "tertiary"
  }
},
{
  "type": "way",
  "id": 317024824,
  "nodes": [
    3232390964,
    3232384495,
    1449307506,
    1449307498,
    1449307507,
    346585056,
    1449307509,
    699006413,
    699006418,
    699006423,
    699006427,
    699006432
  ],
  "tags": {
    "highway": "residential",
    "surface": "ground"
  }
},
{
  "type": "way",
  "id": 318527768,
  "nodes": [
    3784115668,
    4943181606,
    3249343845,
    3249343846,
    3249343847,
    3784101742,
    3249343849,
    3249343850,
    3249343852,
    3249343853
  ],
  "tags": {
    "highway": "residential",
    "name": "Новая улица"
  }
},
{
  "type": "way",
  "id": 318962826,
  "nodes": [
    3232364263,
    345518003
  ],
  "tags": {
    "addr:postcode": "666036",
    "highway": "tertiary",
    "lanes": "2",
    "name": "Кольцевая улица",
    "name:en": "Circle street",
    "name:ru": "Кольцевая улица",
    "surface": "asphalt"
  }
},
{
  "type": "way",
  "id": 318962827,
  "nodes": [
    3232364263,
    3253655638,
    3253655640,
    3253655641,
    3253655639
  ],
  "tags": {
    "highway": "tertiary",
    "oneway": "no"
  }
},
{
  "type": "way",
  "id": 318962828,
  "nodes": [
    3253655639,
    3253655642,
    3253655643,
    3253655644,
    3253655645,
    3253655646,
    3253655647
  ],
  "tags": {
    "highway": "tertiary",
    "oneway": "yes"
  }
},
{
  "type": "way",
  "id": 321834876,
  "nodes": [
    3286038302,
    3286038303,
    3286038304,
    3286038305,
    3286038306,
    3286038307,
    3286038308,
    3286038309,
    3286038310,
    3286038311,
    3286038312,
    3286038313,
    3286038314,
    3286038315,
    3286038316,
    3286038317,
    3286038318,
    3286038319,
    3286038320,
    3286038321,
    3286038322,
    3286038323,
    3286038324,
    3286038325,
    3286038326,
    3286038327,
    3286038328,
    3286038329,
    3286038330,
    6430677224,
    3286038331,
    3286038332,
    3286038333,
    3286038334
  ],
  "tags": {
    "highway": "unclassified",
    "name": "Маяковского улица"
  }
},
{
  "type": "way",
  "id": 335714265,
  "nodes": [
    3428223544,
    2666424860,
    1987026554,
    345517745,
    2611504482
  ],
  "tags": {
    "highway": "residential",
    "name": "улица Ленина",
    "name:en": "Lenin street",
    "name:ru": "улица Ленина",
    "oneway": "yes"
  }
},
{
  "type": "way",
  "id": 336012434,
  "nodes": [
    2611504558,
    3232859333,
    3232864164,
    3232857337,
    3428223549,
    3428223544
  ],
  "tags": {
    "highway": "residential",
    "name": "улица Ленина",
    "name:en": "Lenin street",
    "name:ru": "улица Ленина",
    "oneway": "yes"
  }
},
{
  "type": "way",
  "id": 368564790,
  "nodes": [
    345518003,
    3253655639,
    3249402119,
    3249402123,
    5745610560,
    5788293683,
    1448815912,
    5745610579,
    699044264,
    5745610577,
    699044353,
    5745610570,
    345518025,
    345518026,
    346582228,
    5745610576,
    345518028,
    699045675,
    346582287
  ],
  "tags": {
    "highway": "tertiary",
    "lanes": "2",
    "name": "улица Кабельщиков",
    "oneway": "no",
    "surface": "asphalt"
  }
},
{
  "type": "way",
  "id": 375026075,
  "nodes": [
    3784113482,
    3784113483
  ],
  "tags": {
    "highway": "unclassified",
    "name": "Вишнёвая улица"
  }
},
{
  "type": "way",
  "id": 375026114,
  "nodes": [
    3784101745,
    4943181611,
    3784115963
  ],
  "tags": {
    "highway": "unclassified",
    "name": "Земляничная улица"
  }
},
{
  "type": "way",
  "id": 375026124,
  "nodes": [
    4943181705,
    4943181610,
    3784115666,
    4943181605,
    3784115867
  ],
  "tags": {
    "highway": "unclassified",
    "name": "Смородиновая улица"
  }
},
{
  "type": "way",
  "id": 375026170,
  "nodes": [
    3784115668,
    4943181607,
    3784115867,
    3784115963,
    3784113483
  ],
  "tags": {
    "highway": "unclassified"
  }
},
{
  "type": "way",
  "id": 375026199,
  "nodes": [
    3784115891,
    3784115892
  ],
  "tags": {
    "highway": "unclassified",
    "name": "Яблочная улица"
  }
},
{
  "type": "way",
  "id": 375026207,
  "nodes": [
    3784116175,
    3784116176
  ],
  "tags": {
    "highway": "unclassified",
    "name": "Клубничная улица"
  }
},
{
  "type": "way",
  "id": 375026210,
  "nodes": [
    3784116177,
    3784116178
  ],
  "tags": {
    "highway": "unclassified",
    "name": "Грушевая улица"
  }
},
{
  "type": "way",
  "id": 375026255,
  "nodes": [
    3784116037,
    3784116378
  ],
  "tags": {
    "highway": "unclassified",
    "name": "Малиновая улица"
  }
},
{
  "type": "way",
  "id": 504114214,
  "nodes": [
    4943180313,
    4943180314,
    4943180310,
    4943180306,
    4943180315,
    4943180316,
    4943180317,
    4943180318,
    4943180319,
    4943180320,
    4943181521,
    4943181522,
    5529489357,
    4943181523
  ],
  "tags": {
    "highway": "unclassified"
  }
},
{
  "type": "way",
  "id": 504114222,
  "nodes": [
    4943181558,
    4943181559,
    4943181560,
    4943181561,
    4943181562,
    4943181563,
    4943181564,
    4943181565,
    4943181566,
    4943181567,
    4943181568,
    4943181569,
    4943181570,
    4943181571,
    4943181572,
    4943181573,
    4943181574,
    4943181575,
    4943181576,
    4943181577,
    4943181578,
    4943181579,
    4943181580,
    4943181581,
    4943181582,
    4943181583,
    4943181584,
    4943181585,
    4943181586,
    4943181587,
    4943181588,
    4943181589,
    4943181590,
    4943181591,
    4943181592,
    4943181593,
    4943181594,
    4943181595,
    4943181596,
    4943181597,
    4943181598
  ],
  "tags": {
    "highway": "unclassified",
    "surface": "gravel"
  }
},
{
  "type": "way",
  "id": 504114224,
  "nodes": [
    4943181705,
    4943181706,
    4943181608,
    3784101745,
    3784113482,
    3784115891,
    3784116175,
    3784116177,
    3784116037,
    4943181609
  ],
  "tags": {
    "highway": "unclassified"
  }
},
{
  "type": "way",
  "id": 504114225,
  "nodes": [
    4943181610,
    4943181611
  ],
  "tags": {
    "highway": "unclassified"
  }
},
{
  "type": "way",
  "id": 504114226,
  "nodes": [
    3784113483,
    4943181612,
    3784115892,
    3784116176,
    3784116178,
    6601684698,
    3784116378
  ],
  "tags": {
    "highway": "unclassified"
  }
},
{
  "type": "way",
  "id": 504114241,
  "nodes": [
    4943181639,
    4943181699,
    4943181700,
    4943181701,
    4943181702,
    4943181703,
    4943181704,
    4943181705
  ],
  "tags": {
    "highway": "unclassified"
  }
},
{
  "type": "way",
  "id": 504114242,
  "nodes": [
    4943181707,
    4943181708,
    4943181709
  ],
  "tags": {
    "highway": "unclassified"
  }
},
{
  "type": "way",
  "id": 504114243,
  "nodes": [
    4943181710,
    4943181711,
    4943181712
  ],
  "tags": {
    "highway": "unclassified"
  }
},
{
  "type": "way",
  "id": 504114246,
  "nodes": [
    4943181732,
    4943181733,
    4943181734,
    4943181735,
    4943181736,
    4943181737,
    4943181738,
    4943181739,
    4943181740,
    4943181741,
    4943181742,
    4943181743,
    4943181744,
    5756599930,
    5756599932,
    4943181745,
    4943181746
  ],
  "tags": {
    "highway": "unclassified"
  }
},
{
  "type": "way",
  "id": 504227433,
  "nodes": [
    4944036858,
    4944036859
  ],
  "tags": {
    "highway": "residential",
    "name": "улица Еликаниды Серебринниковой"
  }
},
{
  "type": "way",
  "id": 504227434,
  "nodes": [
    4944036860,
    4944036861
  ],
  "tags": {
    "highway": "residential",
    "name": "улица Анатолия Ямщиков"
  }
},
{
  "type": "way",
  "id": 504227435,
  "nodes": [
    4944036862,
    4944036926,
    4944036863,
    4944036864,
    4944036865
  ],
  "tags": {
    "highway": "residential",
    "name": "улица Алексея Зверева"
  }
},
{
  "type": "way",
  "id": 504227436,
  "nodes": [
    4944036866,
    4944036859,
    4944036861,
    4944036867
  ],
  "tags": {
    "highway": "residential"
  }
},
{
  "type": "way",
  "id": 504227437,
  "nodes": [
    4944036868,
    4944036869
  ],
  "tags": {
    "highway": "residential"
  }
},
{
  "type": "way",
  "id": 504227440,
  "nodes": [
    346585158,
    4944036867,
    4944036880,
    4944036868,
    4944036865
  ],
  "tags": {
    "highway": "residential"
  }
},
{
  "type": "way",
  "id": 504257811,
  "nodes": [
    346585153,
    4944036869,
    346585155,
    346585156,
    346585157,
    346585158,
    346585164,
    5756599942,
    937607461,
    346585166,
    4944036866,
    346585167,
    346585168,
    937607650,
    5756599924,
    346585169,
    4943181730,
    4943181729,
    4943181732,
    4943181731,
    346585170,
    1000651948
  ],
  "tags": {
    "highway": "tertiary",
    "name": "Заводская улица",
    "surface": "gravel",
    "tracktype": "grade2"
  }
},
{
  "type": "way",
  "id": 569627014,
  "nodes": [
    278787093,
    5788304675,
    5788304665,
    1000652165,
    5788304674,
    1000652241,
    5788304673,
    1000652103
  ],
  "tags": {
    "bicycle": "yes",
    "highway": "primary",
    "junction": "roundabout",
    "lanes": "2",
    "maxspeed": "40",
    "old_ref": "М55",
    "ref": "Р-258",
    "surface": "asphalt"
  }
},
{
  "type": "way",
  "id": 574941832,
  "nodes": [
    344620831,
    278788370
  ],
  "tags": {
    "bicycle": "yes",
    "highway": "primary",
    "lanes": "4",
    "maxspeed": "60",
    "old_ref": "М55",
    "ref": "Р-258",
    "surface": "asphalt"
  }
},
{
  "type": "way",
  "id": 580277613,
  "nodes": [
    3161061860,
    1000652148
  ],
  "tags": {
    "bicycle": "yes",
    "highway": "primary",
    "lanes": "2",
    "old_ref": "М55",
    "oneway": "yes",
    "ref": "Р-258",
    "surface": "asphalt"
  }
},
{
  "type": "way",
  "id": 580278415,
  "nodes": [
    278787098,
    1000652223,
    5788304659,
    5788304666,
    1000652078,
    5788304667,
    1000652048,
    1000651920,
    5788304660,
    5788304661,
    5788304658,
    278787093
  ],
  "tags": {
    "bicycle": "yes",
    "highway": "primary",
    "junction": "roundabout",
    "lanes": "2",
    "old_ref": "М55",
    "oneway": "yes",
    "ref": "Р-258",
    "surface": "asphalt"
  }
},
{
  "type": "way",
  "id": 580278416,
  "nodes": [
    278787098,
    5788304668,
    5788304669,
    1000652108
  ],
  "tags": {
    "bicycle": "yes",
    "highway": "primary",
    "lanes": "2",
    "maxspeed": "60",
    "old_ref": "М55",
    "oneway": "yes",
    "ref": "Р-258",
    "surface": "asphalt"
  }
},
{
  "type": "way",
  "id": 581052008,
  "nodes": [
    1000652103,
    1000652207,
    5788304677,
    5788304676,
    278786066
  ],
  "tags": {
    "bicycle": "yes",
    "highway": "primary",
    "junction": "roundabout",
    "lanes": "2",
    "maxspeed": "40",
    "old_ref": "М55",
    "ref": "Р-258",
    "surface": "asphalt"
  }
},
{
  "type": "way",
  "id": 581052009,
  "nodes": [
    278786066,
    5788304686,
    5788304687,
    1000651957,
    5788304682,
    1000652082,
    5788304683,
    1000652119,
    5788304684,
    1000652193,
    5788304685,
    278787098
  ],
  "tags": {
    "bicycle": "yes",
    "highway": "primary",
    "junction": "roundabout",
    "lanes": "2",
    "old_ref": "М55",
    "oneway": "yes",
    "ref": "Р-258"
  }
},
{
  "type": "way",
  "id": 581052010,
  "nodes": [
    1000652214,
    5788304688,
    1000652103
  ],
  "tags": {
    "addr:postcode": "666033",
    "highway": "tertiary",
    "lanes": "1",
    "maxspeed": "60",
    "name": "проспект Металлургов",
    "oneway": "yes",
    "surface": "paved"
  }
},
{
  "type": "way",
  "id": 581052011,
  "nodes": [
    1000652214,
    1000652019,
    5788304653,
    5788304652,
    1000652153,
    278786961
  ],
  "tags": {
    "addr:postcode": "666033",
    "highway": "tertiary",
    "lanes": "2",
    "maxspeed": "60",
    "name": "проспект Строителей и Монтажников",
    "oneway": "yes",
    "surface": "asphalt"
  }
},
{
  "type": "way",
  "id": 581065937,
  "nodes": [
    1000652148,
    345113495,
    3152555507,
    345113494,
    3152542147,
    1982258985,
    3166599634,
    6397629023,
    3166614195,
    1000651871
  ],
  "tags": {
    "highway": "tertiary",
    "lanes": "2",
    "name": "улица Петра Красильникова",
    "name:en": "Peter Krasilnikov street",
    "name:ru": "улица Петра Красильникова",
    "oneway": "yes",
    "surface": "asphalt"
  }
},
{
  "type": "way",
  "id": 581065938,
  "nodes": [
    1000652148,
    5788304670,
    5788304671,
    5788304672,
    278787098
  ],
  "tags": {
    "bicycle": "yes",
    "highway": "primary",
    "lanes": "2",
    "maxspeed": "60",
    "old_ref": "М55",
    "oneway": "yes",
    "ref": "Р-258",
    "surface": "asphalt"
  }
},
{
  "type": "way",
  "id": 581066425,
  "nodes": [
    1000652108,
    5788304662,
    1000652182,
    5788304663,
    5788304656,
    5788304664,
    278787093
  ],
  "tags": {
    "highway": "tertiary",
    "lanes": "2",
    "maxspeed": "60",
    "name": "улица Петра Красильникова",
    "name:en": "Peter Krasilnikov street",
    "name:ru": "улица Петра Красильникова",
    "oneway": "yes",
    "surface": "asphalt"
  }
},
{
  "type": "way",
  "id": 581066426,
  "nodes": [
    1000652108,
    1000652015,
    278787092
  ],
  "tags": {
    "bicycle": "yes",
    "highway": "primary",
    "lanes": "2",
    "maxspeed": "60",
    "old_ref": "М55",
    "oneway": "yes",
    "ref": "Р-258",
    "surface": "asphalt"
  }
},
{
  "type": "way",
  "id": 584875297,
  "nodes": [
    5590052449,
    5907114024,
    5590052450,
    5590052453,
    5590052451,
    5590052452
  ],
  "tags": {
    "highway": "residential",
    "name": "Первая улица СНТ Металлург"
  }
},
{
  "type": "way",
  "id": 584875470,
  "nodes": [
    5590055072,
    5590055073,
    5590055074,
    5590055075,
    5590052452
  ],
  "tags": {
    "highway": "residential",
    "name": "Вторая улица СНТ Металлург"
  }
},
{
  "type": "way",
  "id": 584877192,
  "nodes": [
    5590052452,
    5590054518,
    5590071274,
    5590057397,
    5590060533,
    5590063082,
    5590060384,
    5590066091
  ],
  "tags": {
    "highway": "residential"
  }
},
{
  "type": "way",
  "id": 603106944,
  "nodes": [
    1000652252,
    1000652010
  ],
  "tags": {
    "highway": "tertiary",
    "oneway": "yes"
  }
},
{
  "type": "way",
  "id": 604919423,
  "nodes": [
    4944346944,
    278790486
  ],
  "tags": {
    "highway": "secondary",
    "oneway": "yes",
    "surface": "asphalt"
  }
},
{
  "type": "way",
  "id": 605908230,
  "nodes": [
    5745676809,
    6652851944,
    5745676810
  ],
  "tags": {
    "highway": "residential",
    "name": "Известковая улица"
  }
},
{
  "type": "way",
  "id": 605908238,
  "nodes": [
    6652851979,
    937608131,
    937607617,
    937607675,
    937607894,
    6652851711,
    937607556,
    937607774,
    937592787
  ],
  "tags": {
    "highway": "residential",
    "name": "Трактовая улица",
    "surface": "asphalt"
  }
},
{
  "type": "way",
  "id": 607127839,
  "nodes": [
    4944345385,
    5754540946,
    5754540947,
    5754540945,
    5754540948,
    5754540949,
    3249722177,
    5754540950,
    5754540937,
    5754540951,
    5754540952,
    345518018,
    4944036494,
    1449307281,
    3429618963,
    699044023,
    5756599515,
    3253668616,
    3253668611,
    5756599514,
    699044022,
    5756692276,
    5756692280,
    5756692274,
    3232364263
  ],
  "tags": {
    "addr:postcode": "666036",
    "highway": "tertiary",
    "lanes": "2",
    "maxspeed": "40",
    "name": "Кольцевая улица",
    "name:en": "Circle street",
    "name:ru": "Кольцевая улица",
    "surface": "asphalt"
  }
},
{
  "type": "way",
  "id": 607127842,
  "nodes": [
    5754540937,
    5754623757,
    5754612928,
    5754612927,
    5754540936
  ],
  "tags": {
    "highway": "residential",
    "lanes": "1",
    "maxspeed": "40",
    "name": "3-й микрорайон",
    "oneway": "no",
    "surface": "asphalt"
  }
},
{
  "type": "way",
  "id": 607431763,
  "nodes": [
    278789387,
    3161084876
  ],
  "tags": {
    "highway": "secondary",
    "oneway": "yes"
  }
},
{
  "type": "way",
  "id": 607431764,
  "nodes": [
    3161084876,
    5756691608,
    278789690
  ],
  "tags": {
    "addr:postcode": "666036",
    "highway": "secondary",
    "name": "улица Белобородова",
    "name:en": "Beloborodov street",
    "name:ru": "улица Белобородова",
    "oneway": "yes"
  }
},
{
  "type": "way",
  "id": 607431765,
  "nodes": [
    278789761,
    3152539862
  ],
  "tags": {
    "highway": "secondary",
    "lanes": "2",
    "name": "бульвар Созидателей",
    "oneway": "yes"
  }
},
{
  "type": "way",
  "id": 607431766,
  "nodes": [
    278789049,
    1000652168,
    278789761
  ],
  "tags": {
    "highway": "secondary",
    "lanes": "2",
    "name": "бульвар Созидателей",
    "oneway": "yes"
  }
},
{
  "type": "way",
  "id": 607431778,
  "nodes": [
    278789387,
    278789388,
    278789049
  ],
  "tags": {
    "highway": "secondary",
    "lanes": "2",
    "maxspeed": "40",
    "name": "Центральный проспект",
    "oneway": "yes",
    "surface": "asphalt"
  }
},
{
  "type": "way",
  "id": 607431780,
  "nodes": [
    345517997,
    5756692283,
    5756692282,
    5756692281,
    5756692280
  ],
  "tags": {
    "highway": "tertiary",
    "oneway": "yes"
  }
},
{
  "type": "way",
  "id": 611335741,
  "nodes": [
    5788283592,
    1449307399
  ],
  "tags": {
    "highway": "tertiary_link",
    "maxspeed": "20"
  }
},
{
  "type": "way",
  "id": 614885947,
  "nodes": [
    345518030,
    2281049989
  ],
  "tags": {
    "bicycle": "yes",
    "highway": "primary",
    "name": "Култукский тракт",
    "old_ref": "М55",
    "ref": "Р-258",
    "surface": "asphalt"
  }
},
{
  "type": "way",
  "id": 614885950,
  "nodes": [
    346582287,
    345518029,
    1809755104,
    345518030
  ],
  "tags": {
    "highway": "tertiary",
    "lanes": "2",
    "name": "улица Кабельщиков",
    "oneway": "no",
    "surface": "asphalt"
  }
},
{
  "type": "way",
  "id": 682334690,
  "nodes": [
    6389868415,
    6389868416
  ],
  "tags": {
    "highway": "tertiary",
    "lanes": "1",
    "maxspeed": "20",
    "name": "Въезд на парковку кинотеатра",
    "surface": "asphalt"
  }
},
{
  "type": "way",
  "id": 685796419,
  "nodes": [
    4943181776,
    6427489867,
    4943181779,
    6427489868,
    6427489869
  ],
  "tags": {
    "highway": "residential",
    "maxspeed": "20",
    "surface": "asphalt"
  }
},
{
  "type": "way",
  "id": 685796603,
  "nodes": [
    4943181782,
    6427491331,
    4943181785,
    6427491332,
    4943181774
  ],
  "tags": {
    "highway": "residential",
    "maxspeed": "20",
    "surface": "asphalt"
  }
},
{
  "type": "way",
  "id": 686100265,
  "nodes": [
    6430656671,
    6430656672
  ],
  "tags": {
    "highway": "residential"
  }
},
{
  "type": "way",
  "id": 691332426,
  "nodes": [
    5756599517,
    6487051544
  ],
  "tags": {
    "highway": "residential",
    "lanes": "1",
    "maxspeed": "20",
    "name": "проезд под аркой",
    "surface": "asphalt"
  }
},
{
  "type": "way",
  "id": 692096536,
  "nodes": [
    1449307201,
    4944036840,
    456749275,
    4914773062,
    456749278,
    456749281,
    1449307198,
    1449307197,
    1449307195,
    456749285,
    1449307193,
    1449307192,
    4943180313,
    1449307191,
    1449307190,
    456748916
  ],
  "tags": {
    "highway": "unclassified",
    "maxspeed": "20",
    "surface": "gravel"
  }
},
{
  "type": "way",
  "id": 701014360,
  "nodes": [
    6487044876,
    3152553352
  ],
  "tags": {
    "bicycle": "yes",
    "highway": "primary",
    "lanes": "4",
    "maxspeed": "40",
    "old_ref": "М55",
    "ref": "Р-258",
    "surface": "asphalt"
  }
},
{
  "type": "way",
  "id": 708011629,
  "nodes": [
    5745676807,
    6652851943,
    6652851942,
    6652851941,
    6652851940
  ],
  "tags": {
    "highway": "residential",
    "name": "Известковая улица",
    "surface": "ground"
  }
},
{
  "type": "node",
  "id": 278785571,
  "lat": 52.1859026,
  "lon": 104.0161822
},
{
  "type": "node",
  "id": 278785572,
  "lat": 52.1856082,
  "lon": 104.0150101
},
{
  "type": "node",
  "id": 346581193,
  "lat": 52.1812835,
  "lon": 104.0709527
},
{
  "type": "node",
  "id": 346581194,
  "lat": 52.1815552,
  "lon": 104.0685258
},
{
  "type": "node",
  "id": 346581195,
  "lat": 52.1818431,
  "lon": 104.0661075
},
{
  "type": "node",
  "id": 346581196,
  "lat": 52.1818811,
  "lon": 104.0659734
},
{
  "type": "node",
  "id": 346581197,
  "lat": 52.1819785,
  "lon": 104.0658301
},
{
  "type": "node",
  "id": 346581198,
  "lat": 52.1820526,
  "lon": 104.0657638
},
{
  "type": "node",
  "id": 346581199,
  "lat": 52.1821139,
  "lon": 104.0657300
},
{
  "type": "node",
  "id": 346581201,
  "lat": 52.1822317,
  "lon": 104.0656900
},
{
  "type": "node",
  "id": 346581202,
  "lat": 52.1823421,
  "lon": 104.0657166
},
{
  "type": "node",
  "id": 346581203,
  "lat": 52.1824792,
  "lon": 104.0657756
},
{
  "type": "node",
  "id": 346581183,
  "lat": 52.1804944,
  "lon": 104.0766567
},
{
  "type": "node",
  "id": 346581184,
  "lat": 52.1806457,
  "lon": 104.0756777
},
{
  "type": "node",
  "id": 346581185,
  "lat": 52.1807434,
  "lon": 104.0753369
},
{
  "type": "node",
  "id": 346581188,
  "lat": 52.1808008,
  "lon": 104.0750985
},
{
  "type": "node",
  "id": 346581191,
  "lat": 52.1808243,
  "lon": 104.0747664
},
{
  "type": "node",
  "id": 346581192,
  "lat": 52.1808609,
  "lon": 104.0742597
},
{
  "type": "node",
  "id": 4839365343,
  "lat": 52.1803760,
  "lon": 104.0775606
},
{
  "type": "node",
  "id": 4839365345,
  "lat": 52.1805668,
  "lon": 104.0761417
},
{
  "type": "node",
  "id": 346581178,
  "lat": 52.1809220,
  "lon": 104.0840462
},
{
  "type": "node",
  "id": 346581179,
  "lat": 52.1800746,
  "lon": 104.0816089
},
{
  "type": "node",
  "id": 346581180,
  "lat": 52.1799907,
  "lon": 104.0811746
},
{
  "type": "node",
  "id": 346581181,
  "lat": 52.1799782,
  "lon": 104.0808907
},
{
  "type": "node",
  "id": 346581182,
  "lat": 52.1800150,
  "lon": 104.0805356
},
{
  "type": "node",
  "id": 1809754855,
  "lat": 52.1804953,
  "lon": 104.0827612,
  "tags": {
    "railway": "level_crossing"
  }
},
{
  "type": "node",
  "id": 4111610612,
  "lat": 52.1802652,
  "lon": 104.0821242,
  "tags": {
    "railway": "level_crossing"
  }
},
{
  "type": "node",
  "id": 4839365342,
  "lat": 52.1800238,
  "lon": 104.0813909
},
{
  "type": "node",
  "id": 4839365344,
  "lat": 52.1802345,
  "lon": 104.0787193
},
{
  "type": "node",
  "id": 346581174,
  "lat": 52.1819608,
  "lon": 104.0857725
},
{
  "type": "node",
  "id": 346581175,
  "lat": 52.1815758,
  "lon": 104.0856256
},
{
  "type": "node",
  "id": 346581176,
  "lat": 52.1814763,
  "lon": 104.0855429
},
{
  "type": "node",
  "id": 346581177,
  "lat": 52.1810338,
  "lon": 104.0844378
},
{
  "type": "node",
  "id": 1589626735,
  "lat": 52.1822048,
  "lon": 104.0858604
},
{
  "type": "node",
  "id": 5593399834,
  "lat": 52.1813365,
  "lon": 104.0853685
},
{
  "type": "node",
  "id": 5593399835,
  "lat": 52.1811967,
  "lon": 104.0850681
},
{
  "type": "node",
  "id": 278785570,
  "lat": 52.1868462,
  "lon": 104.0196279
},
{
  "type": "node",
  "id": 4487797160,
  "lat": 52.1917063,
  "lon": 104.0372714
},
{
  "type": "node",
  "id": 4943181523,
  "lat": 52.2039083,
  "lon": 104.0422843
},
{
  "type": "node",
  "id": 4943181558,
  "lat": 52.2066728,
  "lon": 104.0437237
},
{
  "type": "node",
  "id": 4943181559,
  "lat": 52.2069626,
  "lon": 104.0437824
},
{
  "type": "node",
  "id": 4943181560,
  "lat": 52.2071476,
  "lon": 104.0439180
},
{
  "type": "node",
  "id": 4943181561,
  "lat": 52.2073742,
  "lon": 104.0442970
},
{
  "type": "node",
  "id": 4943181562,
  "lat": 52.2075139,
  "lon": 104.0447252
},
{
  "type": "node",
  "id": 278785569,
  "lat": 52.1951154,
  "lon": 104.0496838
},
{
  "type": "node",
  "id": 346581204,
  "lat": 52.1840808,
  "lon": 104.0665301
},
{
  "type": "node",
  "id": 346581205,
  "lat": 52.1860807,
  "lon": 104.0671787
},
{
  "type": "node",
  "id": 346581206,
  "lat": 52.1875227,
  "lon": 104.0676356
},
{
  "type": "node",
  "id": 346581207,
  "lat": 52.1892966,
  "lon": 104.0680244
},
{
  "type": "node",
  "id": 3143217719,
  "lat": 52.1876810,
  "lon": 104.0676527
},
{
  "type": "node",
  "id": 4943181524,
  "lat": 52.1950633,
  "lon": 104.0597925
},
{
  "type": "node",
  "id": 346581208,
  "lat": 52.1911903,
  "lon": 104.0687391
},
{
  "type": "node",
  "id": 346581209,
  "lat": 52.1935204,
  "lon": 104.0694679
},
{
  "type": "node",
  "id": 346581210,
  "lat": 52.1941667,
  "lon": 104.0699547
},
{
  "type": "node",
  "id": 346581211,
  "lat": 52.1944670,
  "lon": 104.0701970
},
{
  "type": "node",
  "id": 346581212,
  "lat": 52.1945467,
  "lon": 104.0702886
},
{
  "type": "node",
  "id": 346581213,
  "lat": 52.1946230,
  "lon": 104.0704151
},
{
  "type": "node",
  "id": 346581214,
  "lat": 52.1947037,
  "lon": 104.0706506
},
{
  "type": "node",
  "id": 346581215,
  "lat": 52.1947523,
  "lon": 104.0709263
},
{
  "type": "node",
  "id": 4839365346,
  "lat": 52.1943278,
  "lon": 104.0700712
},
{
  "type": "node",
  "id": 456749285,
  "lat": 52.2006953,
  "lon": 104.0566249
},
{
  "type": "node",
  "id": 1449307195,
  "lat": 52.2011039,
  "lon": 104.0562661
},
{
  "type": "node",
  "id": 1449307197,
  "lat": 52.2013348,
  "lon": 104.0558930
},
{
  "type": "node",
  "id": 1449307198,
  "lat": 52.2015119,
  "lon": 104.0555528
},
{
  "type": "node",
  "id": 4487797229,
  "lat": 52.1973220,
  "lon": 104.0579344
},
{
  "type": "node",
  "id": 4943180306,
  "lat": 52.1997164,
  "lon": 104.0569667
},
{
  "type": "node",
  "id": 4943180310,
  "lat": 52.1984999,
  "lon": 104.0578196
},
{
  "type": "node",
  "id": 4943180315,
  "lat": 52.2008672,
  "lon": 104.0561620
},
{
  "type": "node",
  "id": 4943180316,
  "lat": 52.2009658,
  "lon": 104.0560333
},
{
  "type": "node",
  "id": 4943180317,
  "lat": 52.2013110,
  "lon": 104.0553895
},
{
  "type": "node",
  "id": 456749275,
  "lat": 52.2040112,
  "lon": 104.0501976
},
{
  "type": "node",
  "id": 456749278,
  "lat": 52.2037207,
  "lon": 104.0507318
},
{
  "type": "node",
  "id": 456749281,
  "lat": 52.2034182,
  "lon": 104.0514466
},
{
  "type": "node",
  "id": 1449307201,
  "lat": 52.2045743,
  "lon": 104.0487707
},
{
  "type": "node",
  "id": 4914773062,
  "lat": 52.2039253,
  "lon": 104.0503508
},
{
  "type": "node",
  "id": 4943180318,
  "lat": 52.2037735,
  "lon": 104.0500251
},
{
  "type": "node",
  "id": 4943180319,
  "lat": 52.2039083,
  "lon": 104.0497301
},
{
  "type": "node",
  "id": 4943180320,
  "lat": 52.2039642,
  "lon": 104.0494672
},
{
  "type": "node",
  "id": 4943181521,
  "lat": 52.2039905,
  "lon": 104.0489201
},
{
  "type": "node",
  "id": 4943181522,
  "lat": 52.2039872,
  "lon": 104.0487430
},
{
  "type": "node",
  "id": 4943181563,
  "lat": 52.2076989,
  "lon": 104.0453938
},
{
  "type": "node",
  "id": 4943181564,
  "lat": 52.2079765,
  "lon": 104.0461425
},
{
  "type": "node",
  "id": 4943181565,
  "lat": 52.2082163,
  "lon": 104.0466971
},
{
  "type": "node",
  "id": 4943181566,
  "lat": 52.2084712,
  "lon": 104.0471377
},
{
  "type": "node",
  "id": 4943181567,
  "lat": 52.2086732,
  "lon": 104.0473904
},
{
  "type": "node",
  "id": 4943181568,
  "lat": 52.2089772,
  "lon": 104.0476029
},
{
  "type": "node",
  "id": 4943181569,
  "lat": 52.2091471,
  "lon": 104.0477570
},
{
  "type": "node",
  "id": 4944036840,
  "lat": 52.2041242,
  "lon": 104.0499475
},
{
  "type": "node",
  "id": 5529489357,
  "lat": 52.2039452,
  "lon": 104.0453067
},
{
  "type": "node",
  "id": 345518018,
  "lat": 52.2073246,
  "lon": 104.0551212
},
{
  "type": "node",
  "id": 699044023,
  "lat": 52.2075511,
  "lon": 104.0580026
},
{
  "type": "node",
  "id": 699044029,
  "lat": 52.2082147,
  "lon": 104.0532628
},
{
  "type": "node",
  "id": 699044030,
  "lat": 52.2083186,
  "lon": 104.0533469
},
{
  "type": "node",
  "id": 1449307281,
  "lat": 52.2074733,
  "lon": 104.0572213
},
{
  "type": "node",
  "id": 3222828987,
  "lat": 52.2086363,
  "lon": 104.0537677,
  "tags": {
    "highway": "crossing"
  }
},
{
  "type": "node",
  "id": 3249722177,
  "lat": 52.2073580,
  "lon": 104.0545263
},
{
  "type": "node",
  "id": 3429618963,
  "lat": 52.2075434,
  "lon": 104.0579252
},
{
  "type": "node",
  "id": 4944036489,
  "lat": 52.2086985,
  "lon": 104.0538579
},
{
  "type": "node",
  "id": 4944036494,
  "lat": 52.2073877,
  "lon": 104.0560768
},
{
  "type": "node",
  "id": 4944345385,
  "lat": 52.2081452,
  "lon": 104.0532166
},
{
  "type": "node",
  "id": 5754540936,
  "lat": 52.2062595,
  "lon": 104.0534911
},
{
  "type": "node",
  "id": 5754540937,
  "lat": 52.2073241,
  "lon": 104.0547091
},
{
  "type": "node",
  "id": 5754540945,
  "lat": 52.2079175,
  "lon": 104.0533353
},
{
  "type": "node",
  "id": 5754540946,
  "lat": 52.2080570,
  "lon": 104.0532296
},
{
  "type": "node",
  "id": 5754540947,
  "lat": 52.2079910,
  "lon": 104.0532601
},
{
  "type": "node",
  "id": 5754540948,
  "lat": 52.2078029,
  "lon": 104.0535061
},
{
  "type": "node",
  "id": 5754540949,
  "lat": 52.2074030,
  "lon": 104.0544167
},
{
  "type": "node",
  "id": 5754540950,
  "lat": 52.2073445,
  "lon": 104.0545590
},
{
  "type": "node",
  "id": 5754540951,
  "lat": 52.2073210,
  "lon": 104.0547320
},
{
  "type": "node",
  "id": 5754540952,
  "lat": 52.2073097,
  "lon": 104.0549127
},
{
  "type": "node",
  "id": 5754612927,
  "lat": 52.2063013,
  "lon": 104.0534087
},
{
  "type": "node",
  "id": 5754612928,
  "lat": 52.2063664,
  "lon": 104.0534126
},
{
  "type": "node",
  "id": 5754623757,
  "lat": 52.2070288,
  "lon": 104.0543093
},
{
  "type": "node",
  "id": 456748916,
  "lat": 52.1975061,
  "lon": 104.0585996
},
{
  "type": "node",
  "id": 1449307190,
  "lat": 52.1976374,
  "lon": 104.0584267
},
{
  "type": "node",
  "id": 1449307191,
  "lat": 52.1978099,
  "lon": 104.0583073
},
{
  "type": "node",
  "id": 1449307192,
  "lat": 52.1980817,
  "lon": 104.0583457
},
{
  "type": "node",
  "id": 1449307193,
  "lat": 52.1983614,
  "lon": 104.0582561
},
{
  "type": "node",
  "id": 4943180313,
  "lat": 52.1978812,
  "lon": 104.0583174
},
{
  "type": "node",
  "id": 4943180314,
  "lat": 52.1979837,
  "lon": 104.0581737
},
{
  "type": "node",
  "id": 5715012514,
  "lat": 52.1987084,
  "lon": 104.0628548
},
{
  "type": "node",
  "id": 6430677211,
  "lat": 52.1962027,
  "lon": 104.0588552
},
{
  "type": "node",
  "id": 345518029,
  "lat": 52.2025010,
  "lon": 104.0710678
},
{
  "type": "node",
  "id": 2281049977,
  "lat": 52.2000132,
  "lon": 104.0674730
},
{
  "type": "node",
  "id": 2281049979,
  "lat": 52.2002393,
  "lon": 104.0682733
},
{
  "type": "node",
  "id": 2281049987,
  "lat": 52.2007462,
  "lon": 104.0700674
},
{
  "type": "node",
  "id": 5619300741,
  "lat": 52.2006027,
  "lon": 104.0695827
},
{
  "type": "node",
  "id": 5715012497,
  "lat": 52.2003529,
  "lon": 104.0686828
},
{
  "type": "node",
  "id": 345517997,
  "lat": 52.2082516,
  "lon": 104.0622619
},
{
  "type": "node",
  "id": 345518003,
  "lat": 52.2080869,
  "lon": 104.0626714
},
{
  "type": "node",
  "id": 699031404,
  "lat": 52.2080317,
  "lon": 104.0619761
},
{
  "type": "node",
  "id": 699044022,
  "lat": 52.2078809,
  "lon": 104.0617509
},
{
  "type": "node",
  "id": 3232361515,
  "lat": 52.2087067,
  "lon": 104.0633896
},
{
  "type": "node",
  "id": 3232361519,
  "lat": 52.2082983,
  "lon": 104.0629540
},
{
  "type": "node",
  "id": 3232364262,
  "lat": 52.2085211,
  "lon": 104.0626165,
  "tags": {
    "highway": "bus_stop",
    "name": "Бонус"
  }
},
{
  "type": "node",
  "id": 3232364263,
  "lat": 52.2079920,
  "lon": 104.0625440
},
{
  "type": "node",
  "id": 3249402119,
  "lat": 52.2078099,
  "lon": 104.0632394
},
{
  "type": "node",
  "id": 3249402123,
  "lat": 52.2076768,
  "lon": 104.0635205
},
{
  "type": "node",
  "id": 3253655638,
  "lat": 52.2079981,
  "lon": 104.0626699
},
{
  "type": "node",
  "id": 3253655639,
  "lat": 52.2079280,
  "lon": 104.0629779
},
{
  "type": "node",
  "id": 3253655640,
  "lat": 52.2079896,
  "lon": 104.0627750
},
{
  "type": "node",
  "id": 3253655641,
  "lat": 52.2079752,
  "lon": 104.0628357
},
{
  "type": "node",
  "id": 3253655642,
  "lat": 52.2079881,
  "lon": 104.0629034
},
{
  "type": "node",
  "id": 3253655643,
  "lat": 52.2080439,
  "lon": 104.0628590
},
{
  "type": "node",
  "id": 3253655644,
  "lat": 52.2080911,
  "lon": 104.0628450
},
{
  "type": "node",
  "id": 3253655645,
  "lat": 52.2081441,
  "lon": 104.0628427
},
{
  "type": "node",
  "id": 3253655646,
  "lat": 52.2081813,
  "lon": 104.0628520
},
{
  "type": "node",
  "id": 3253655647,
  "lat": 52.2082331,
  "lon": 104.0628668
},
{
  "type": "node",
  "id": 3253668611,
  "lat": 52.2077812,
  "lon": 104.0606044,
  "tags": {
    "highway": "crossing"
  }
},
{
  "type": "node",
  "id": 3253668616,
  "lat": 52.2077402,
  "lon": 104.0601768
},
{
  "type": "node",
  "id": 4943181780,
  "lat": 52.2088210,
  "lon": 104.0629897
},
{
  "type": "node",
  "id": 5745610560,
  "lat": 52.2076010,
  "lon": 104.0636806
},
{
  "type": "node",
  "id": 5752855835,
  "lat": 52.2089437,
  "lon": 104.0636424
},
{
  "type": "node",
  "id": 5752857790,
  "lat": 52.2091903,
  "lon": 104.0639055
},
{
  "type": "node",
  "id": 5756599514,
  "lat": 52.2078524,
  "lon": 104.0614236,
  "tags": {
    "highway": "crossing"
  }
},
{
  "type": "node",
  "id": 5756599515,
  "lat": 52.2076271,
  "lon": 104.0588763
},
{
  "type": "node",
  "id": 5756599517,
  "lat": 52.2088253,
  "lon": 104.0602573
},
{
  "type": "node",
  "id": 5756692271,
  "lat": 52.2090670,
  "lon": 104.0637740
},
{
  "type": "node",
  "id": 5756692272,
  "lat": 52.2090563,
  "lon": 104.0637625,
  "tags": {
    "highway": "crossing"
  }
},
{
  "type": "node",
  "id": 5756692273,
  "lat": 52.2091872,
  "lon": 104.0634454,
  "tags": {
    "highway": "crossing"
  }
},
{
  "type": "node",
  "id": 5756692274,
  "lat": 52.2079753,
  "lon": 104.0624247,
  "tags": {
    "highway": "give_way"
  }
},
{
  "type": "node",
  "id": 5756692276,
  "lat": 52.2079543,
  "lon": 104.0622749
},
{
  "type": "node",
  "id": 5756692280,
  "lat": 52.2079683,
  "lon": 104.0623749
},
{
  "type": "node",
  "id": 5756692281,
  "lat": 52.2080049,
  "lon": 104.0622879
},
{
  "type": "node",
  "id": 5756692282,
  "lat": 52.2080871,
  "lon": 104.0622310
},
{
  "type": "node",
  "id": 5756692283,
  "lat": 52.2081718,
  "lon": 104.0622310
},
{
  "type": "node",
  "id": 5788293683,
  "lat": 52.2073969,
  "lon": 104.0641116
},
{
  "type": "node",
  "id": 6430656672,
  "lat": 52.2038899,
  "lon": 104.0633222
},
{
  "type": "node",
  "id": 6487051544,
  "lat": 52.2090438,
  "lon": 104.0605348
},
{
  "type": "node",
  "id": 345518025,
  "lat": 52.2059195,
  "lon": 104.0672022
},
{
  "type": "node",
  "id": 345518026,
  "lat": 52.2057622,
  "lon": 104.0674394
},
{
  "type": "node",
  "id": 345518028,
  "lat": 52.2031687,
  "lon": 104.0699669
},
{
  "type": "node",
  "id": 346582166,
  "lat": 52.2066346,
  "lon": 104.0679676
},
{
  "type": "node",
  "id": 346582169,
  "lat": 52.2078364,
  "lon": 104.0694717
},
{
  "type": "node",
  "id": 346582171,
  "lat": 52.2078954,
  "lon": 104.0696003
},
{
  "type": "node",
  "id": 346582181,
  "lat": 52.2079197,
  "lon": 104.0697450
},
{
  "type": "node",
  "id": 346582188,
  "lat": 52.2079263,
  "lon": 104.0699805
},
{
  "type": "node",
  "id": 346582228,
  "lat": 52.2046219,
  "lon": 104.0686242
},
{
  "type": "node",
  "id": 346582287,
  "lat": 52.2029217,
  "lon": 104.0703732
},
{
  "type": "node",
  "id": 699044213,
  "lat": 52.2065757,
  "lon": 104.0678057
},
{
  "type": "node",
  "id": 699044262,
  "lat": 52.2064968,
  "lon": 104.0674302
},
{
  "type": "node",
  "id": 699044263,
  "lat": 52.2064193,
  "lon": 104.0669488
},
{
  "type": "node",
  "id": 699044264,
  "lat": 52.2063883,
  "lon": 104.0662595
},
{
  "type": "node",
  "id": 699044276,
  "lat": 52.2060497,
  "lon": 104.0671513
},
{
  "type": "node",
  "id": 699044277,
  "lat": 52.2061286,
  "lon": 104.0671620
},
{
  "type": "node",
  "id": 699044279,
  "lat": 52.2062495,
  "lon": 104.0672078
},
{
  "type": "node",
  "id": 699044280,
  "lat": 52.2063588,
  "lon": 104.0673873
},
{
  "type": "node",
  "id": 699044342,
  "lat": 52.2063550,
  "lon": 104.0671620
},
{
  "type": "node",
  "id": 699044343,
  "lat": 52.2063915,
  "lon": 104.0671018
},
{
  "type": "node",
  "id": 699044344,
  "lat": 52.2064152,
  "lon": 104.0670158
},
{
  "type": "node",
  "id": 699044346,
  "lat": 52.2064082,
  "lon": 104.0668633
},
{
  "type": "node",
  "id": 699044347,
  "lat": 52.2063931,
  "lon": 104.0668170
},
{
  "type": "node",
  "id": 699044348,
  "lat": 52.2063385,
  "lon": 104.0667361
},
{
  "type": "node",
  "id": 699044349,
  "lat": 52.2062731,
  "lon": 104.0667062
},
{
  "type": "node",
  "id": 699044350,
  "lat": 52.2062200,
  "lon": 104.0667169
},
{
  "type": "node",
  "id": 699044351,
  "lat": 52.2061846,
  "lon": 104.0667430
},
{
  "type": "node",
  "id": 699044353,
  "lat": 52.2061445,
  "lon": 104.0668009
},
{
  "type": "node",
  "id": 699044355,
  "lat": 52.2061190,
  "lon": 104.0668777
},
{
  "type": "node",
  "id": 699044358,
  "lat": 52.2061124,
  "lon": 104.0669238
},
{
  "type": "node",
  "id": 699044360,
  "lat": 52.2061146,
  "lon": 104.0670111
},
{
  "type": "node",
  "id": 699044362,
  "lat": 52.2061324,
  "lon": 104.0670852
},
{
  "type": "node",
  "id": 699044365,
  "lat": 52.2061857,
  "lon": 104.0671730
},
{
  "type": "node",
  "id": 699044371,
  "lat": 52.2063029,
  "lon": 104.0672014
},
{
  "type": "node",
  "id": 699045675,
  "lat": 52.2031085,
  "lon": 104.0700660
},
{
  "type": "node",
  "id": 1448815912,
  "lat": 52.2069467,
  "lon": 104.0650622
},
{
  "type": "node",
  "id": 1449307254,
  "lat": 52.2064080,
  "lon": 104.0666967
},
{
  "type": "node",
  "id": 1449307258,
  "lat": 52.2065400,
  "lon": 104.0676359
},
{
  "type": "node",
  "id": 1982258989,
  "lat": 52.2090234,
  "lon": 104.0678523
},
{
  "type": "node",
  "id": 5745610570,
  "lat": 52.2060372,
  "lon": 104.0669923
},
{
  "type": "node",
  "id": 5745610576,
  "lat": 52.2044028,
  "lon": 104.0688266
},
{
  "type": "node",
  "id": 5745610577,
  "lat": 52.2063232,
  "lon": 104.0664040
},
{
  "type": "node",
  "id": 5745610579,
  "lat": 52.2067280,
  "lon": 104.0655312
},
{
  "type": "node",
  "id": 6430656671,
  "lat": 52.2050150,
  "lon": 104.0647943
},
{
  "type": "node",
  "id": 6432077474,
  "lat": 52.2068033,
  "lon": 104.0681788
},
{
  "type": "node",
  "id": 6432077672,
  "lat": 52.2070764,
  "lon": 104.0685206
},
{
  "type": "node",
  "id": 4943181570,
  "lat": 52.2093321,
  "lon": 104.0480928
},
{
  "type": "node",
  "id": 4943181571,
  "lat": 52.2101024,
  "lon": 104.0495024
},
{
  "type": "node",
  "id": 4943181572,
  "lat": 52.2109406,
  "lon": 104.0511117
},
{
  "type": "node",
  "id": 345518007,
  "lat": 52.2109507,
  "lon": 104.0573504
},
{
  "type": "node",
  "id": 345518008,
  "lat": 52.2101941,
  "lon": 104.0561738
},
{
  "type": "node",
  "id": 699044031,
  "lat": 52.2094879,
  "lon": 104.0548955
},
{
  "type": "node",
  "id": 699044032,
  "lat": 52.2102291,
  "lon": 104.0562283
},
{
  "type": "node",
  "id": 4943181573,
  "lat": 52.2114797,
  "lon": 104.0522865
},
{
  "type": "node",
  "id": 4943181574,
  "lat": 52.2116177,
  "lon": 104.0526191
},
{
  "type": "node",
  "id": 4943181575,
  "lat": 52.2116999,
  "lon": 104.0530376
},
{
  "type": "node",
  "id": 4943181576,
  "lat": 52.2121798,
  "lon": 104.0558432
},
{
  "type": "node",
  "id": 4943181577,
  "lat": 52.2123704,
  "lon": 104.0570180
},
{
  "type": "node",
  "id": 4943181578,
  "lat": 52.2125446,
  "lon": 104.0576510
},
{
  "type": "node",
  "id": 4944036503,
  "lat": 52.2094221,
  "lon": 104.0548090
},
{
  "type": "node",
  "id": 4944036839,
  "lat": 52.2099849,
  "lon": 104.0557605
},
{
  "type": "node",
  "id": 4943181707,
  "lat": 52.2176761,
  "lon": 104.0473019
},
{
  "type": "node",
  "id": 4943181708,
  "lat": 52.2194614,
  "lon": 104.0514349
},
{
  "type": "node",
  "id": 4943181710,
  "lat": 52.2179477,
  "lon": 104.0505300
},
{
  "type": "node",
  "id": 278789073,
  "lat": 52.2185600,
  "lon": 104.0552940
},
{
  "type": "node",
  "id": 1000651877,
  "lat": 52.2197726,
  "lon": 104.0533588
},
{
  "type": "node",
  "id": 1000651909,
  "lat": 52.2191412,
  "lon": 104.0541370
},
{
  "type": "node",
  "id": 1000651999,
  "lat": 52.2202777,
  "lon": 104.0528624
},
{
  "type": "node",
  "id": 1000652133,
  "lat": 52.2187288,
  "lon": 104.0548480
},
{
  "type": "node",
  "id": 1000652270,
  "lat": 52.2189169,
  "lon": 104.0544694
},
{
  "type": "node",
  "id": 1809761641,
  "lat": 52.2210011,
  "lon": 104.0521530
},
{
  "type": "node",
  "id": 3249343845,
  "lat": 52.2182818,
  "lon": 104.0574767
},
{
  "type": "node",
  "id": 3249343846,
  "lat": 52.2188946,
  "lon": 104.0565254
},
{
  "type": "node",
  "id": 3249343847,
  "lat": 52.2192455,
  "lon": 104.0559921
},
{
  "type": "node",
  "id": 3249343849,
  "lat": 52.2200054,
  "lon": 104.0547447
},
{
  "type": "node",
  "id": 3249343850,
  "lat": 52.2204537,
  "lon": 104.0541268
},
{
  "type": "node",
  "id": 3249343852,
  "lat": 52.2206999,
  "lon": 104.0537312
},
{
  "type": "node",
  "id": 3249343853,
  "lat": 52.2213555,
  "lon": 104.0529054
},
{
  "type": "node",
  "id": 3784101742,
  "lat": 52.2196304,
  "lon": 104.0553958
},
{
  "type": "node",
  "id": 3784101745,
  "lat": 52.2195219,
  "lon": 104.0572782
},
{
  "type": "node",
  "id": 3784113482,
  "lat": 52.2197846,
  "lon": 104.0578274
},
{
  "type": "node",
  "id": 3784115666,
  "lat": 52.2185815,
  "lon": 104.0578902
},
{
  "type": "node",
  "id": 3784115668,
  "lat": 52.2178963,
  "lon": 104.0578853
},
{
  "type": "node",
  "id": 4943181606,
  "lat": 52.2180135,
  "lon": 104.0578311
},
{
  "type": "node",
  "id": 4943181608,
  "lat": 52.2194032,
  "lon": 104.0569482
},
{
  "type": "node",
  "id": 4943181610,
  "lat": 52.2186882,
  "lon": 104.0577060
},
{
  "type": "node",
  "id": 4943181613,
  "lat": 52.2184509,
  "lon": 104.0557198
},
{
  "type": "node",
  "id": 4943181617,
  "lat": 52.2181863,
  "lon": 104.0567530
},
{
  "type": "node",
  "id": 4943181700,
  "lat": 52.2214375,
  "lon": 104.0530898
},
{
  "type": "node",
  "id": 4943181701,
  "lat": 52.2203617,
  "lon": 104.0545310
},
{
  "type": "node",
  "id": 4943181702,
  "lat": 52.2199477,
  "lon": 104.0551882
},
{
  "type": "node",
  "id": 4943181703,
  "lat": 52.2195944,
  "lon": 104.0558399
},
{
  "type": "node",
  "id": 4943181704,
  "lat": 52.2192548,
  "lon": 104.0565315
},
{
  "type": "node",
  "id": 4943181705,
  "lat": 52.2192640,
  "lon": 104.0566893
},
{
  "type": "node",
  "id": 4943181706,
  "lat": 52.2192894,
  "lon": 104.0566947
},
{
  "type": "node",
  "id": 4943181709,
  "lat": 52.2201800,
  "lon": 104.0529584
},
{
  "type": "node",
  "id": 4943181711,
  "lat": 52.2186461,
  "lon": 104.0523416
},
{
  "type": "node",
  "id": 4943181712,
  "lat": 52.2192512,
  "lon": 104.0540014
},
{
  "type": "node",
  "id": 278789068,
  "lat": 52.2157919,
  "lon": 104.0610283
},
{
  "type": "node",
  "id": 278789848,
  "lat": 52.2094497,
  "lon": 104.0641822
},
{
  "type": "node",
  "id": 278789921,
  "lat": 52.2095767,
  "lon": 104.0639302
},
{
  "type": "node",
  "id": 345518006,
  "lat": 52.2123778,
  "lon": 104.0595486
},
{
  "type": "node",
  "id": 346585170,
  "lat": 52.2156317,
  "lon": 104.0625087
},
{
  "type": "node",
  "id": 699030035,
  "lat": 52.2154072,
  "lon": 104.0615546
},
{
  "type": "node",
  "id": 699044020,
  "lat": 52.2147901,
  "lon": 104.0628846
},
{
  "type": "node",
  "id": 699044033,
  "lat": 52.2136387,
  "lon": 104.0614418
},
{
  "type": "node",
  "id": 937607433,
  "lat": 52.2155592,
  "lon": 104.0613174
},
{
  "type": "node",
  "id": 1000651948,
  "lat": 52.2152594,
  "lon": 104.0618590
},
{
  "type": "node",
  "id": 3424332882,
  "lat": 52.2149123,
  "lon": 104.0626100
},
{
  "type": "node",
  "id": 3424335630,
  "lat": 52.2155853,
  "lon": 104.0612712
},
{
  "type": "node",
  "id": 4943181579,
  "lat": 52.2127254,
  "lon": 104.0580694
},
{
  "type": "node",
  "id": 4943181580,
  "lat": 52.2129719,
  "lon": 104.0584824
},
{
  "type": "node",
  "id": 4943181581,
  "lat": 52.2132842,
  "lon": 104.0587829
},
{
  "type": "node",
  "id": 4943181582,
  "lat": 52.2136162,
  "lon": 104.0589545
},
{
  "type": "node",
  "id": 4943181583,
  "lat": 52.2142045,
  "lon": 104.0591208
},
{
  "type": "node",
  "id": 4943181584,
  "lat": 52.2143689,
  "lon": 104.0591798
},
{
  "type": "node",
  "id": 4943181585,
  "lat": 52.2145989,
  "lon": 104.0595231
},
{
  "type": "node",
  "id": 4943181586,
  "lat": 52.2149178,
  "lon": 104.0599040
},
{
  "type": "node",
  "id": 4943181587,
  "lat": 52.2151873,
  "lon": 104.0600918
},
{
  "type": "node",
  "id": 4943181588,
  "lat": 52.2154765,
  "lon": 104.0601561
},
{
  "type": "node",
  "id": 4943181589,
  "lat": 52.2157099,
  "lon": 104.0601132
},
{
  "type": "node",
  "id": 4943181731,
  "lat": 52.2157256,
  "lon": 104.0627313
},
{
  "type": "node",
  "id": 4943181733,
  "lat": 52.2156551,
  "lon": 104.0629013
},
{
  "type": "node",
  "id": 4943181734,
  "lat": 52.2154556,
  "lon": 104.0629721
},
{
  "type": "node",
  "id": 4943181735,
  "lat": 52.2153169,
  "lon": 104.0630641
},
{
  "type": "node",
  "id": 4943181736,
  "lat": 52.2151933,
  "lon": 104.0632021
},
{
  "type": "node",
  "id": 4943181737,
  "lat": 52.2150068,
  "lon": 104.0635773
},
{
  "type": "node",
  "id": 4943181774,
  "lat": 52.2099853,
  "lon": 104.0630826
},
{
  "type": "node",
  "id": 4943181776,
  "lat": 52.2100799,
  "lon": 104.0638957
},
{
  "type": "node",
  "id": 4943181779,
  "lat": 52.2103764,
  "lon": 104.0641844
},
{
  "type": "node",
  "id": 4943181782,
  "lat": 52.2093263,
  "lon": 104.0628224
},
{
  "type": "node",
  "id": 4943181785,
  "lat": 52.2096564,
  "lon": 104.0630135
},
{
  "type": "node",
  "id": 4944036892,
  "lat": 52.2143435,
  "lon": 104.0623250
},
{
  "type": "node",
  "id": 4944036898,
  "lat": 52.2145795,
  "lon": 104.0626207
},
{
  "type": "node",
  "id": 4944036899,
  "lat": 52.2129265,
  "lon": 104.0603725
},
{
  "type": "node",
  "id": 4944036925,
  "lat": 52.2128743,
  "lon": 104.0602940,
  "tags": {
    "highway": "crossing"
  }
},
{
  "type": "node",
  "id": 4944346863,
  "lat": 52.2095253,
  "lon": 104.0638662
},
{
  "type": "node",
  "id": 4944346867,
  "lat": 52.2094101,
  "lon": 104.0641399
},
{
  "type": "node",
  "id": 4944346868,
  "lat": 52.2096137,
  "lon": 104.0639784
},
{
  "type": "node",
  "id": 4944346872,
  "lat": 52.2094991,
  "lon": 104.0642450
},
{
  "type": "node",
  "id": 5756599520,
  "lat": 52.2134056,
  "lon": 104.0610918,
  "tags": {
    "highway": "crossing"
  }
},
{
  "type": "node",
  "id": 6427489867,
  "lat": 52.2103431,
  "lon": 104.0642498
},
{
  "type": "node",
  "id": 6427489868,
  "lat": 52.2105863,
  "lon": 104.0637508
},
{
  "type": "node",
  "id": 6427489869,
  "lat": 52.2108174,
  "lon": 104.0640672
},
{
  "type": "node",
  "id": 6427491331,
  "lat": 52.2095860,
  "lon": 104.0631569
},
{
  "type": "node",
  "id": 6427491332,
  "lat": 52.2098039,
  "lon": 104.0627150
},
{
  "type": "node",
  "id": 278789049,
  "lat": 52.2123356,
  "lon": 104.0690988
},
{
  "type": "node",
  "id": 278789382,
  "lat": 52.2118035,
  "lon": 104.0710211
},
{
  "type": "node",
  "id": 278789383,
  "lat": 52.2119350,
  "lon": 104.0707207
},
{
  "type": "node",
  "id": 278789384,
  "lat": 52.2120497,
  "lon": 104.0703974
},
{
  "type": "node",
  "id": 278789385,
  "lat": 52.2121621,
  "lon": 104.0700578
},
{
  "type": "node",
  "id": 278789387,
  "lat": 52.2123013,
  "lon": 104.0695762
},
{
  "type": "node",
  "id": 278789388,
  "lat": 52.2123283,
  "lon": 104.0693227
},
{
  "type": "node",
  "id": 278789391,
  "lat": 52.2121784,
  "lon": 104.0678345
},
{
  "type": "node",
  "id": 278789392,
  "lat": 52.2121242,
  "lon": 104.0675803
},
{
  "type": "node",
  "id": 278789393,
  "lat": 52.2119525,
  "lon": 104.0671452
},
{
  "type": "node",
  "id": 278789394,
  "lat": 52.2118276,
  "lon": 104.0669278
},
{
  "type": "node",
  "id": 278789395,
  "lat": 52.2115264,
  "lon": 104.0664709
},
{
  "type": "node",
  "id": 278789430,
  "lat": 52.2120133,
  "lon": 104.0681855
},
{
  "type": "node",
  "id": 278789431,
  "lat": 52.2120609,
  "lon": 104.0687042
},
{
  "type": "node",
  "id": 278789433,
  "lat": 52.2120872,
  "lon": 104.0691374
},
{
  "type": "node",
  "id": 278789434,
  "lat": 52.2120935,
  "lon": 104.0694510
},
{
  "type": "node",
  "id": 278789435,
  "lat": 52.2120742,
  "lon": 104.0697331
},
{
  "type": "node",
  "id": 278789436,
  "lat": 52.2119583,
  "lon": 104.0703513
},
{
  "type": "node",
  "id": 278789437,
  "lat": 52.2118667,
  "lon": 104.0706428
},
{
  "type": "node",
  "id": 278789439,
  "lat": 52.2117310,
  "lon": 104.0709759
},
{
  "type": "node",
  "id": 278789476,
  "lat": 52.2121511,
  "lon": 104.0694357
},
{
  "type": "node",
  "id": 278789477,
  "lat": 52.2121953,
  "lon": 104.0694663
},
{
  "type": "node",
  "id": 278789478,
  "lat": 52.2122499,
  "lon": 104.0694576
},
{
  "type": "node",
  "id": 278789479,
  "lat": 52.2122940,
  "lon": 104.0694110
},
{
  "type": "node",
  "id": 278789690,
  "lat": 52.2126541,
  "lon": 104.0682534
},
{
  "type": "node",
  "id": 278789758,
  "lat": 52.2124821,
  "lon": 104.0686851
},
{
  "type": "node",
  "id": 278789759,
  "lat": 52.2124218,
  "lon": 104.0687045
},
{
  "type": "node",
  "id": 278789760,
  "lat": 52.2123666,
  "lon": 104.0686881,
  "tags": {
    "highway": "give_way"
  }
},
{
  "type": "node",
  "id": 278789761,
  "lat": 52.2122379,
  "lon": 104.0682538,
  "tags": {
    "highway": "crossing"
  }
},
{
  "type": "node",
  "id": 278789849,
  "lat": 52.2114306,
  "lon": 104.0666996
},
{
  "type": "node",
  "id": 278789850,
  "lat": 52.2116898,
  "lon": 104.0670804
},
{
  "type": "node",
  "id": 278789851,
  "lat": 52.2118239,
  "lon": 104.0673540
},
{
  "type": "node",
  "id": 278789852,
  "lat": 52.2119078,
  "lon": 104.0675783
},
{
  "type": "node",
  "id": 278789858,
  "lat": 52.2125251,
  "lon": 104.0686330
},
{
  "type": "node",
  "id": 699044021,
  "lat": 52.2127095,
  "lon": 104.0680403
},
{
  "type": "node",
  "id": 1000651898,
  "lat": 52.2120489,
  "lon": 104.0673583
},
{
  "type": "node",
  "id": 1000652004,
  "lat": 52.2119657,
  "lon": 104.0678249
},
{
  "type": "node",
  "id": 1000652022,
  "lat": 52.2127942,
  "lon": 104.0677148
},
{
  "type": "node",
  "id": 1000652039,
  "lat": 52.2120392,
  "lon": 104.0700214
},
{
  "type": "node",
  "id": 1000652152,
  "lat": 52.2122849,
  "lon": 104.0685090
},
{
  "type": "node",
  "id": 1000652168,
  "lat": 52.2123185,
  "lon": 104.0688994
},
{
  "type": "node",
  "id": 1000652170,
  "lat": 52.2122466,
  "lon": 104.0697832
},
{
  "type": "node",
  "id": 1000652197,
  "lat": 52.2123204,
  "lon": 104.0686277
},
{
  "type": "node",
  "id": 1000652211,
  "lat": 52.2121156,
  "lon": 104.0693589
},
{
  "type": "node",
  "id": 1449307384,
  "lat": 52.2102835,
  "lon": 104.0652418
},
{
  "type": "node",
  "id": 1449307387,
  "lat": 52.2103950,
  "lon": 104.0649965
},
{
  "type": "node",
  "id": 3152539862,
  "lat": 52.2122151,
  "lon": 104.0680934
},
{
  "type": "node",
  "id": 3152539863,
  "lat": 52.2121625,
  "lon": 104.0680626
},
{
  "type": "node",
  "id": 3152539864,
  "lat": 52.2121052,
  "lon": 104.0680626
},
{
  "type": "node",
  "id": 3152539865,
  "lat": 52.2120623,
  "lon": 104.0680906,
  "tags": {
    "highway": "give_way"
  }
},
{
  "type": "node",
  "id": 3161084876,
  "lat": 52.2125142,
  "lon": 104.0687837
},
{
  "type": "node",
  "id": 3249402136,
  "lat": 52.2105052,
  "lon": 104.0655236
},
{
  "type": "node",
  "id": 3286073006,
  "lat": 52.2130720,
  "lon": 104.0668737
},
{
  "type": "node",
  "id": 3286073007,
  "lat": 52.2129052,
  "lon": 104.0673269
},
{
  "type": "node",
  "id": 3424344569,
  "lat": 52.2132718,
  "lon": 104.0663953
},
{
  "type": "node",
  "id": 4943181738,
  "lat": 52.2144538,
  "lon": 104.0648549
},
{
  "type": "node",
  "id": 4943181739,
  "lat": 52.2143194,
  "lon": 104.0651876
},
{
  "type": "node",
  "id": 4943181740,
  "lat": 52.2143476,
  "lon": 104.0653575
},
{
  "type": "node",
  "id": 4943181741,
  "lat": 52.2144446,
  "lon": 104.0656099
},
{
  "type": "node",
  "id": 4943181742,
  "lat": 52.2148492,
  "lon": 104.0660376
},
{
  "type": "node",
  "id": 4943181743,
  "lat": 52.2148624,
  "lon": 104.0661313
},
{
  "type": "node",
  "id": 4943181744,
  "lat": 52.2148181,
  "lon": 104.0663839
},
{
  "type": "node",
  "id": 4943181745,
  "lat": 52.2142890,
  "lon": 104.0677925
},
{
  "type": "node",
  "id": 4943181746,
  "lat": 52.2131718,
  "lon": 104.0666347
},
{
  "type": "node",
  "id": 4943181747,
  "lat": 52.2134231,
  "lon": 104.0660453
},
{
  "type": "node",
  "id": 4943181751,
  "lat": 52.2137277,
  "lon": 104.0653412
},
{
  "type": "node",
  "id": 4943181759,
  "lat": 52.2113995,
  "lon": 104.0663055
},
{
  "type": "node",
  "id": 4943986689,
  "lat": 52.2120839,
  "lon": 104.0690862
},
{
  "type": "node",
  "id": 5755183699,
  "lat": 52.2119028,
  "lon": 104.0705278
},
{
  "type": "node",
  "id": 5756599930,
  "lat": 52.2148065,
  "lon": 104.0664147
},
{
  "type": "node",
  "id": 5756599932,
  "lat": 52.2145535,
  "lon": 104.0670883
},
{
  "type": "node",
  "id": 5756691608,
  "lat": 52.2125560,
  "lon": 104.0686253
},
{
  "type": "node",
  "id": 5756691609,
  "lat": 52.2126629,
  "lon": 104.0682195,
  "tags": {
    "highway": "crossing"
  }
},
{
  "type": "node",
  "id": 5756692239,
  "lat": 52.2119804,
  "lon": 104.0702613
},
{
  "type": "node",
  "id": 5756692242,
  "lat": 52.2120917,
  "lon": 104.0693636
},
{
  "type": "node",
  "id": 5756692247,
  "lat": 52.2120509,
  "lon": 104.0685957,
  "tags": {
    "highway": "crossing"
  }
},
{
  "type": "node",
  "id": 5756692268,
  "lat": 52.2119572,
  "lon": 104.0671556
},
{
  "type": "node",
  "id": 278789070,
  "lat": 52.2169550,
  "lon": 104.0591051
},
{
  "type": "node",
  "id": 278789071,
  "lat": 52.2178142,
  "lon": 104.0581528
},
{
  "type": "node",
  "id": 346585168,
  "lat": 52.2163668,
  "lon": 104.0642504
},
{
  "type": "node",
  "id": 346585169,
  "lat": 52.2161755,
  "lon": 104.0634175
},
{
  "type": "node",
  "id": 937607650,
  "lat": 52.2163400,
  "lon": 104.0639911
},
{
  "type": "node",
  "id": 1000651885,
  "lat": 52.2165097,
  "lon": 104.0599761
},
{
  "type": "node",
  "id": 1000651915,
  "lat": 52.2167829,
  "lon": 104.0593871
},
{
  "type": "node",
  "id": 1000652033,
  "lat": 52.2177004,
  "lon": 104.0583607
},
{
  "type": "node",
  "id": 1000652073,
  "lat": 52.2160124,
  "lon": 104.0607623
},
{
  "type": "node",
  "id": 1000652098,
  "lat": 52.2171231,
  "lon": 104.0589118
},
{
  "type": "node",
  "id": 1000652174,
  "lat": 52.2163525,
  "lon": 104.0602790
},
{
  "type": "node",
  "id": 1000652217,
  "lat": 52.2161803,
  "lon": 104.0605368
},
{
  "type": "node",
  "id": 1000652238,
  "lat": 52.2174840,
  "lon": 104.0586005
},
{
  "type": "node",
  "id": 3784113483,
  "lat": 52.2183715,
  "lon": 104.0605162
},
{
  "type": "node",
  "id": 3784115867,
  "lat": 52.2180760,
  "lon": 104.0585737
},
{
  "type": "node",
  "id": 3784115891,
  "lat": 52.2200519,
  "lon": 104.0584318
},
{
  "type": "node",
  "id": 3784115892,
  "lat": 52.2187490,
  "lon": 104.0609420
},
{
  "type": "node",
  "id": 3784115963,
  "lat": 52.2182433,
  "lon": 104.0596790
},
{
  "type": "node",
  "id": 3784116037,
  "lat": 52.2209590,
  "lon": 104.0604409
},
{
  "type": "node",
  "id": 3784116175,
  "lat": 52.2203460,
  "lon": 104.0590832
},
{
  "type": "node",
  "id": 3784116176,
  "lat": 52.2191839,
  "lon": 104.0613145
},
{
  "type": "node",
  "id": 3784116177,
  "lat": 52.2206468,
  "lon": 104.0597494
},
{
  "type": "node",
  "id": 3784116178,
  "lat": 52.2196196,
  "lon": 104.0617062
},
{
  "type": "node",
  "id": 3784116378,
  "lat": 52.2200554,
  "lon": 104.0620754
},
{
  "type": "node",
  "id": 4943181590,
  "lat": 52.2160977,
  "lon": 104.0598772
},
{
  "type": "node",
  "id": 4943181591,
  "lat": 52.2164362,
  "lon": 104.0595070
},
{
  "type": "node",
  "id": 4943181592,
  "lat": 52.2166597,
  "lon": 104.0591530
},
{
  "type": "node",
  "id": 4943181593,
  "lat": 52.2169851,
  "lon": 104.0586648
},
{
  "type": "node",
  "id": 4943181594,
  "lat": 52.2172940,
  "lon": 104.0583537
},
{
  "type": "node",
  "id": 4943181595,
  "lat": 52.2174748,
  "lon": 104.0582518
},
{
  "type": "node",
  "id": 4943181596,
  "lat": 52.2175226,
  "lon": 104.0582357
},
{
  "type": "node",
  "id": 4943181597,
  "lat": 52.2175712,
  "lon": 104.0582520
},
{
  "type": "node",
  "id": 4943181598,
  "lat": 52.2176647,
  "lon": 104.0584003
},
{
  "type": "node",
  "id": 4943181605,
  "lat": 52.2183511,
  "lon": 104.0583142
},
{
  "type": "node",
  "id": 4943181607,
  "lat": 52.2180654,
  "lon": 104.0581894
},
{
  "type": "node",
  "id": 4943181609,
  "lat": 52.2210152,
  "lon": 104.0605654
},
{
  "type": "node",
  "id": 4943181611,
  "lat": 52.2190132,
  "lon": 104.0582332
},
{
  "type": "node",
  "id": 4943181612,
  "lat": 52.2185356,
  "lon": 104.0607709
},
{
  "type": "node",
  "id": 4943181729,
  "lat": 52.2158533,
  "lon": 104.0629537
},
{
  "type": "node",
  "id": 4943181730,
  "lat": 52.2160404,
  "lon": 104.0632238
},
{
  "type": "node",
  "id": 4943181732,
  "lat": 52.2158221,
  "lon": 104.0629014
},
{
  "type": "node",
  "id": 5756599924,
  "lat": 52.2163166,
  "lon": 104.0637250
},
{
  "type": "node",
  "id": 6601684698,
  "lat": 52.2198672,
  "lon": 104.0619159
},
{
  "type": "node",
  "id": 346585142,
  "lat": 52.2170553,
  "lon": 104.0708387
},
{
  "type": "node",
  "id": 346585144,
  "lat": 52.2169684,
  "lon": 104.0699883
},
{
  "type": "node",
  "id": 346585153,
  "lat": 52.2167898,
  "lon": 104.0687051
},
{
  "type": "node",
  "id": 346585155,
  "lat": 52.2167927,
  "lon": 104.0682801
},
{
  "type": "node",
  "id": 346585156,
  "lat": 52.2167898,
  "lon": 104.0679065
},
{
  "type": "node",
  "id": 346585157,
  "lat": 52.2167812,
  "lon": 104.0675703
},
{
  "type": "node",
  "id": 346585158,
  "lat": 52.2167412,
  "lon": 104.0671453
},
{
  "type": "node",
  "id": 346585164,
  "lat": 52.2166239,
  "lon": 104.0665989
},
{
  "type": "node",
  "id": 346585166,
  "lat": 52.2164176,
  "lon": 104.0653757
},
{
  "type": "node",
  "id": 346585167,
  "lat": 52.2163877,
  "lon": 104.0646792
},
{
  "type": "node",
  "id": 937607461,
  "lat": 52.2164407,
  "lon": 104.0656976
},
{
  "type": "node",
  "id": 2637233019,
  "lat": 52.2170374,
  "lon": 104.0706638
},
{
  "type": "node",
  "id": 2637233021,
  "lat": 52.2168156,
  "lon": 104.0690927
},
{
  "type": "node",
  "id": 4944036858,
  "lat": 52.2191237,
  "lon": 104.0647592
},
{
  "type": "node",
  "id": 4944036859,
  "lat": 52.2166113,
  "lon": 104.0658253
},
{
  "type": "node",
  "id": 4944036860,
  "lat": 52.2193459,
  "lon": 104.0660913
},
{
  "type": "node",
  "id": 4944036861,
  "lat": 52.2168476,
  "lon": 104.0671524
},
{
  "type": "node",
  "id": 4944036862,
  "lat": 52.2197136,
  "lon": 104.0673861
},
{
  "type": "node",
  "id": 4944036863,
  "lat": 52.2175543,
  "lon": 104.0682551
},
{
  "type": "node",
  "id": 4944036864,
  "lat": 52.2174306,
  "lon": 104.0681868
},
{
  "type": "node",
  "id": 4944036865,
  "lat": 52.2172327,
  "lon": 104.0681436
},
{
  "type": "node",
  "id": 4944036866,
  "lat": 52.2163920,
  "lon": 104.0647788
},
{
  "type": "node",
  "id": 4944036867,
  "lat": 52.2168159,
  "lon": 104.0673260
},
{
  "type": "node",
  "id": 4944036868,
  "lat": 52.2171753,
  "lon": 104.0681037
},
{
  "type": "node",
  "id": 4944036869,
  "lat": 52.2167919,
  "lon": 104.0683971
},
{
  "type": "node",
  "id": 4944036870,
  "lat": 52.2169809,
  "lon": 104.0701109
},
{
  "type": "node",
  "id": 4944036877,
  "lat": 52.2168118,
  "lon": 104.0690364
},
{
  "type": "node",
  "id": 4944036880,
  "lat": 52.2170297,
  "lon": 104.0677597
},
{
  "type": "node",
  "id": 4944036926,
  "lat": 52.2195549,
  "lon": 104.0674499
},
{
  "type": "node",
  "id": 5756599942,
  "lat": 52.2165376,
  "lon": 104.0662588
},
{
  "type": "node",
  "id": 278783223,
  "lat": 52.2223948,
  "lon": 104.0507864
},
{
  "type": "node",
  "id": 278783224,
  "lat": 52.2240768,
  "lon": 104.0496065
},
{
  "type": "node",
  "id": 278783225,
  "lat": 52.2257988,
  "lon": 104.0489897
},
{
  "type": "node",
  "id": 1000651932,
  "lat": 52.2228420,
  "lon": 104.0504140
},
{
  "type": "node",
  "id": 1000651970,
  "lat": 52.2254878,
  "lon": 104.0490472
},
{
  "type": "node",
  "id": 1000652092,
  "lat": 52.2244887,
  "lon": 104.0493749
},
{
  "type": "node",
  "id": 1809761663,
  "lat": 52.2265820,
  "lon": 104.0488401
},
{
  "type": "node",
  "id": 5686498818,
  "lat": 52.2247398,
  "lon": 104.0492762
},
{
  "type": "node",
  "id": 4943181639,
  "lat": 52.2225601,
  "lon": 104.0517831
},
{
  "type": "node",
  "id": 4943181699,
  "lat": 52.2224978,
  "lon": 104.0517764
},
{
  "type": "node",
  "id": 345518034,
  "lat": 52.1950812,
  "lon": 104.0733135
},
{
  "type": "node",
  "id": 345518035,
  "lat": 52.1949279,
  "lon": 104.0733259
},
{
  "type": "node",
  "id": 345518036,
  "lat": 52.1947969,
  "lon": 104.0734082
},
{
  "type": "node",
  "id": 346578433,
  "lat": 52.1947461,
  "lon": 104.0736344
},
{
  "type": "node",
  "id": 346581216,
  "lat": 52.1947819,
  "lon": 104.0724597
},
{
  "type": "node",
  "id": 346581217,
  "lat": 52.1948199,
  "lon": 104.0731077
},
{
  "type": "node",
  "id": 6546920076,
  "lat": 52.1944690,
  "lon": 104.0763997
},
{
  "type": "node",
  "id": 6546920078,
  "lat": 52.1945594,
  "lon": 104.0754979
},
{
  "type": "node",
  "id": 346578435,
  "lat": 52.1942693,
  "lon": 104.0783921
},
{
  "type": "node",
  "id": 346578437,
  "lat": 52.1940736,
  "lon": 104.0798909
},
{
  "type": "node",
  "id": 346578440,
  "lat": 52.1940283,
  "lon": 104.0800116
},
{
  "type": "node",
  "id": 346578442,
  "lat": 52.1939686,
  "lon": 104.0801245
},
{
  "type": "node",
  "id": 346578445,
  "lat": 52.1939113,
  "lon": 104.0801829
},
{
  "type": "node",
  "id": 346578447,
  "lat": 52.1938254,
  "lon": 104.0802412
},
{
  "type": "node",
  "id": 346578450,
  "lat": 52.1937324,
  "lon": 104.0802646
},
{
  "type": "node",
  "id": 346578452,
  "lat": 52.1936417,
  "lon": 104.0802607
},
{
  "type": "node",
  "id": 346578455,
  "lat": 52.1931000,
  "lon": 104.0801245
},
{
  "type": "node",
  "id": 346578461,
  "lat": 52.1930164,
  "lon": 104.0801751
},
{
  "type": "node",
  "id": 346578463,
  "lat": 52.1929615,
  "lon": 104.0802451
},
{
  "type": "node",
  "id": 346578466,
  "lat": 52.1928876,
  "lon": 104.0803775
},
{
  "type": "node",
  "id": 346578468,
  "lat": 52.1928565,
  "lon": 104.0805410
},
{
  "type": "node",
  "id": 346578499,
  "lat": 52.1927431,
  "lon": 104.0815718
},
{
  "type": "node",
  "id": 346578502,
  "lat": 52.1927711,
  "lon": 104.0817198
},
{
  "type": "node",
  "id": 346578505,
  "lat": 52.1928157,
  "lon": 104.0818274
},
{
  "type": "node",
  "id": 346578508,
  "lat": 52.1928833,
  "lon": 104.0818732
},
{
  "type": "node",
  "id": 346578510,
  "lat": 52.1937262,
  "lon": 104.0821181
},
{
  "type": "node",
  "id": 346581173,
  "lat": 52.1847646,
  "lon": 104.0867483
},
{
  "type": "node",
  "id": 346578471,
  "lat": 52.1922855,
  "lon": 104.0848261
},
{
  "type": "node",
  "id": 346578473,
  "lat": 52.1918063,
  "lon": 104.0884827
},
{
  "type": "node",
  "id": 346578512,
  "lat": 52.1937666,
  "lon": 104.0853257
},
{
  "type": "node",
  "id": 346578513,
  "lat": 52.1938642,
  "lon": 104.0854508
},
{
  "type": "node",
  "id": 2606782195,
  "lat": 52.1932597,
  "lon": 104.0851519
},
{
  "type": "node",
  "id": 346578476,
  "lat": 52.1909438,
  "lon": 104.0956515,
  "tags": {
    "railway": "level_crossing"
  }
},
{
  "type": "node",
  "id": 346581101,
  "lat": 52.1943671,
  "lon": 104.0969198
},
{
  "type": "node",
  "id": 346581103,
  "lat": 52.1939462,
  "lon": 104.0965674
},
{
  "type": "node",
  "id": 346581106,
  "lat": 52.1937964,
  "lon": 104.0964715
},
{
  "type": "node",
  "id": 346581107,
  "lat": 52.1936596,
  "lon": 104.0964178
},
{
  "type": "node",
  "id": 346581109,
  "lat": 52.1934862,
  "lon": 104.0963893
},
{
  "type": "node",
  "id": 346581111,
  "lat": 52.1917288,
  "lon": 104.0964064
},
{
  "type": "node",
  "id": 1000652265,
  "lat": 52.1908123,
  "lon": 104.0963811
},
{
  "type": "node",
  "id": 5593399827,
  "lat": 52.1920803,
  "lon": 104.0964030
},
{
  "type": "node",
  "id": 345518030,
  "lat": 52.2012969,
  "lon": 104.0720167,
  "tags": {
    "highway": "traffic_signals"
  }
},
{
  "type": "node",
  "id": 345518031,
  "lat": 52.2011626,
  "lon": 104.0720265
},
{
  "type": "node",
  "id": 345518032,
  "lat": 52.1992751,
  "lon": 104.0723896
},
{
  "type": "node",
  "id": 345518033,
  "lat": 52.1971950,
  "lon": 104.0728881
},
{
  "type": "node",
  "id": 1809755104,
  "lat": 52.2016490,
  "lon": 104.0718625
},
{
  "type": "node",
  "id": 1809755106,
  "lat": 52.2020497,
  "lon": 104.0748656
},
{
  "type": "node",
  "id": 1809755110,
  "lat": 52.2024906,
  "lon": 104.0764739
},
{
  "type": "node",
  "id": 2281049988,
  "lat": 52.2008783,
  "lon": 104.0720812
},
{
  "type": "node",
  "id": 2281049989,
  "lat": 52.2010744,
  "lon": 104.0712290
},
{
  "type": "node",
  "id": 2606782191,
  "lat": 52.2013499,
  "lon": 104.0722170,
  "tags": {
    "highway": "crossing"
  }
},
{
  "type": "node",
  "id": 3208858160,
  "lat": 52.1975081,
  "lon": 104.0728223
},
{
  "type": "node",
  "id": 4944346994,
  "lat": 52.2023568,
  "lon": 104.0759685
},
{
  "type": "node",
  "id": 6430677213,
  "lat": 52.1997604,
  "lon": 104.0722796
},
{
  "type": "node",
  "id": 6430677215,
  "lat": 52.1979183,
  "lon": 104.0727219
},
{
  "type": "node",
  "id": 278790011,
  "lat": 52.2079957,
  "lon": 104.0762139
},
{
  "type": "node",
  "id": 278790012,
  "lat": 52.2080851,
  "lon": 104.0759736
},
{
  "type": "node",
  "id": 278790014,
  "lat": 52.2082219,
  "lon": 104.0757418
},
{
  "type": "node",
  "id": 278790015,
  "lat": 52.2083954,
  "lon": 104.0755101
},
{
  "type": "node",
  "id": 278790413,
  "lat": 52.2083954,
  "lon": 104.0752697
},
{
  "type": "node",
  "id": 278790414,
  "lat": 52.2082113,
  "lon": 104.0755358
},
{
  "type": "node",
  "id": 278790415,
  "lat": 52.2080798,
  "lon": 104.0757590
},
{
  "type": "node",
  "id": 278790416,
  "lat": 52.2079431,
  "lon": 104.0760851
},
{
  "type": "node",
  "id": 1000651989,
  "lat": 52.2086493,
  "lon": 104.0751913
},
{
  "type": "node",
  "id": 1000651990,
  "lat": 52.2085771,
  "lon": 104.0750458
},
{
  "type": "node",
  "id": 1449307313,
  "lat": 52.2082234,
  "lon": 104.0743328
},
{
  "type": "node",
  "id": 3170010751,
  "lat": 52.2090296,
  "lon": 104.0747139
},
{
  "type": "node",
  "id": 3923117735,
  "lat": 52.2080890,
  "lon": 104.0740307
},
{
  "type": "node",
  "id": 3923118465,
  "lat": 52.2079002,
  "lon": 104.0736062
},
{
  "type": "node",
  "id": 3923118466,
  "lat": 52.2079412,
  "lon": 104.0736984
},
{
  "type": "node",
  "id": 4944346990,
  "lat": 52.2027459,
  "lon": 104.0773748
},
{
  "type": "node",
  "id": 5745624000,
  "lat": 52.2085198,
  "lon": 104.0753539
},
{
  "type": "node",
  "id": 5745624008,
  "lat": 52.2076266,
  "lon": 104.0772600
},
{
  "type": "node",
  "id": 5745624009,
  "lat": 52.2076623,
  "lon": 104.0771588
},
{
  "type": "node",
  "id": 5763503585,
  "lat": 52.2083286,
  "lon": 104.0745449
},
{
  "type": "node",
  "id": 5788289372,
  "lat": 52.2079073,
  "lon": 104.0720529
},
{
  "type": "node",
  "id": 278790419,
  "lat": 52.2064717,
  "lon": 104.0801745
},
{
  "type": "node",
  "id": 278790420,
  "lat": 52.2063180,
  "lon": 104.0805594
},
{
  "type": "node",
  "id": 278790421,
  "lat": 52.2062328,
  "lon": 104.0809127
},
{
  "type": "node",
  "id": 278790422,
  "lat": 52.2058417,
  "lon": 104.0830805
},
{
  "type": "node",
  "id": 278790486,
  "lat": 52.2057433,
  "lon": 104.0810210
},
{
  "type": "node",
  "id": 278790487,
  "lat": 52.2052562,
  "lon": 104.0814920
},
{
  "type": "node",
  "id": 278790491,
  "lat": 52.2041601,
  "lon": 104.0825060
},
{
  "type": "node",
  "id": 278790534,
  "lat": 52.2062734,
  "lon": 104.0804725
},
{
  "type": "node",
  "id": 278790535,
  "lat": 52.2060548,
  "lon": 104.0807051
},
{
  "type": "node",
  "id": 278790620,
  "lat": 52.2059286,
  "lon": 104.0808917
},
{
  "type": "node",
  "id": 278790621,
  "lat": 52.2062074,
  "lon": 104.0807629
},
{
  "type": "node",
  "id": 278790622,
  "lat": 52.2064044,
  "lon": 104.0806044
},
{
  "type": "node",
  "id": 278790623,
  "lat": 52.2064710,
  "lon": 104.0804919
},
{
  "type": "node",
  "id": 278790624,
  "lat": 52.2065558,
  "lon": 104.0802943
},
{
  "type": "node",
  "id": 278790635,
  "lat": 52.2058546,
  "lon": 104.0839772
},
{
  "type": "node",
  "id": 278790636,
  "lat": 52.2058845,
  "lon": 104.0836439
},
{
  "type": "node",
  "id": 278790637,
  "lat": 52.2059586,
  "lon": 104.0831265
},
{
  "type": "node",
  "id": 278790638,
  "lat": 52.2062133,
  "lon": 104.0816974
},
{
  "type": "node",
  "id": 278790639,
  "lat": 52.2063278,
  "lon": 104.0811697
},
{
  "type": "node",
  "id": 278790640,
  "lat": 52.2064809,
  "lon": 104.0805912
},
{
  "type": "node",
  "id": 278790651,
  "lat": 52.2057786,
  "lon": 104.0836041
},
{
  "type": "node",
  "id": 2281041957,
  "lat": 52.2036268,
  "lon": 104.0806415
},
{
  "type": "node",
  "id": 3166469712,
  "lat": 52.2047610,
  "lon": 104.0819581,
  "tags": {
    "highway": "crossing"
  }
},
{
  "type": "node",
  "id": 3166575227,
  "lat": 52.2045361,
  "lon": 104.0821631
},
{
  "type": "node",
  "id": 3204456633,
  "lat": 52.2058447,
  "lon": 104.0842049,
  "tags": {
    "highway": "crossing"
  }
},
{
  "type": "node",
  "id": 3204456634,
  "lat": 52.2061751,
  "lon": 104.0819118
},
{
  "type": "node",
  "id": 3204456635,
  "lat": 52.2060632,
  "lon": 104.0818528
},
{
  "type": "node",
  "id": 3204456636,
  "lat": 52.2059109,
  "lon": 104.0834304
},
{
  "type": "node",
  "id": 3204456637,
  "lat": 52.2058038,
  "lon": 104.0833954
},
{
  "type": "node",
  "id": 3253576533,
  "lat": 52.2057550,
  "lon": 104.0841968,
  "tags": {
    "highway": "crossing"
  }
},
{
  "type": "node",
  "id": 4086952754,
  "lat": 52.2062837,
  "lon": 104.0807015
},
{
  "type": "node",
  "id": 4944346926,
  "lat": 52.2070022,
  "lon": 104.0790294,
  "tags": {
    "highway": "crossing"
  }
},
{
  "type": "node",
  "id": 4944346927,
  "lat": 52.2069147,
  "lon": 104.0789432,
  "tags": {
    "highway": "crossing"
  }
},
{
  "type": "node",
  "id": 4944346928,
  "lat": 52.2066957,
  "lon": 104.0798970,
  "tags": {
    "highway": "crossing"
  }
},
{
  "type": "node",
  "id": 4944346929,
  "lat": 52.2066008,
  "lon": 104.0798065,
  "tags": {
    "highway": "crossing"
  }
},
{
  "type": "node",
  "id": 4944346936,
  "lat": 52.2072414,
  "lon": 104.0780353
},
{
  "type": "node",
  "id": 4944346944,
  "lat": 52.2059109,
  "lon": 104.0808511
},
{
  "type": "node",
  "id": 4944346995,
  "lat": 52.2033551,
  "lon": 104.0796720
},
{
  "type": "node",
  "id": 4944384987,
  "lat": 52.2055128,
  "lon": 104.0812388
},
{
  "type": "node",
  "id": 4944384988,
  "lat": 52.2054087,
  "lon": 104.0813415
},
{
  "type": "node",
  "id": 5715012474,
  "lat": 52.2034526,
  "lon": 104.0800115
},
{
  "type": "node",
  "id": 5715012477,
  "lat": 52.2031279,
  "lon": 104.0788803
},
{
  "type": "node",
  "id": 5745610109,
  "lat": 52.2055065,
  "lon": 104.0812450
},
{
  "type": "node",
  "id": 5745610114,
  "lat": 52.2053348,
  "lon": 104.0814144
},
{
  "type": "node",
  "id": 5745610528,
  "lat": 52.2056818,
  "lon": 104.0810791
},
{
  "type": "node",
  "id": 5745610531,
  "lat": 52.2061744,
  "lon": 104.0812365
},
{
  "type": "node",
  "id": 346578514,
  "lat": 52.1962346,
  "lon": 104.0887795
},
{
  "type": "node",
  "id": 346578515,
  "lat": 52.1988606,
  "lon": 104.0924912
},
{
  "type": "node",
  "id": 278785564,
  "lat": 52.2055067,
  "lon": 104.0879635
},
{
  "type": "node",
  "id": 278790596,
  "lat": 52.2052578,
  "lon": 104.0867197
},
{
  "type": "node",
  "id": 278790634,
  "lat": 52.2058235,
  "lon": 104.0849247
},
{
  "type": "node",
  "id": 278790652,
  "lat": 52.2057476,
  "lon": 104.0847921
},
{
  "type": "node",
  "id": 278790818,
  "lat": 52.2051768,
  "lon": 104.0852865
},
{
  "type": "node",
  "id": 278790887,
  "lat": 52.2058822,
  "lon": 104.0851737
},
{
  "type": "node",
  "id": 278790888,
  "lat": 52.2061077,
  "lon": 104.0852021
},
{
  "type": "node",
  "id": 278790889,
  "lat": 52.2063510,
  "lon": 104.0852825
},
{
  "type": "node",
  "id": 278790890,
  "lat": 52.2064977,
  "lon": 104.0854043
},
{
  "type": "node",
  "id": 278790892,
  "lat": 52.2062906,
  "lon": 104.0851953
},
{
  "type": "node",
  "id": 278791053,
  "lat": 52.2081627,
  "lon": 104.0868109
},
{
  "type": "node",
  "id": 278791256,
  "lat": 52.2061620,
  "lon": 104.0850109
},
{
  "type": "node",
  "id": 278791257,
  "lat": 52.2060559,
  "lon": 104.0848637
},
{
  "type": "node",
  "id": 278791258,
  "lat": 52.2059787,
  "lon": 104.0847096
},
{
  "type": "node",
  "id": 278791259,
  "lat": 52.2059071,
  "lon": 104.0844854
},
{
  "type": "node",
  "id": 278791260,
  "lat": 52.2058756,
  "lon": 104.0843593
},
{
  "type": "node",
  "id": 1779042025,
  "lat": 52.2049484,
  "lon": 104.0853950
},
{
  "type": "node",
  "id": 1779042026,
  "lat": 52.2053595,
  "lon": 104.0852113
},
{
  "type": "node",
  "id": 1779042027,
  "lat": 52.2058144,
  "lon": 104.0851638
},
{
  "type": "node",
  "id": 1779042029,
  "lat": 52.2058160,
  "lon": 104.0851122
},
{
  "type": "node",
  "id": 1779042030,
  "lat": 52.2058185,
  "lon": 104.0850371
},
{
  "type": "node",
  "id": 1779042031,
  "lat": 52.2058441,
  "lon": 104.0896781,
  "tags": {
    "highway": "crossing"
  }
},
{
  "type": "node",
  "id": 1809755139,
  "lat": 52.2057027,
  "lon": 104.0889158
},
{
  "type": "node",
  "id": 2611504560,
  "lat": 52.2082105,
  "lon": 104.0868285
},
{
  "type": "node",
  "id": 3143319851,
  "lat": 52.2059994,
  "lon": 104.0851807
},
{
  "type": "node",
  "id": 3166564986,
  "lat": 52.2062327,
  "lon": 104.0852369
},
{
  "type": "node",
  "id": 3166564987,
  "lat": 52.2057263,
  "lon": 104.0851627
},
{
  "type": "node",
  "id": 3166575228,
  "lat": 52.2054065,
  "lon": 104.0851977
},
{
  "type": "node",
  "id": 3166575767,
  "lat": 52.2056027,
  "lon": 104.0851603,
  "tags": {
    "highway": "crossing"
  }
},
{
  "type": "node",
  "id": 3204465841,
  "lat": 52.2060152,
  "lon": 104.0905183
},
{
  "type": "node",
  "id": 3204492676,
  "lat": 52.2082619,
  "lon": 104.0871000
},
{
  "type": "node",
  "id": 3204492677,
  "lat": 52.2075325,
  "lon": 104.0862785
},
{
  "type": "node",
  "id": 3280467766,
  "lat": 52.2088505,
  "lon": 104.0901242
},
{
  "type": "node",
  "id": 4944385000,
  "lat": 52.2052349,
  "lon": 104.0866217
},
{
  "type": "node",
  "id": 5714042668,
  "lat": 52.2084266,
  "lon": 104.0867984
},
{
  "type": "node",
  "id": 5714042669,
  "lat": 52.2083321,
  "lon": 104.0868255
},
{
  "type": "node",
  "id": 5714042670,
  "lat": 52.2080983,
  "lon": 104.0867565
},
{
  "type": "node",
  "id": 5714973006,
  "lat": 52.2082259,
  "lon": 104.0869152
},
{
  "type": "node",
  "id": 5715012454,
  "lat": 52.2051915,
  "lon": 104.0864325,
  "tags": {
    "crossing": "marked",
    "highway": "crossing"
  }
},
{
  "type": "node",
  "id": 5745823032,
  "lat": 52.2085951,
  "lon": 104.0888114,
  "tags": {
    "highway": "crossing"
  }
},
{
  "type": "node",
  "id": 5745823037,
  "lat": 52.2086774,
  "lon": 104.0892345
},
{
  "type": "node",
  "id": 5767652229,
  "lat": 52.2083542,
  "lon": 104.0875739
},
{
  "type": "node",
  "id": 5767653218,
  "lat": 52.2085670,
  "lon": 104.0886669
},
{
  "type": "node",
  "id": 5767658892,
  "lat": 52.2087912,
  "lon": 104.0898197
},
{
  "type": "node",
  "id": 5767668088,
  "lat": 52.2089851,
  "lon": 104.0908158
},
{
  "type": "node",
  "id": 278787092,
  "lat": 52.2072362,
  "lon": 104.0968395,
  "tags": {
    "crossing": "marked",
    "highway": "crossing"
  }
},
{
  "type": "node",
  "id": 1000652056,
  "lat": 52.2068412,
  "lon": 104.0948069
},
{
  "type": "node",
  "id": 2281041407,
  "lat": 52.2061902,
  "lon": 104.0914080
},
{
  "type": "node",
  "id": 2611504599,
  "lat": 52.2090020,
  "lon": 104.0909027
},
{
  "type": "node",
  "id": 3433222612,
  "lat": 52.2092319,
  "lon": 104.0920842
},
{
  "type": "node",
  "id": 4487797266,
  "lat": 52.2069869,
  "lon": 104.0955569
},
{
  "type": "node",
  "id": 346603148,
  "lat": 52.1955600,
  "lon": 104.1037008
},
{
  "type": "node",
  "id": 5593399825,
  "lat": 52.1958914,
  "lon": 104.0985025
},
{
  "type": "node",
  "id": 346603150,
  "lat": 52.1942982,
  "lon": 104.1042258
},
{
  "type": "node",
  "id": 346603153,
  "lat": 52.1937181,
  "lon": 104.1046368
},
{
  "type": "node",
  "id": 346603156,
  "lat": 52.1930363,
  "lon": 104.1053966
},
{
  "type": "node",
  "id": 346603157,
  "lat": 52.1929432,
  "lon": 104.1054899
},
{
  "type": "node",
  "id": 346603160,
  "lat": 52.1928310,
  "lon": 104.1055037
},
{
  "type": "node",
  "id": 346603163,
  "lat": 52.1911922,
  "lon": 104.1056108
},
{
  "type": "node",
  "id": 346603166,
  "lat": 52.1908259,
  "lon": 104.1055244
},
{
  "type": "node",
  "id": 346603168,
  "lat": 52.1904829,
  "lon": 104.1053103
},
{
  "type": "node",
  "id": 346603170,
  "lat": 52.1903178,
  "lon": 104.1049994
},
{
  "type": "node",
  "id": 346603171,
  "lat": 52.1901484,
  "lon": 104.1046368
},
{
  "type": "node",
  "id": 3052996860,
  "lat": 52.1946814,
  "lon": 104.1040664
},
{
  "type": "node",
  "id": 3058681872,
  "lat": 52.1948044,
  "lon": 104.1040152
},
{
  "type": "node",
  "id": 278786965,
  "lat": 52.2008822,
  "lon": 104.1006258
},
{
  "type": "node",
  "id": 346578516,
  "lat": 52.2026202,
  "lon": 104.0978116
},
{
  "type": "node",
  "id": 346578542,
  "lat": 52.1992493,
  "lon": 104.1002300
},
{
  "type": "node",
  "id": 346578544,
  "lat": 52.1974895,
  "lon": 104.0998107
},
{
  "type": "node",
  "id": 346578555,
  "lat": 52.1970829,
  "lon": 104.0996594
},
{
  "type": "node",
  "id": 346578565,
  "lat": 52.1967991,
  "lon": 104.0994974
},
{
  "type": "node",
  "id": 346581061,
  "lat": 52.2003190,
  "lon": 104.0975577
},
{
  "type": "node",
  "id": 346581065,
  "lat": 52.1999817,
  "lon": 104.0975889
},
{
  "type": "node",
  "id": 346581070,
  "lat": 52.1996564,
  "lon": 104.0976513
},
{
  "type": "node",
  "id": 346581073,
  "lat": 52.1986279,
  "lon": 104.0980299
},
{
  "type": "node",
  "id": 346581076,
  "lat": 52.1976783,
  "lon": 104.0985333
},
{
  "type": "node",
  "id": 346603125,
  "lat": 52.1968238,
  "lon": 104.1001227
},
{
  "type": "node",
  "id": 346603127,
  "lat": 52.1968259,
  "lon": 104.1009861
},
{
  "type": "node",
  "id": 346603130,
  "lat": 52.1968293,
  "lon": 104.1014428
},
{
  "type": "node",
  "id": 346603133,
  "lat": 52.1970132,
  "lon": 104.1020379
},
{
  "type": "node",
  "id": 346603135,
  "lat": 52.1969678,
  "lon": 104.1024471
},
{
  "type": "node",
  "id": 346603138,
  "lat": 52.1968810,
  "lon": 104.1027096
},
{
  "type": "node",
  "id": 346603140,
  "lat": 52.1967900,
  "lon": 104.1029375
},
{
  "type": "node",
  "id": 346603143,
  "lat": 52.1966966,
  "lon": 104.1031817
},
{
  "type": "node",
  "id": 346603145,
  "lat": 52.1965338,
  "lon": 104.1033540
},
{
  "type": "node",
  "id": 1000652010,
  "lat": 52.1966912,
  "lon": 104.0993533
},
{
  "type": "node",
  "id": 1000652028,
  "lat": 52.2003150,
  "lon": 104.1005285
},
{
  "type": "node",
  "id": 1000652049,
  "lat": 52.1971719,
  "lon": 104.0990033
},
{
  "type": "node",
  "id": 1000652079,
  "lat": 52.1992591,
  "lon": 104.0977869
},
{
  "type": "node",
  "id": 1000652088,
  "lat": 52.2010896,
  "lon": 104.1006193
},
{
  "type": "node",
  "id": 1000652112,
  "lat": 52.1980859,
  "lon": 104.0982812
},
{
  "type": "node",
  "id": 1000652179,
  "lat": 52.1969553,
  "lon": 104.0993735
},
{
  "type": "node",
  "id": 1000652210,
  "lat": 52.1962044,
  "lon": 104.0988275
},
{
  "type": "node",
  "id": 1000652224,
  "lat": 52.1968583,
  "lon": 104.0995386
},
{
  "type": "node",
  "id": 1000652252,
  "lat": 52.1973703,
  "lon": 104.0987755
},
{
  "type": "node",
  "id": 3058571916,
  "lat": 52.2014934,
  "lon": 104.1006025
},
{
  "type": "node",
  "id": 3058683793,
  "lat": 52.1969565,
  "lon": 104.1018545
},
{
  "type": "node",
  "id": 3169860412,
  "lat": 52.2021622,
  "lon": 104.1005393
},
{
  "type": "node",
  "id": 3169860413,
  "lat": 52.2022444,
  "lon": 104.0977701
},
{
  "type": "node",
  "id": 5187321525,
  "lat": 52.2012650,
  "lon": 104.1006130
},
{
  "type": "node",
  "id": 5187321526,
  "lat": 52.2007594,
  "lon": 104.1006098,
  "tags": {
    "highway": "crossing"
  }
},
{
  "type": "node",
  "id": 5187321527,
  "lat": 52.1973783,
  "lon": 104.0997856
},
{
  "type": "node",
  "id": 3006283783,
  "lat": 52.1972573,
  "lon": 104.1054040
},
{
  "type": "node",
  "id": 3006297898,
  "lat": 52.1975579,
  "lon": 104.1053720
},
{
  "type": "node",
  "id": 3006297899,
  "lat": 52.1978150,
  "lon": 104.1053173
},
{
  "type": "node",
  "id": 3006297900,
  "lat": 52.1980542,
  "lon": 104.1052522
},
{
  "type": "node",
  "id": 3006297901,
  "lat": 52.1982386,
  "lon": 104.1051790
},
{
  "type": "node",
  "id": 3006297902,
  "lat": 52.1985426,
  "lon": 104.1050489
},
{
  "type": "node",
  "id": 3006297903,
  "lat": 52.1989064,
  "lon": 104.1049432
},
{
  "type": "node",
  "id": 3006297904,
  "lat": 52.1990858,
  "lon": 104.1048945
},
{
  "type": "node",
  "id": 3006297905,
  "lat": 52.1992353,
  "lon": 104.1048782
},
{
  "type": "node",
  "id": 3006335047,
  "lat": 52.2008595,
  "lon": 104.1050157
},
{
  "type": "node",
  "id": 3006335048,
  "lat": 52.2005246,
  "lon": 104.1050344
},
{
  "type": "node",
  "id": 3006335049,
  "lat": 52.2000408,
  "lon": 104.1049877
},
{
  "type": "node",
  "id": 3006335050,
  "lat": 52.1995686,
  "lon": 104.1049317
},
{
  "type": "node",
  "id": 3006335051,
  "lat": 52.1994054,
  "lon": 104.1049224
},
{
  "type": "node",
  "id": 3058697808,
  "lat": 52.2002747,
  "lon": 104.1050103
},
{
  "type": "node",
  "id": 3058700341,
  "lat": 52.1993973,
  "lon": 104.1049241
},
{
  "type": "node",
  "id": 3232350680,
  "lat": 52.1987369,
  "lon": 104.1050002
},
{
  "type": "node",
  "id": 278786066,
  "lat": 52.2074965,
  "lon": 104.0991410
},
{
  "type": "node",
  "id": 278786961,
  "lat": 52.2068368,
  "lon": 104.0991209,
  "tags": {
    "highway": "crossing"
  }
},
{
  "type": "node",
  "id": 278786963,
  "lat": 52.2045137,
  "lon": 104.1003575
},
{
  "type": "node",
  "id": 278787093,
  "lat": 52.2073569,
  "lon": 104.0985597
},
{
  "type": "node",
  "id": 278787097,
  "lat": 52.2080119,
  "lon": 104.0999060,
  "tags": {
    "crossing": "traffic_signals",
    "highway": "traffic_signals",
    "traffic_signals:direction": "both"
  }
},
{
  "type": "node",
  "id": 278787098,
  "lat": 52.2076724,
  "lon": 104.0987022
},
{
  "type": "node",
  "id": 344618133,
  "lat": 52.2076899,
  "lon": 104.0981973
},
{
  "type": "node",
  "id": 344620831,
  "lat": 52.2091100,
  "lon": 104.1032442
},
{
  "type": "node",
  "id": 344620839,
  "lat": 52.2089072,
  "lon": 104.1032858
},
{
  "type": "node",
  "id": 345113494,
  "lat": 52.2082230,
  "lon": 104.0989603
},
{
  "type": "node",
  "id": 345113495,
  "lat": 52.2078896,
  "lon": 104.0991096
},
{
  "type": "node",
  "id": 346578526,
  "lat": 52.2070661,
  "lon": 104.0985615
},
{
  "type": "node",
  "id": 1000651895,
  "lat": 52.2073545,
  "lon": 104.0991088
},
{
  "type": "node",
  "id": 1000651920,
  "lat": 52.2074781,
  "lon": 104.0984845
},
{
  "type": "node",
  "id": 1000651935,
  "lat": 52.2041313,
  "lon": 104.1004140,
  "tags": {
    "highway": "crossing"
  }
},
{
  "type": "node",
  "id": 1000651954,
  "lat": 52.2074116,
  "lon": 104.0979763
},
{
  "type": "node",
  "id": 1000651956,
  "lat": 52.2077051,
  "lon": 104.0991757
},
{
  "type": "node",
  "id": 1000651957,
  "lat": 52.2075892,
  "lon": 104.0991182
},
{
  "type": "node",
  "id": 1000651966,
  "lat": 52.2071770,
  "lon": 104.0990739
},
{
  "type": "node",
  "id": 1000651981,
  "lat": 52.2073979,
  "lon": 104.0981640
},
{
  "type": "node",
  "id": 1000652015,
  "lat": 52.2074174,
  "lon": 104.0976819
},
{
  "type": "node",
  "id": 1000652019,
  "lat": 52.2070916,
  "lon": 104.0989321
},
{
  "type": "node",
  "id": 1000652048,
  "lat": 52.2075076,
  "lon": 104.0984892
},
{
  "type": "node",
  "id": 1000652051,
  "lat": 52.2057774,
  "lon": 104.0997273,
  "tags": {
    "crossing": "uncontrolled",
    "highway": "crossing"
  }
},
{
  "type": "node",
  "id": 1000652069,
  "lat": 52.2071868,
  "lon": 104.0986779
},
{
  "type": "node",
  "id": 1000652078,
  "lat": 52.2075594,
  "lon": 104.0985207
},
{
  "type": "node",
  "id": 1000652082,
  "lat": 52.2076383,
  "lon": 104.0990667
},
{
  "type": "node",
  "id": 1000652094,
  "lat": 52.2047048,
  "lon": 104.1002862
},
{
  "type": "node",
  "id": 1000652103,
  "lat": 52.2073892,
  "lon": 104.0989738
},
{
  "type": "node",
  "id": 1000652108,
  "lat": 52.2075723,
  "lon": 104.0982819
},
{
  "type": "node",
  "id": 1000652119,
  "lat": 52.2076720,
  "lon": 104.0989839
},
{
  "type": "node",
  "id": 1000652138,
  "lat": 52.2078343,
  "lon": 104.0995172
},
{
  "type": "node",
  "id": 1000652148,
  "lat": 52.2078107,
  "lon": 104.0991489
},
{
  "type": "node",
  "id": 1000652153,
  "lat": 52.2070119,
  "lon": 104.0990075
},
{
  "type": "node",
  "id": 1000652165,
  "lat": 52.2073330,
  "lon": 104.0986998
},
{
  "type": "node",
  "id": 1000652177,
  "lat": 52.2071868,
  "lon": 104.0985628
},
{
  "type": "node",
  "id": 1000652182,
  "lat": 52.2074673,
  "lon": 104.0983735
},
{
  "type": "node",
  "id": 1000652187,
  "lat": 52.2076119,
  "lon": 104.0991833
},
{
  "type": "node",
  "id": 1000652188,
  "lat": 52.2049195,
  "lon": 104.1001808
},
{
  "type": "node",
  "id": 1000652193,
  "lat": 52.2076823,
  "lon": 104.0988834
},
{
  "type": "node",
  "id": 1000652194,
  "lat": 52.2072383,
  "lon": 104.0990814
},
{
  "type": "node",
  "id": 1000652207,
  "lat": 52.2074173,
  "lon": 104.0990329
},
{
  "type": "node",
  "id": 1000652214,
  "lat": 52.2072279,
  "lon": 104.0987386
},
{
  "type": "node",
  "id": 1000652219,
  "lat": 52.2072785,
  "lon": 104.0985677
},
{
  "type": "node",
  "id": 1000652223,
  "lat": 52.2076358,
  "lon": 104.0986267
},
{
  "type": "node",
  "id": 1000652241,
  "lat": 52.2073489,
  "lon": 104.0988352
},
{
  "type": "node",
  "id": 1000652245,
  "lat": 52.2088074,
  "lon": 104.1023285,
  "tags": {
    "crossing": "marked",
    "highway": "crossing"
  }
},
{
  "type": "node",
  "id": 1000652251,
  "lat": 52.2073996,
  "lon": 104.0978135
},
{
  "type": "node",
  "id": 1000652263,
  "lat": 52.2070150,
  "lon": 104.0990864
},
{
  "type": "node",
  "id": 1000652275,
  "lat": 52.2077286,
  "lon": 104.0993829
},
{
  "type": "node",
  "id": 1815487127,
  "lat": 52.2088059,
  "lon": 104.1033571
},
{
  "type": "node",
  "id": 1982258985,
  "lat": 52.2083572,
  "lon": 104.0988899
},
{
  "type": "node",
  "id": 3053017616,
  "lat": 52.2080198,
  "lon": 104.0999262,
  "tags": {
    "highway": "crossing",
    "tactile_paving": "no"
  }
},
{
  "type": "node",
  "id": 3058578938,
  "lat": 52.2044131,
  "lon": 104.1003809
},
{
  "type": "node",
  "id": 3058619571,
  "lat": 52.2028036,
  "lon": 104.1005010
},
{
  "type": "node",
  "id": 3058619572,
  "lat": 52.2028087,
  "lon": 104.1014516
},
{
  "type": "node",
  "id": 3058619573,
  "lat": 52.2028091,
  "lon": 104.1012887
},
{
  "type": "node",
  "id": 3152542146,
  "lat": 52.2080871,
  "lon": 104.0979907
},
{
  "type": "node",
  "id": 3152542147,
  "lat": 52.2082904,
  "lon": 104.0989245
},
{
  "type": "node",
  "id": 3152553352,
  "lat": 52.2086711,
  "lon": 104.1018996
},
{
  "type": "node",
  "id": 3152555507,
  "lat": 52.2080367,
  "lon": 104.0990437
},
{
  "type": "node",
  "id": 3161061856,
  "lat": 52.2075456,
  "lon": 104.0979445
},
{
  "type": "node",
  "id": 3161061857,
  "lat": 52.2076551,
  "lon": 104.0980360
},
{
  "type": "node",
  "id": 3161061858,
  "lat": 52.2077034,
  "lon": 104.0980605
},
{
  "type": "node",
  "id": 3161061859,
  "lat": 52.2078097,
  "lon": 104.0981254
},
{
  "type": "node",
  "id": 3161061860,
  "lat": 52.2079618,
  "lon": 104.0996871
},
{
  "type": "node",
  "id": 3161062061,
  "lat": 52.2079536,
  "lon": 104.0994593
},
{
  "type": "node",
  "id": 3161062062,
  "lat": 52.2079721,
  "lon": 104.0992330
},
{
  "type": "node",
  "id": 3161062063,
  "lat": 52.2080077,
  "lon": 104.0991149
},
{
  "type": "node",
  "id": 3166599634,
  "lat": 52.2087213,
  "lon": 104.0986988,
  "tags": {
    "highway": "crossing"
  }
},
{
  "type": "node",
  "id": 3189977119,
  "lat": 52.2089663,
  "lon": 104.0975274,
  "tags": {
    "highway": "crossing"
  }
},
{
  "type": "node",
  "id": 3437006143,
  "lat": 52.2085627,
  "lon": 104.1035284
},
{
  "type": "node",
  "id": 3681613234,
  "lat": 52.2061157,
  "lon": 104.0995421
},
{
  "type": "node",
  "id": 5165507282,
  "lat": 52.2037944,
  "lon": 104.1004329
},
{
  "type": "node",
  "id": 5187306811,
  "lat": 52.2089591,
  "lon": 104.1032752
},
{
  "type": "node",
  "id": 5187321524,
  "lat": 52.2052661,
  "lon": 104.1000038
},
{
  "type": "node",
  "id": 5652677871,
  "lat": 52.2081719,
  "lon": 104.1003881
},
{
  "type": "node",
  "id": 5745684484,
  "lat": 52.2036285,
  "lon": 104.1004443
},
{
  "type": "node",
  "id": 5785447694,
  "lat": 52.2080169,
  "lon": 104.1039128
},
{
  "type": "node",
  "id": 5788304636,
  "lat": 52.2075990,
  "lon": 104.0979935
},
{
  "type": "node",
  "id": 5788304637,
  "lat": 52.2075038,
  "lon": 104.0978742
},
{
  "type": "node",
  "id": 5788304638,
  "lat": 52.2080100,
  "lon": 104.0998583
},
{
  "type": "node",
  "id": 5788304639,
  "lat": 52.2079989,
  "lon": 104.0998051
},
{
  "type": "node",
  "id": 5788304640,
  "lat": 52.2079585,
  "lon": 104.0995411
},
{
  "type": "node",
  "id": 5788304641,
  "lat": 52.2079539,
  "lon": 104.0993613
},
{
  "type": "node",
  "id": 5788304642,
  "lat": 52.2079814,
  "lon": 104.0998712
},
{
  "type": "node",
  "id": 5788304643,
  "lat": 52.2079551,
  "lon": 104.0998149
},
{
  "type": "node",
  "id": 5788304644,
  "lat": 52.2079190,
  "lon": 104.0997237
},
{
  "type": "node",
  "id": 5788304645,
  "lat": 52.2078680,
  "lon": 104.0995882
},
{
  "type": "node",
  "id": 5788304646,
  "lat": 52.2077916,
  "lon": 104.0994541
},
{
  "type": "node",
  "id": 5788304650,
  "lat": 52.2071320,
  "lon": 104.0990728
},
{
  "type": "node",
  "id": 5788304651,
  "lat": 52.2070720,
  "lon": 104.0990781
},
{
  "type": "node",
  "id": 5788304652,
  "lat": 52.2070383,
  "lon": 104.0989873
},
{
  "type": "node",
  "id": 5788304653,
  "lat": 52.2070580,
  "lon": 104.0989678
},
{
  "type": "node",
  "id": 5788304654,
  "lat": 52.2074094,
  "lon": 104.0980513
},
{
  "type": "node",
  "id": 5788304655,
  "lat": 52.2074094,
  "lon": 104.0979052
},
{
  "type": "node",
  "id": 5788304656,
  "lat": 52.2074079,
  "lon": 104.0984490
},
{
  "type": "node",
  "id": 5788304657,
  "lat": 52.2071662,
  "lon": 104.0986502
},
{
  "type": "node",
  "id": 5788304658,
  "lat": 52.2073868,
  "lon": 104.0985301
},
{
  "type": "node",
  "id": 5788304659,
  "lat": 52.2076174,
  "lon": 104.0985918
},
{
  "type": "node",
  "id": 5788304660,
  "lat": 52.2074489,
  "lon": 104.0984872
},
{
  "type": "node",
  "id": 5788304661,
  "lat": 52.2074123,
  "lon": 104.0985046
},
{
  "type": "node",
  "id": 5788304662,
  "lat": 52.2075216,
  "lon": 104.0983243
},
{
  "type": "node",
  "id": 5788304663,
  "lat": 52.2074281,
  "lon": 104.0984214
},
{
  "type": "node",
  "id": 5788304664,
  "lat": 52.2073893,
  "lon": 104.0984859
},
{
  "type": "node",
  "id": 5788304665,
  "lat": 52.2073355,
  "lon": 104.0986488
},
{
  "type": "node",
  "id": 5788304666,
  "lat": 52.2075882,
  "lon": 104.0985516
},
{
  "type": "node",
  "id": 5788304667,
  "lat": 52.2075356,
  "lon": 104.0985006
},
{
  "type": "node",
  "id": 5788304668,
  "lat": 52.2076480,
  "lon": 104.0985837
},
{
  "type": "node",
  "id": 5788304669,
  "lat": 52.2076264,
  "lon": 104.0984985
},
{
  "type": "node",
  "id": 5788304670,
  "lat": 52.2077761,
  "lon": 104.0990265
},
{
  "type": "node",
  "id": 5788304671,
  "lat": 52.2077354,
  "lon": 104.0988892
},
{
  "type": "node",
  "id": 5788304672,
  "lat": 52.2077005,
  "lon": 104.0987811
},
{
  "type": "node",
  "id": 5788304673,
  "lat": 52.2073655,
  "lon": 104.0989028
},
{
  "type": "node",
  "id": 5788304674,
  "lat": 52.2073355,
  "lon": 104.0987514
},
{
  "type": "node",
  "id": 5788304675,
  "lat": 52.2073425,
  "lon": 104.0986052
},
{
  "type": "node",
  "id": 5788304676,
  "lat": 52.2074659,
  "lon": 104.0991115
},
{
  "type": "node",
  "id": 5788304677,
  "lat": 52.2074354,
  "lon": 104.0990667
},
{
  "type": "node",
  "id": 5788304678,
  "lat": 52.2077434,
  "lon": 104.0991689
},
{
  "type": "node",
  "id": 5788304679,
  "lat": 52.2076456,
  "lon": 104.0991841
},
{
  "type": "node",
  "id": 5788304680,
  "lat": 52.2075710,
  "lon": 104.0991723
},
{
  "type": "node",
  "id": 5788304681,
  "lat": 52.2075384,
  "lon": 104.0991622
},
{
  "type": "node",
  "id": 5788304682,
  "lat": 52.2076119,
  "lon": 104.0990971
},
{
  "type": "node",
  "id": 5788304683,
  "lat": 52.2076580,
  "lon": 104.0990270
},
{
  "type": "node",
  "id": 5788304684,
  "lat": 52.2076798,
  "lon": 104.0989340
},
{
  "type": "node",
  "id": 5788304685,
  "lat": 52.2076829,
  "lon": 104.0988158
},
{
  "type": "node",
  "id": 5788304686,
  "lat": 52.2075322,
  "lon": 104.0991427
},
{
  "type": "node",
  "id": 5788304687,
  "lat": 52.2075581,
  "lon": 104.0991326
},
{
  "type": "node",
  "id": 5788304688,
  "lat": 52.2072664,
  "lon": 104.0987982
},
{
  "type": "node",
  "id": 5788304689,
  "lat": 52.2071372,
  "lon": 104.0986198
},
{
  "type": "node",
  "id": 6389868415,
  "lat": 52.2089489,
  "lon": 104.0975366
},
{
  "type": "node",
  "id": 6389868416,
  "lat": 52.2089702,
  "lon": 104.0976833
},
{
  "type": "node",
  "id": 6397629023,
  "lat": 52.2090051,
  "lon": 104.0985499
},
{
  "type": "node",
  "id": 6487044876,
  "lat": 52.2085011,
  "lon": 104.1013848
},
{
  "type": "node",
  "id": 6546938218,
  "lat": 52.2065591,
  "lon": 104.0984760
},
{
  "type": "node",
  "id": 6546944401,
  "lat": 52.2034013,
  "lon": 104.0979433
},
{
  "type": "node",
  "id": 344620842,
  "lat": 52.2061006,
  "lon": 104.1052623
},
{
  "type": "node",
  "id": 344620845,
  "lat": 52.2047764,
  "lon": 104.1061883
},
{
  "type": "node",
  "id": 344620848,
  "lat": 52.2045631,
  "lon": 104.1062389
},
{
  "type": "node",
  "id": 344620856,
  "lat": 52.2034315,
  "lon": 104.1062950
},
{
  "type": "node",
  "id": 344620859,
  "lat": 52.2032905,
  "lon": 104.1061547
},
{
  "type": "node",
  "id": 344620863,
  "lat": 52.2032492,
  "lon": 104.1058965
},
{
  "type": "node",
  "id": 344620866,
  "lat": 52.2031281,
  "lon": 104.1050830
},
{
  "type": "node",
  "id": 3058550124,
  "lat": 52.2054093,
  "lon": 104.1057457
},
{
  "type": "node",
  "id": 3994701963,
  "lat": 52.2070883,
  "lon": 104.1045668
},
{
  "type": "node",
  "id": 5556256413,
  "lat": 52.2031550,
  "lon": 104.1052635
},
{
  "type": "node",
  "id": 5745676805,
  "lat": 52.2082181,
  "lon": 104.1085776
},
{
  "type": "node",
  "id": 5745676806,
  "lat": 52.2082137,
  "lon": 104.1089494
},
{
  "type": "node",
  "id": 5745676807,
  "lat": 52.2081052,
  "lon": 104.1090909
},
{
  "type": "node",
  "id": 5745676808,
  "lat": 52.2078514,
  "lon": 104.1090837
},
{
  "type": "node",
  "id": 5745676809,
  "lat": 52.2068169,
  "lon": 104.1095010
},
{
  "type": "node",
  "id": 5745676810,
  "lat": 52.2078428,
  "lon": 104.1095128
},
{
  "type": "node",
  "id": 5785447691,
  "lat": 52.2075330,
  "lon": 104.1042536
},
{
  "type": "node",
  "id": 6652851940,
  "lat": 52.2088920,
  "lon": 104.1094708
},
{
  "type": "node",
  "id": 6652851941,
  "lat": 52.2082822,
  "lon": 104.1094682
},
{
  "type": "node",
  "id": 6652851942,
  "lat": 52.2082559,
  "lon": 104.1092321
},
{
  "type": "node",
  "id": 6652851943,
  "lat": 52.2082132,
  "lon": 104.1091356
},
{
  "type": "node",
  "id": 6652851944,
  "lat": 52.2071301,
  "lon": 104.1094988
},
{
  "type": "node",
  "id": 346597033,
  "lat": 52.2078126,
  "lon": 104.1108014
},
{
  "type": "node",
  "id": 278789380,
  "lat": 52.2114038,
  "lon": 104.0717335
},
{
  "type": "node",
  "id": 278789381,
  "lat": 52.2116142,
  "lon": 104.0714245
},
{
  "type": "node",
  "id": 278789440,
  "lat": 52.2115879,
  "lon": 104.0712700
},
{
  "type": "node",
  "id": 278789441,
  "lat": 52.2113618,
  "lon": 104.0716048
},
{
  "type": "node",
  "id": 1449307364,
  "lat": 52.2094070,
  "lon": 104.0740199
},
{
  "type": "node",
  "id": 1449307399,
  "lat": 52.2108271,
  "lon": 104.0722655
},
{
  "type": "node",
  "id": 1449307412,
  "lat": 52.2113145,
  "lon": 104.0716632
},
{
  "type": "node",
  "id": 5756692236,
  "lat": 52.2111371,
  "lon": 104.0720682,
  "tags": {
    "highway": "crossing"
  }
},
{
  "type": "node",
  "id": 5756692237,
  "lat": 52.2111406,
  "lon": 104.0718780,
  "tags": {
    "highway": "crossing"
  }
},
{
  "type": "node",
  "id": 5788283592,
  "lat": 52.2108846,
  "lon": 104.0723852
},
{
  "type": "node",
  "id": 344621840,
  "lat": 52.2128402,
  "lon": 104.0837022
},
{
  "type": "node",
  "id": 345517773,
  "lat": 52.2138017,
  "lon": 104.0837209
},
{
  "type": "node",
  "id": 346585055,
  "lat": 52.2129604,
  "lon": 104.0842719
},
{
  "type": "node",
  "id": 346585056,
  "lat": 52.2149674,
  "lon": 104.0823841
},
{
  "type": "node",
  "id": 346585058,
  "lat": 52.2150996,
  "lon": 104.0817911
},
{
  "type": "node",
  "id": 346585059,
  "lat": 52.2153260,
  "lon": 104.0817065
},
{
  "type": "node",
  "id": 346585065,
  "lat": 52.2157587,
  "lon": 104.0807013
},
{
  "type": "node",
  "id": 699006413,
  "lat": 52.2149800,
  "lon": 104.0828734
},
{
  "type": "node",
  "id": 1449307498,
  "lat": 52.2145651,
  "lon": 104.0797299
},
{
  "type": "node",
  "id": 1449307506,
  "lat": 52.2147699,
  "lon": 104.0786029
},
{
  "type": "node",
  "id": 1449307507,
  "lat": 52.2148255,
  "lon": 104.0813058
},
{
  "type": "node",
  "id": 1449307509,
  "lat": 52.2149308,
  "lon": 104.0824567
},
{
  "type": "node",
  "id": 1987026561,
  "lat": 52.2139419,
  "lon": 104.0835600
},
{
  "type": "node",
  "id": 1987026564,
  "lat": 52.2142962,
  "lon": 104.0834991
},
{
  "type": "node",
  "id": 3232384495,
  "lat": 52.2149575,
  "lon": 104.0784637
},
{
  "type": "node",
  "id": 3232390964,
  "lat": 52.2149801,
  "lon": 104.0784469,
  "tags": {
    "barrier": "gate",
    "foot": "permissive",
    "motor_vehicle": "destination"
  }
},
{
  "type": "node",
  "id": 346585115,
  "lat": 52.2174342,
  "lon": 104.0769408
},
{
  "type": "node",
  "id": 346585121,
  "lat": 52.2173271,
  "lon": 104.0751953
},
{
  "type": "node",
  "id": 346585139,
  "lat": 52.2171119,
  "lon": 104.0718493
},
{
  "type": "node",
  "id": 346585180,
  "lat": 52.2175305,
  "lon": 104.0752390
},
{
  "type": "node",
  "id": 346585181,
  "lat": 52.2177672,
  "lon": 104.0752604
},
{
  "type": "node",
  "id": 346585182,
  "lat": 52.2180169,
  "lon": 104.0752819
},
{
  "type": "node",
  "id": 346585183,
  "lat": 52.2180761,
  "lon": 104.0753463
},
{
  "type": "node",
  "id": 346585184,
  "lat": 52.2181155,
  "lon": 104.0755179
},
{
  "type": "node",
  "id": 346585185,
  "lat": 52.2181418,
  "lon": 104.0757969
},
{
  "type": "node",
  "id": 346585186,
  "lat": 52.2181747,
  "lon": 104.0760866
},
{
  "type": "node",
  "id": 346585187,
  "lat": 52.2182733,
  "lon": 104.0769985
},
{
  "type": "node",
  "id": 346585188,
  "lat": 52.2182470,
  "lon": 104.0771916
},
{
  "type": "node",
  "id": 346585189,
  "lat": 52.2182141,
  "lon": 104.0773847
},
{
  "type": "node",
  "id": 346585190,
  "lat": 52.2181681,
  "lon": 104.0775350
},
{
  "type": "node",
  "id": 346585191,
  "lat": 52.2181221,
  "lon": 104.0776744
},
{
  "type": "node",
  "id": 346585198,
  "lat": 52.2182207,
  "lon": 104.0766445
},
{
  "type": "node",
  "id": 2637233002,
  "lat": 52.2173132,
  "lon": 104.0754631
},
{
  "type": "node",
  "id": 2637233004,
  "lat": 52.2173007,
  "lon": 104.0740738
},
{
  "type": "node",
  "id": 2637233016,
  "lat": 52.2171685,
  "lon": 104.0731063
},
{
  "type": "node",
  "id": 2637233018,
  "lat": 52.2170909,
  "lon": 104.0714754
},
{
  "type": "node",
  "id": 3232390961,
  "lat": 52.2173120,
  "lon": 104.0748933
},
{
  "type": "node",
  "id": 3232390962,
  "lat": 52.2178198,
  "lon": 104.0767947
},
{
  "type": "node",
  "id": 346585057,
  "lat": 52.2169689,
  "lon": 104.0832254
},
{
  "type": "node",
  "id": 346585060,
  "lat": 52.2167246,
  "lon": 104.0821854
},
{
  "type": "node",
  "id": 346585061,
  "lat": 52.2171354,
  "lon": 104.0822492
},
{
  "type": "node",
  "id": 346585063,
  "lat": 52.2175338,
  "lon": 104.0824895
},
{
  "type": "node",
  "id": 346585064,
  "lat": 52.2179387,
  "lon": 104.0824698
},
{
  "type": "node",
  "id": 346585066,
  "lat": 52.2169568,
  "lon": 104.0808689
},
{
  "type": "node",
  "id": 346585067,
  "lat": 52.2178175,
  "lon": 104.0811642
},
{
  "type": "node",
  "id": 346585068,
  "lat": 52.2179249,
  "lon": 104.0798738
},
{
  "type": "node",
  "id": 346585069,
  "lat": 52.2173766,
  "lon": 104.0835692
},
{
  "type": "node",
  "id": 346585081,
  "lat": 52.2182076,
  "lon": 104.0810004
},
{
  "type": "node",
  "id": 346585087,
  "lat": 52.2181813,
  "lon": 104.0807965
},
{
  "type": "node",
  "id": 346585092,
  "lat": 52.2180301,
  "lon": 104.0804210
},
{
  "type": "node",
  "id": 346585097,
  "lat": 52.2178395,
  "lon": 104.0795949
},
{
  "type": "node",
  "id": 346585103,
  "lat": 52.2177475,
  "lon": 104.0793481
},
{
  "type": "node",
  "id": 346585109,
  "lat": 52.2175634,
  "lon": 104.0778783
},
{
  "type": "node",
  "id": 346585192,
  "lat": 52.2180827,
  "lon": 104.0778246
},
{
  "type": "node",
  "id": 346585193,
  "lat": 52.2180432,
  "lon": 104.0780821
},
{
  "type": "node",
  "id": 346585194,
  "lat": 52.2180104,
  "lon": 104.0784576
},
{
  "type": "node",
  "id": 346585195,
  "lat": 52.2179972,
  "lon": 104.0788117
},
{
  "type": "node",
  "id": 346585196,
  "lat": 52.2179644,
  "lon": 104.0794983
},
{
  "type": "node",
  "id": 346585203,
  "lat": 52.2184866,
  "lon": 104.0827029
},
{
  "type": "node",
  "id": 346585206,
  "lat": 52.2187603,
  "lon": 104.0828449
},
{
  "type": "node",
  "id": 346585207,
  "lat": 52.2189624,
  "lon": 104.0829261
},
{
  "type": "node",
  "id": 346585208,
  "lat": 52.2190774,
  "lon": 104.0830672
},
{
  "type": "node",
  "id": 346585210,
  "lat": 52.2177010,
  "lon": 104.0836828
},
{
  "type": "node",
  "id": 346585211,
  "lat": 52.2189264,
  "lon": 104.0841726
},
{
  "type": "node",
  "id": 346585213,
  "lat": 52.2191120,
  "lon": 104.0832459
},
{
  "type": "node",
  "id": 346585225,
  "lat": 52.2198612,
  "lon": 104.0836480
},
{
  "type": "node",
  "id": 3232390963,
  "lat": 52.2179709,
  "lon": 104.0801850
},
{
  "type": "node",
  "id": 344619638,
  "lat": 52.2119366,
  "lon": 104.0844079
},
{
  "type": "node",
  "id": 344619639,
  "lat": 52.2122590,
  "lon": 104.0860620
},
{
  "type": "node",
  "id": 344621841,
  "lat": 52.2131922,
  "lon": 104.0855515
},
{
  "type": "node",
  "id": 344621842,
  "lat": 52.2142194,
  "lon": 104.0907305
},
{
  "type": "node",
  "id": 345517772,
  "lat": 52.2154205,
  "lon": 104.0871168
},
{
  "type": "node",
  "id": 699006418,
  "lat": 52.2154402,
  "lon": 104.0844184
},
{
  "type": "node",
  "id": 699006423,
  "lat": 52.2156637,
  "lon": 104.0851694
},
{
  "type": "node",
  "id": 1987026545,
  "lat": 52.2103451,
  "lon": 104.0872163
},
{
  "type": "node",
  "id": 1987026546,
  "lat": 52.2105315,
  "lon": 104.0880879
},
{
  "type": "node",
  "id": 1987026562,
  "lat": 52.2140777,
  "lon": 104.0901003
},
{
  "type": "node",
  "id": 2611504561,
  "lat": 52.2120422,
  "lon": 104.0849630
},
{
  "type": "node",
  "id": 2611504562,
  "lat": 52.2123059,
  "lon": 104.0863022
},
{
  "type": "node",
  "id": 2611504563,
  "lat": 52.2123746,
  "lon": 104.0866723
},
{
  "type": "node",
  "id": 3160978593,
  "lat": 52.2128454,
  "lon": 104.0892068
},
{
  "type": "node",
  "id": 3160980068,
  "lat": 52.2155679,
  "lon": 104.0877764
},
{
  "type": "node",
  "id": 3160980069,
  "lat": 52.2138074,
  "lon": 104.0887037
},
{
  "type": "node",
  "id": 3169999829,
  "lat": 52.2121722,
  "lon": 104.0856291,
  "tags": {
    "highway": "crossing"
  }
},
{
  "type": "node",
  "id": 3190015847,
  "lat": 52.2121384,
  "lon": 104.0854507
},
{
  "type": "node",
  "id": 3190015850,
  "lat": 52.2122763,
  "lon": 104.0861495
},
{
  "type": "node",
  "id": 3190015851,
  "lat": 52.2122888,
  "lon": 104.0862129
},
{
  "type": "node",
  "id": 3190015852,
  "lat": 52.2135184,
  "lon": 104.0871767
},
{
  "type": "node",
  "id": 3232409180,
  "lat": 52.2094133,
  "lon": 104.0862758
},
{
  "type": "node",
  "id": 3280462385,
  "lat": 52.2107827,
  "lon": 104.0893495,
  "tags": {
    "highway": "crossing"
  }
},
{
  "type": "node",
  "id": 3280467767,
  "lat": 52.2108042,
  "lon": 104.0894579
},
{
  "type": "node",
  "id": 3285936245,
  "lat": 52.2110697,
  "lon": 104.0907472
},
{
  "type": "node",
  "id": 3285962639,
  "lat": 52.2110993,
  "lon": 104.0854234
},
{
  "type": "node",
  "id": 3285963377,
  "lat": 52.2128107,
  "lon": 104.0890221
},
{
  "type": "node",
  "id": 3285967946,
  "lat": 52.2130275,
  "lon": 104.0901913
},
{
  "type": "node",
  "id": 3285976134,
  "lat": 52.2109560,
  "lon": 104.0901597
},
{
  "type": "node",
  "id": 3285976137,
  "lat": 52.2106208,
  "lon": 104.0885582
},
{
  "type": "node",
  "id": 3298444927,
  "lat": 52.2095293,
  "lon": 104.0862143
},
{
  "type": "node",
  "id": 3655063055,
  "lat": 52.2101090,
  "lon": 104.0859223
},
{
  "type": "node",
  "id": 5668386319,
  "lat": 52.2105965,
  "lon": 104.0884455
},
{
  "type": "node",
  "id": 5712825822,
  "lat": 52.2131534,
  "lon": 104.0853355
},
{
  "type": "node",
  "id": 5714042656,
  "lat": 52.2124809,
  "lon": 104.0872451,
  "tags": {
    "highway": "crossing"
  }
},
{
  "type": "node",
  "id": 5714042657,
  "lat": 52.2125617,
  "lon": 104.0858964
},
{
  "type": "node",
  "id": 5714042659,
  "lat": 52.2120825,
  "lon": 104.0851672
},
{
  "type": "node",
  "id": 5714042663,
  "lat": 52.2102226,
  "lon": 104.0858651,
  "tags": {
    "highway": "crossing"
  }
},
{
  "type": "node",
  "id": 5714042664,
  "lat": 52.2101345,
  "lon": 104.0860661,
  "tags": {
    "highway": "crossing"
  }
},
{
  "type": "node",
  "id": 5714042665,
  "lat": 52.2100671,
  "lon": 104.0859434,
  "tags": {
    "highway": "crossing"
  }
},
{
  "type": "node",
  "id": 5769516268,
  "lat": 52.2136230,
  "lon": 104.0877296
},
{
  "type": "node",
  "id": 5769516269,
  "lat": 52.2136333,
  "lon": 104.0877838
},
{
  "type": "node",
  "id": 5769516272,
  "lat": 52.2146299,
  "lon": 104.0854582
},
{
  "type": "node",
  "id": 5769516947,
  "lat": 52.2154772,
  "lon": 104.0873706
},
{
  "type": "node",
  "id": 5769521026,
  "lat": 52.2142201,
  "lon": 104.0884863
},
{
  "type": "node",
  "id": 5769522253,
  "lat": 52.2145585,
  "lon": 104.0883081
},
{
  "type": "node",
  "id": 5769530025,
  "lat": 52.2142040,
  "lon": 104.0906619
},
{
  "type": "node",
  "id": 344619640,
  "lat": 52.2132783,
  "lon": 104.0915470
},
{
  "type": "node",
  "id": 344621843,
  "lat": 52.2142394,
  "lon": 104.0909360
},
{
  "type": "node",
  "id": 344621848,
  "lat": 52.2142280,
  "lon": 104.0910481
},
{
  "type": "node",
  "id": 344621849,
  "lat": 52.2141708,
  "lon": 104.0911041
},
{
  "type": "node",
  "id": 1779042057,
  "lat": 52.2095059,
  "lon": 104.0934922
},
{
  "type": "node",
  "id": 1987026563,
  "lat": 52.2141120,
  "lon": 104.0958960
},
{
  "type": "node",
  "id": 2001993143,
  "lat": 52.2111850,
  "lon": 104.0930914
},
{
  "type": "node",
  "id": 2611504466,
  "lat": 52.2138646,
  "lon": 104.0946227
},
{
  "type": "node",
  "id": 2611504558,
  "lat": 52.2114935,
  "lon": 104.0929366
},
{
  "type": "node",
  "id": 2611504564,
  "lat": 52.2133606,
  "lon": 104.0920134
},
{
  "type": "node",
  "id": 2611504601,
  "lat": 52.2095842,
  "lon": 104.0938946
},
{
  "type": "node",
  "id": 2611504603,
  "lat": 52.2101444,
  "lon": 104.0969066
},
{
  "type": "node",
  "id": 2637232726,
  "lat": 52.2148461,
  "lon": 104.0970305
},
{
  "type": "node",
  "id": 2666424857,
  "lat": 52.2140287,
  "lon": 104.0954629
},
{
  "type": "node",
  "id": 2666424860,
  "lat": 52.2121546,
  "lon": 104.0964068
},
{
  "type": "node",
  "id": 3152573787,
  "lat": 52.2110433,
  "lon": 104.0969676
},
{
  "type": "node",
  "id": 3152576078,
  "lat": 52.2114050,
  "lon": 104.0967866
},
{
  "type": "node",
  "id": 3152582988,
  "lat": 52.2124481,
  "lon": 104.0962588
},
{
  "type": "node",
  "id": 3160964340,
  "lat": 52.2105941,
  "lon": 104.0972054
},
{
  "type": "node",
  "id": 3160980070,
  "lat": 52.2133303,
  "lon": 104.0918419
},
{
  "type": "node",
  "id": 3160980071,
  "lat": 52.2136787,
  "lon": 104.0936705
},
{
  "type": "node",
  "id": 3160991188,
  "lat": 52.2143751,
  "lon": 104.0972832
},
{
  "type": "node",
  "id": 3166611261,
  "lat": 52.2103474,
  "lon": 104.0973361,
  "tags": {
    "highway": "crossing"
  }
},
{
  "type": "node",
  "id": 3166616661,
  "lat": 52.2100463,
  "lon": 104.0969583,
  "tags": {
    "highway": "crossing"
  }
},
{
  "type": "node",
  "id": 3232806220,
  "lat": 52.2154166,
  "lon": 104.0967267
},
{
  "type": "node",
  "id": 3232825210,
  "lat": 52.2147049,
  "lon": 104.0931907
},
{
  "type": "node",
  "id": 3232825211,
  "lat": 52.2136491,
  "lon": 104.0913630
},
{
  "type": "node",
  "id": 3232831698,
  "lat": 52.2139975,
  "lon": 104.0935404
},
{
  "type": "node",
  "id": 3232831699,
  "lat": 52.2145256,
  "lon": 104.0932802
},
{
  "type": "node",
  "id": 3232844480,
  "lat": 52.2152628,
  "lon": 104.0968070
},
{
  "type": "node",
  "id": 3232844485,
  "lat": 52.2145051,
  "lon": 104.0972134
},
{
  "type": "node",
  "id": 3232844486,
  "lat": 52.2138231,
  "lon": 104.0936116
},
{
  "type": "node",
  "id": 3232857332,
  "lat": 52.2124017,
  "lon": 104.0924908
},
{
  "type": "node",
  "id": 3232857333,
  "lat": 52.2128403,
  "lon": 104.0922724
},
{
  "type": "node",
  "id": 3232857334,
  "lat": 52.2130968,
  "lon": 104.0921447
},
{
  "type": "node",
  "id": 3232857335,
  "lat": 52.2119603,
  "lon": 104.0927106
},
{
  "type": "node",
  "id": 3232857336,
  "lat": 52.2117125,
  "lon": 104.0928340
},
{
  "type": "node",
  "id": 3232857337,
  "lat": 52.2117937,
  "lon": 104.0945771
},
{
  "type": "node",
  "id": 3232857338,
  "lat": 52.2140025,
  "lon": 104.0953210,
  "tags": {
    "highway": "crossing"
  }
},
{
  "type": "node",
  "id": 3232859333,
  "lat": 52.2115109,
  "lon": 104.0931415
},
{
  "type": "node",
  "id": 3232859642,
  "lat": 52.2130464,
  "lon": 104.0959571
},
{
  "type": "node",
  "id": 3232864099,
  "lat": 52.2136124,
  "lon": 104.0933252
},
{
  "type": "node",
  "id": 3232864164,
  "lat": 52.2116858,
  "lon": 104.0940181
},
{
  "type": "node",
  "id": 3285936243,
  "lat": 52.2132617,
  "lon": 104.0914574
},
{
  "type": "node",
  "id": 3285936247,
  "lat": 52.2118345,
  "lon": 104.0927732
},
{
  "type": "node",
  "id": 3285963367,
  "lat": 52.2126366,
  "lon": 104.0923737
},
{
  "type": "node",
  "id": 3285963370,
  "lat": 52.2124499,
  "lon": 104.0924668
},
{
  "type": "node",
  "id": 3286003879,
  "lat": 52.2114623,
  "lon": 104.0927753,
  "tags": {
    "highway": "crossing"
  }
},
{
  "type": "node",
  "id": 3286029372,
  "lat": 52.2135466,
  "lon": 104.0929725,
  "tags": {
    "highway": "crossing"
  }
},
{
  "type": "node",
  "id": 3424348655,
  "lat": 52.2123721,
  "lon": 104.0962944,
  "tags": {
    "highway": "crossing"
  }
},
{
  "type": "node",
  "id": 3428223544,
  "lat": 52.2120090,
  "lon": 104.0956687
},
{
  "type": "node",
  "id": 3428223549,
  "lat": 52.2119818,
  "lon": 104.0955306
},
{
  "type": "node",
  "id": 3428223555,
  "lat": 52.2137957,
  "lon": 104.0942697
},
{
  "type": "node",
  "id": 3428244730,
  "lat": 52.2133279,
  "lon": 104.0958155
},
{
  "type": "node",
  "id": 3428244733,
  "lat": 52.2136713,
  "lon": 104.0956427
},
{
  "type": "node",
  "id": 3429555865,
  "lat": 52.2118326,
  "lon": 104.0965646
},
{
  "type": "node",
  "id": 3429573485,
  "lat": 52.2097124,
  "lon": 104.0946542
},
{
  "type": "node",
  "id": 3429573500,
  "lat": 52.2099512,
  "lon": 104.0958992
},
{
  "type": "node",
  "id": 3429581365,
  "lat": 52.2103330,
  "lon": 104.0935201
},
{
  "type": "node",
  "id": 3429581366,
  "lat": 52.2107034,
  "lon": 104.0933342
},
{
  "type": "node",
  "id": 3429594849,
  "lat": 52.2155148,
  "lon": 104.0966744
},
{
  "type": "node",
  "id": 3433222616,
  "lat": 52.2093819,
  "lon": 104.0928551
},
{
  "type": "node",
  "id": 3450028955,
  "lat": 52.2111255,
  "lon": 104.0910352
},
{
  "type": "node",
  "id": 3450028959,
  "lat": 52.2112904,
  "lon": 104.0918873
},
{
  "type": "node",
  "id": 4111615040,
  "lat": 52.2095492,
  "lon": 104.0937145
},
{
  "type": "node",
  "id": 4111615055,
  "lat": 52.2137038,
  "lon": 104.0937993
},
{
  "type": "node",
  "id": 5714042680,
  "lat": 52.2111348,
  "lon": 104.0910833,
  "tags": {
    "highway": "crossing"
  }
},
{
  "type": "node",
  "id": 5714042681,
  "lat": 52.2112430,
  "lon": 104.0916423,
  "tags": {
    "highway": "crossing"
  }
},
{
  "type": "node",
  "id": 5714042682,
  "lat": 52.2114234,
  "lon": 104.0929718,
  "tags": {
    "highway": "crossing"
  }
},
{
  "type": "node",
  "id": 5919569556,
  "lat": 52.2099024,
  "lon": 104.0956447
},
{
  "type": "node",
  "id": 6527889208,
  "lat": 52.2097838,
  "lon": 104.0950266
},
{
  "type": "node",
  "id": 344621857,
  "lat": 52.2168703,
  "lon": 104.0871262
},
{
  "type": "node",
  "id": 344621858,
  "lat": 52.2169500,
  "lon": 104.0870530
},
{
  "type": "node",
  "id": 344621859,
  "lat": 52.2171199,
  "lon": 104.0870357
},
{
  "type": "node",
  "id": 344621860,
  "lat": 52.2172688,
  "lon": 104.0871018
},
{
  "type": "node",
  "id": 344621862,
  "lat": 52.2186437,
  "lon": 104.0878173
},
{
  "type": "node",
  "id": 344621867,
  "lat": 52.2192166,
  "lon": 104.0881100
},
{
  "type": "node",
  "id": 344621871,
  "lat": 52.2206163,
  "lon": 104.0883702
},
{
  "type": "node",
  "id": 344621872,
  "lat": 52.2218845,
  "lon": 104.0883270
},
{
  "type": "node",
  "id": 345517771,
  "lat": 52.2159130,
  "lon": 104.0896505
},
{
  "type": "node",
  "id": 346585071,
  "lat": 52.2173222,
  "lon": 104.0864004
},
{
  "type": "node",
  "id": 346585075,
  "lat": 52.2174200,
  "lon": 104.0860731
},
{
  "type": "node",
  "id": 346585212,
  "lat": 52.2207754,
  "lon": 104.0847487
},
{
  "type": "node",
  "id": 346585214,
  "lat": 52.2183947,
  "lon": 104.0876242
},
{
  "type": "node",
  "id": 346585215,
  "lat": 52.2187694,
  "lon": 104.0851521
},
{
  "type": "node",
  "id": 346585216,
  "lat": 52.2206101,
  "lon": 104.0859605
},
{
  "type": "node",
  "id": 346585217,
  "lat": 52.2185598,
  "lon": 104.0865247
},
{
  "type": "node",
  "id": 346585218,
  "lat": 52.2203572,
  "lon": 104.0870771
},
{
  "type": "node",
  "id": 346585221,
  "lat": 52.2205874,
  "lon": 104.0846640
},
{
  "type": "node",
  "id": 346585222,
  "lat": 52.2203994,
  "lon": 104.0858388
},
{
  "type": "node",
  "id": 346585224,
  "lat": 52.2202113,
  "lon": 104.0870136
},
{
  "type": "node",
  "id": 346585227,
  "lat": 52.2197412,
  "lon": 104.0843253
},
{
  "type": "node",
  "id": 346585228,
  "lat": 52.2197542,
  "lon": 104.0845053
},
{
  "type": "node",
  "id": 346585229,
  "lat": 52.2195889,
  "lon": 104.0855319
},
{
  "type": "node",
  "id": 346585230,
  "lat": 52.2194623,
  "lon": 104.0861986
},
{
  "type": "node",
  "id": 346585232,
  "lat": 52.2194202,
  "lon": 104.0867012
},
{
  "type": "node",
  "id": 346586984,
  "lat": 52.2183390,
  "lon": 104.0886197
},
{
  "type": "node",
  "id": 346586986,
  "lat": 52.2170861,
  "lon": 104.0880968
},
{
  "type": "node",
  "id": 346586991,
  "lat": 52.2181973,
  "lon": 104.0895716
},
{
  "type": "node",
  "id": 346586993,
  "lat": 52.2169303,
  "lon": 104.0890429
},
{
  "type": "node",
  "id": 346586997,
  "lat": 52.2180286,
  "lon": 104.0907094
},
{
  "type": "node",
  "id": 346587001,
  "lat": 52.2167806,
  "lon": 104.0900940
},
{
  "type": "node",
  "id": 558521976,
  "lat": 52.2184500,
  "lon": 104.0877304
},
{
  "type": "node",
  "id": 698943921,
  "lat": 52.2200027,
  "lon": 104.0883863
},
{
  "type": "node",
  "id": 699006427,
  "lat": 52.2160581,
  "lon": 104.0866929
},
{
  "type": "node",
  "id": 699006432,
  "lat": 52.2162545,
  "lon": 104.0874317
},
{
  "type": "node",
  "id": 699022636,
  "lat": 52.2161628,
  "lon": 104.0874866
},
{
  "type": "node",
  "id": 1809766786,
  "lat": 52.2161480,
  "lon": 104.0895411
},
{
  "type": "node",
  "id": 1809766787,
  "lat": 52.2163323,
  "lon": 104.0896874
},
{
  "type": "node",
  "id": 1809766788,
  "lat": 52.2164867,
  "lon": 104.0899313
},
{
  "type": "node",
  "id": 3160980085,
  "lat": 52.2158966,
  "lon": 104.0876163
},
{
  "type": "node",
  "id": 3249288762,
  "lat": 52.2171493,
  "lon": 104.0867765
},
{
  "type": "node",
  "id": 345517747,
  "lat": 52.2159856,
  "lon": 104.0925436
},
{
  "type": "node",
  "id": 345517752,
  "lat": 52.2163742,
  "lon": 104.0926438
},
{
  "type": "node",
  "id": 345517756,
  "lat": 52.2164381,
  "lon": 104.0925561
},
{
  "type": "node",
  "id": 345517760,
  "lat": 52.2164765,
  "lon": 104.0923558
},
{
  "type": "node",
  "id": 346585243,
  "lat": 52.2187143,
  "lon": 104.0912060
},
{
  "type": "node",
  "id": 346585248,
  "lat": 52.2182758,
  "lon": 104.0943218
},
{
  "type": "node",
  "id": 346585258,
  "lat": 52.2192102,
  "lon": 104.0940583
},
{
  "type": "node",
  "id": 346585259,
  "lat": 52.2191755,
  "lon": 104.0943781
},
{
  "type": "node",
  "id": 346585260,
  "lat": 52.2191696,
  "lon": 104.0946380
},
{
  "type": "node",
  "id": 346585261,
  "lat": 52.2191974,
  "lon": 104.0949371
},
{
  "type": "node",
  "id": 346586947,
  "lat": 52.2195374,
  "lon": 104.0915572
},
{
  "type": "node",
  "id": 346586950,
  "lat": 52.2180015,
  "lon": 104.0908909
},
{
  "type": "node",
  "id": 346586961,
  "lat": 52.2175194,
  "lon": 104.0943389
},
{
  "type": "node",
  "id": 346586963,
  "lat": 52.2173817,
  "lon": 104.0952191
},
{
  "type": "node",
  "id": 346586967,
  "lat": 52.2172871,
  "lon": 104.0953736
},
{
  "type": "node",
  "id": 346586970,
  "lat": 52.2170863,
  "lon": 104.0954345
},
{
  "type": "node",
  "id": 346586973,
  "lat": 52.2169629,
  "lon": 104.0954860
},
{
  "type": "node",
  "id": 346591216,
  "lat": 52.2178731,
  "lon": 104.0916312
},
{
  "type": "node",
  "id": 346591219,
  "lat": 52.2174136,
  "lon": 104.0914398
},
{
  "type": "node",
  "id": 346591222,
  "lat": 52.2173346,
  "lon": 104.0914076
},
{
  "type": "node",
  "id": 346591224,
  "lat": 52.2172873,
  "lon": 104.0914463
},
{
  "type": "node",
  "id": 346591227,
  "lat": 52.2169202,
  "lon": 104.0938041
},
{
  "type": "node",
  "id": 346591229,
  "lat": 52.2168571,
  "lon": 104.0938556
},
{
  "type": "node",
  "id": 346591232,
  "lat": 52.2167821,
  "lon": 104.0938556
},
{
  "type": "node",
  "id": 346591234,
  "lat": 52.2166913,
  "lon": 104.0938041
},
{
  "type": "node",
  "id": 346591237,
  "lat": 52.2165413,
  "lon": 104.0936817
},
{
  "type": "node",
  "id": 346591240,
  "lat": 52.2164111,
  "lon": 104.0935077
},
{
  "type": "node",
  "id": 346591243,
  "lat": 52.2163716,
  "lon": 104.0933445
},
{
  "type": "node",
  "id": 346591249,
  "lat": 52.2196456,
  "lon": 104.0972294
},
{
  "type": "node",
  "id": 346591267,
  "lat": 52.2169044,
  "lon": 104.0964067
},
{
  "type": "node",
  "id": 346591269,
  "lat": 52.2170544,
  "lon": 104.0963036
},
{
  "type": "node",
  "id": 346591272,
  "lat": 52.2179701,
  "lon": 104.0972442
},
{
  "type": "node",
  "id": 346591313,
  "lat": 52.2163983,
  "lon": 104.0971654
},
{
  "type": "node",
  "id": 2637232729,
  "lat": 52.2167466,
  "lon": 104.0960395
},
{
  "type": "node",
  "id": 2978025975,
  "lat": 52.2168780,
  "lon": 104.0964216
},
{
  "type": "node",
  "id": 3160980074,
  "lat": 52.2167421,
  "lon": 104.0958371
},
{
  "type": "node",
  "id": 3160980075,
  "lat": 52.2168367,
  "lon": 104.0955890
},
{
  "type": "node",
  "id": 3160980080,
  "lat": 52.2162804,
  "lon": 104.0926628
},
{
  "type": "node",
  "id": 3160980081,
  "lat": 52.2160396,
  "lon": 104.0925212
},
{
  "type": "node",
  "id": 3169968658,
  "lat": 52.2159130,
  "lon": 104.0964692
},
{
  "type": "node",
  "id": 3232806218,
  "lat": 52.2158431,
  "lon": 104.0965052
},
{
  "type": "node",
  "id": 344619652,
  "lat": 52.2149314,
  "lon": 104.0998812
},
{
  "type": "node",
  "id": 344619657,
  "lat": 52.2152900,
  "lon": 104.1017424
},
{
  "type": "node",
  "id": 344619681,
  "lat": 52.2094745,
  "lon": 104.1030634
},
{
  "type": "node",
  "id": 345517745,
  "lat": 52.2125124,
  "lon": 104.0982410
},
{
  "type": "node",
  "id": 346591266,
  "lat": 52.2157677,
  "lon": 104.0994409
},
{
  "type": "node",
  "id": 346591310,
  "lat": 52.2155864,
  "lon": 104.0975551
},
{
  "type": "node",
  "id": 346591318,
  "lat": 52.2157737,
  "lon": 104.0984429
},
{
  "type": "node",
  "id": 1000651871,
  "lat": 52.2103340,
  "lon": 104.0978524
},
{
  "type": "node",
  "id": 1987026554,
  "lat": 52.2124162,
  "lon": 104.0977476
},
{
  "type": "node",
  "id": 1987026565,
  "lat": 52.2144104,
  "lon": 104.0992945
},
{
  "type": "node",
  "id": 1987026566,
  "lat": 52.2150905,
  "lon": 104.1028562
},
{
  "type": "node",
  "id": 2001993149,
  "lat": 52.2134403,
  "lon": 104.1029972
},
{
  "type": "node",
  "id": 2611504454,
  "lat": 52.2102418,
  "lon": 104.0973920
},
{
  "type": "node",
  "id": 2611504475,
  "lat": 52.2147593,
  "lon": 104.0991158
},
{
  "type": "node",
  "id": 2611504482,
  "lat": 52.2128718,
  "lon": 104.1000827
},
{
  "type": "node",
  "id": 2611504484,
  "lat": 52.2154698,
  "lon": 104.1026753
},
{
  "type": "node",
  "id": 2611504502,
  "lat": 52.2135556,
  "lon": 104.1035881
},
{
  "type": "node",
  "id": 2637232722,
  "lat": 52.2156867,
  "lon": 104.1015276
},
{
  "type": "node",
  "id": 3152561401,
  "lat": 52.2107088,
  "lon": 104.0997215
},
{
  "type": "node",
  "id": 3152565834,
  "lat": 52.2105296,
  "lon": 104.0988280
},
{
  "type": "node",
  "id": 3152577187,
  "lat": 52.2120739,
  "lon": 104.1004915
},
{
  "type": "node",
  "id": 3152588024,
  "lat": 52.2134835,
  "lon": 104.0977417
},
{
  "type": "node",
  "id": 3152588096,
  "lat": 52.2140654,
  "lon": 104.0974425
},
{
  "type": "node",
  "id": 3160991186,
  "lat": 52.2156381,
  "lon": 104.1035490
},
{
  "type": "node",
  "id": 3160991187,
  "lat": 52.2150936,
  "lon": 104.1007231
},
{
  "type": "node",
  "id": 3160992686,
  "lat": 52.2109634,
  "lon": 104.1010603
},
{
  "type": "node",
  "id": 3160992687,
  "lat": 52.2111829,
  "lon": 104.1021089
},
{
  "type": "node",
  "id": 3160992688,
  "lat": 52.2108393,
  "lon": 104.1023159
},
{
  "type": "node",
  "id": 3166610621,
  "lat": 52.2102843,
  "lon": 104.0976042,
  "tags": {
    "highway": "crossing"
  }
},
{
  "type": "node",
  "id": 3166614195,
  "lat": 52.2102264,
  "lon": 104.0979089,
  "tags": {
    "highway": "crossing"
  }
},
{
  "type": "node",
  "id": 3166614931,
  "lat": 52.2117457,
  "lon": 104.1006596,
  "tags": {
    "highway": "crossing"
  }
},
{
  "type": "node",
  "id": 3232867440,
  "lat": 52.2108955,
  "lon": 104.1006526
},
{
  "type": "node",
  "id": 3249272162,
  "lat": 52.2133002,
  "lon": 104.0978360
},
{
  "type": "node",
  "id": 3450047543,
  "lat": 52.2148228,
  "lon": 104.0993983
},
{
  "type": "node",
  "id": 278788332,
  "lat": 52.2104494,
  "lon": 104.1073208
},
{
  "type": "node",
  "id": 278788370,
  "lat": 52.2100816,
  "lon": 104.1062108
},
{
  "type": "node",
  "id": 344619682,
  "lat": 52.2102802,
  "lon": 104.1053769
},
{
  "type": "node",
  "id": 344619683,
  "lat": 52.2103723,
  "lon": 104.1055557
},
{
  "type": "node",
  "id": 344619684,
  "lat": 52.2104507,
  "lon": 104.1056385
},
{
  "type": "node",
  "id": 344619685,
  "lat": 52.2105647,
  "lon": 104.1056904
},
{
  "type": "node",
  "id": 344619686,
  "lat": 52.2118776,
  "lon": 104.1060787
},
{
  "type": "node",
  "id": 937607617,
  "lat": 52.2096539,
  "lon": 104.1096352
},
{
  "type": "node",
  "id": 937607675,
  "lat": 52.2096674,
  "lon": 104.1098139
},
{
  "type": "node",
  "id": 937607894,
  "lat": 52.2097701,
  "lon": 104.1100979
},
{
  "type": "node",
  "id": 937608131,
  "lat": 52.2096391,
  "lon": 104.1086777
},
{
  "type": "node",
  "id": 1000651923,
  "lat": 52.2116076,
  "lon": 104.1060201
},
{
  "type": "node",
  "id": 1000651959,
  "lat": 52.2112210,
  "lon": 104.1058676
},
{
  "type": "node",
  "id": 1000652083,
  "lat": 52.2108987,
  "lon": 104.1057677
},
{
  "type": "node",
  "id": 2001993151,
  "lat": 52.2150016,
  "lon": 104.1039722
},
{
  "type": "node",
  "id": 2611504488,
  "lat": 52.2155357,
  "lon": 104.1066076
},
{
  "type": "node",
  "id": 2611504490,
  "lat": 52.2140828,
  "lon": 104.1062904
},
{
  "type": "node",
  "id": 2611504498,
  "lat": 52.2140278,
  "lon": 104.1060085
},
{
  "type": "node",
  "id": 2611504500,
  "lat": 52.2137460,
  "lon": 104.1045639
},
{
  "type": "node",
  "id": 3160992697,
  "lat": 52.2138671,
  "lon": 104.1051846
},
{
  "type": "node",
  "id": 3286038303,
  "lat": 52.2121573,
  "lon": 104.1103727
},
{
  "type": "node",
  "id": 3286038304,
  "lat": 52.2121573,
  "lon": 104.1100963
},
{
  "type": "node",
  "id": 3286038305,
  "lat": 52.2121723,
  "lon": 104.1098930
},
{
  "type": "node",
  "id": 3286038306,
  "lat": 52.2121773,
  "lon": 104.1096897
},
{
  "type": "node",
  "id": 3286038307,
  "lat": 52.2121623,
  "lon": 104.1094783
},
{
  "type": "node",
  "id": 3286038308,
  "lat": 52.2121225,
  "lon": 104.1093157
},
{
  "type": "node",
  "id": 3286038309,
  "lat": 52.2119879,
  "lon": 104.1091775
},
{
  "type": "node",
  "id": 3286038310,
  "lat": 52.2118733,
  "lon": 104.1089579
},
{
  "type": "node",
  "id": 3286038311,
  "lat": 52.2117488,
  "lon": 104.1087465
},
{
  "type": "node",
  "id": 3286038312,
  "lat": 52.2116442,
  "lon": 104.1084376
},
{
  "type": "node",
  "id": 3286038313,
  "lat": 52.2115246,
  "lon": 104.1081530
},
{
  "type": "node",
  "id": 3286038314,
  "lat": 52.2113751,
  "lon": 104.1078277
},
{
  "type": "node",
  "id": 3286038315,
  "lat": 52.2112904,
  "lon": 104.1075757
},
{
  "type": "node",
  "id": 3286038316,
  "lat": 52.2112406,
  "lon": 104.1073968
},
{
  "type": "node",
  "id": 3286038317,
  "lat": 52.2112456,
  "lon": 104.1072098
},
{
  "type": "node",
  "id": 3286038318,
  "lat": 52.2112904,
  "lon": 104.1070716
},
{
  "type": "node",
  "id": 3286038319,
  "lat": 52.2113701,
  "lon": 104.1069740
},
{
  "type": "node",
  "id": 3286038320,
  "lat": 52.2115645,
  "lon": 104.1069577
},
{
  "type": "node",
  "id": 3286038321,
  "lat": 52.2120726,
  "lon": 104.1069902
},
{
  "type": "node",
  "id": 3286038322,
  "lat": 52.2125858,
  "lon": 104.1070797
},
{
  "type": "node",
  "id": 3286038323,
  "lat": 52.2127901,
  "lon": 104.1072342
},
{
  "type": "node",
  "id": 3286038324,
  "lat": 52.2132982,
  "lon": 104.1073887
},
{
  "type": "node",
  "id": 3286038325,
  "lat": 52.2136021,
  "lon": 104.1075188
},
{
  "type": "node",
  "id": 3286038326,
  "lat": 52.2139010,
  "lon": 104.1075757
},
{
  "type": "node",
  "id": 3286038327,
  "lat": 52.2142199,
  "lon": 104.1076570
},
{
  "type": "node",
  "id": 3286038328,
  "lat": 52.2144640,
  "lon": 104.1078196
},
{
  "type": "node",
  "id": 3286038329,
  "lat": 52.2150818,
  "lon": 104.1081774
},
{
  "type": "node",
  "id": 3286038330,
  "lat": 52.2157842,
  "lon": 104.1086896
},
{
  "type": "node",
  "id": 3858943389,
  "lat": 52.2113717,
  "lon": 104.1101822
},
{
  "type": "node",
  "id": 5355743971,
  "lat": 52.2137206,
  "lon": 104.1044338
},
{
  "type": "node",
  "id": 5355743974,
  "lat": 52.2133637,
  "lon": 104.1062214
},
{
  "type": "node",
  "id": 5590052450,
  "lat": 52.2133482,
  "lon": 104.1102862
},
{
  "type": "node",
  "id": 5590052451,
  "lat": 52.2134994,
  "lon": 104.1094923
},
{
  "type": "node",
  "id": 5590052452,
  "lat": 52.2140253,
  "lon": 104.1095996
},
{
  "type": "node",
  "id": 5590052453,
  "lat": 52.2134407,
  "lon": 104.1098004
},
{
  "type": "node",
  "id": 5590054518,
  "lat": 52.2144896,
  "lon": 104.1098678
},
{
  "type": "node",
  "id": 5590055075,
  "lat": 52.2139069,
  "lon": 104.1102111
},
{
  "type": "node",
  "id": 5590057397,
  "lat": 52.2149892,
  "lon": 104.1101253
},
{
  "type": "node",
  "id": 5590060533,
  "lat": 52.2154075,
  "lon": 104.1103849
},
{
  "type": "node",
  "id": 5590071274,
  "lat": 52.2147566,
  "lon": 104.1099799
},
{
  "type": "node",
  "id": 6652851711,
  "lat": 52.2099370,
  "lon": 104.1104498
},
{
  "type": "node",
  "id": 6652851979,
  "lat": 52.2096398,
  "lon": 104.1070113
},
{
  "type": "node",
  "id": 346585249,
  "lat": 52.2187395,
  "lon": 104.0976080
},
{
  "type": "node",
  "id": 346585250,
  "lat": 52.2191012,
  "lon": 104.1001054
},
{
  "type": "node",
  "id": 346585251,
  "lat": 52.2195011,
  "lon": 104.1027443
},
{
  "type": "node",
  "id": 346585265,
  "lat": 52.2208148,
  "lon": 104.1029062
},
{
  "type": "node",
  "id": 346585266,
  "lat": 52.2208479,
  "lon": 104.1032616
},
{
  "type": "node",
  "id": 346591251,
  "lat": 52.2187303,
  "lon": 104.0977917
},
{
  "type": "node",
  "id": 346591263,
  "lat": 52.2170860,
  "lon": 104.0987903
},
{
  "type": "node",
  "id": 346591274,
  "lat": 52.2183845,
  "lon": 104.0997437
},
{
  "type": "node",
  "id": 346591282,
  "lat": 52.2181595,
  "lon": 104.1001495
},
{
  "type": "node",
  "id": 346591284,
  "lat": 52.2184401,
  "lon": 104.1006498
},
{
  "type": "node",
  "id": 346591287,
  "lat": 52.2188344,
  "lon": 104.1026619
},
{
  "type": "node",
  "id": 346591294,
  "lat": 52.2159463,
  "lon": 104.0993522
},
{
  "type": "node",
  "id": 346591315,
  "lat": 52.2165618,
  "lon": 104.0980138
},
{
  "type": "node",
  "id": 346591321,
  "lat": 52.2161172,
  "lon": 104.1003017
},
{
  "type": "node",
  "id": 346591323,
  "lat": 52.2171847,
  "lon": 104.0997759
},
{
  "type": "node",
  "id": 346591325,
  "lat": 52.2182029,
  "lon": 104.1002268
},
{
  "type": "node",
  "id": 346591328,
  "lat": 52.2164667,
  "lon": 104.1021871
},
{
  "type": "node",
  "id": 346591331,
  "lat": 52.2173504,
  "lon": 104.1017278
},
{
  "type": "node",
  "id": 346591335,
  "lat": 52.2179385,
  "lon": 104.1033770
},
{
  "type": "node",
  "id": 346591378,
  "lat": 52.2187121,
  "lon": 104.1020108
},
{
  "type": "node",
  "id": 346591380,
  "lat": 52.2193463,
  "lon": 104.1017189
},
{
  "type": "node",
  "id": 346593971,
  "lat": 52.2196915,
  "lon": 104.1031325
},
{
  "type": "node",
  "id": 346593973,
  "lat": 52.2208642,
  "lon": 104.1035446
},
{
  "type": "node",
  "id": 346594006,
  "lat": 52.2206981,
  "lon": 104.1022690
},
{
  "type": "node",
  "id": 698945526,
  "lat": 52.2176090,
  "lon": 104.0985482
},
{
  "type": "node",
  "id": 698947007,
  "lat": 52.2181418,
  "lon": 104.0982798
},
{
  "type": "node",
  "id": 698951187,
  "lat": 52.2184103,
  "lon": 104.1001643
},
{
  "type": "node",
  "id": 698952428,
  "lat": 52.2195407,
  "lon": 104.1028595
},
{
  "type": "node",
  "id": 698952432,
  "lat": 52.2195866,
  "lon": 104.1029806
},
{
  "type": "node",
  "id": 698952435,
  "lat": 52.2196214,
  "lon": 104.1030643
},
{
  "type": "node",
  "id": 3160991182,
  "lat": 52.2162914,
  "lon": 104.1012002
},
{
  "type": "node",
  "id": 3160991183,
  "lat": 52.2159059,
  "lon": 104.1034208
},
{
  "type": "node",
  "id": 3160991194,
  "lat": 52.2166395,
  "lon": 104.1030697
},
{
  "type": "node",
  "id": 5851525524,
  "lat": 52.2197406,
  "lon": 104.1031745
},
{
  "type": "node",
  "id": 346585267,
  "lat": 52.2208419,
  "lon": 104.1040355
},
{
  "type": "node",
  "id": 346585270,
  "lat": 52.2201674,
  "lon": 104.1090702
},
{
  "type": "node",
  "id": 346591289,
  "lat": 52.2184607,
  "lon": 104.1040793
},
{
  "type": "node",
  "id": 346591301,
  "lat": 52.2170010,
  "lon": 104.1049095
},
{
  "type": "node",
  "id": 346591304,
  "lat": 52.2174373,
  "lon": 104.1071327
},
{
  "type": "node",
  "id": 346591333,
  "lat": 52.2168209,
  "lon": 104.1039919
},
{
  "type": "node",
  "id": 346591343,
  "lat": 52.2182858,
  "lon": 104.1050906
},
{
  "type": "node",
  "id": 346591346,
  "lat": 52.2171517,
  "lon": 104.1056775
},
{
  "type": "node",
  "id": 346591348,
  "lat": 52.2161414,
  "lon": 104.1061610
},
{
  "type": "node",
  "id": 346591350,
  "lat": 52.2183924,
  "lon": 104.1058379
},
{
  "type": "node",
  "id": 346591353,
  "lat": 52.2172961,
  "lon": 104.1064133
},
{
  "type": "node",
  "id": 346591358,
  "lat": 52.2183213,
  "lon": 104.1067140
},
{
  "type": "node",
  "id": 346591383,
  "lat": 52.2184200,
  "lon": 104.1041694
},
{
  "type": "node",
  "id": 346591388,
  "lat": 52.2181595,
  "lon": 104.1043176
},
{
  "type": "node",
  "id": 346591390,
  "lat": 52.2182306,
  "lon": 104.1083116
},
{
  "type": "node",
  "id": 346591393,
  "lat": 52.2183608,
  "lon": 104.1080282
},
{
  "type": "node",
  "id": 346591396,
  "lat": 52.2191107,
  "lon": 104.1073131
},
{
  "type": "node",
  "id": 346591398,
  "lat": 52.2203661,
  "lon": 104.1077517
},
{
  "type": "node",
  "id": 346593072,
  "lat": 52.2205650,
  "lon": 104.1062602
},
{
  "type": "node",
  "id": 346593080,
  "lat": 52.2207480,
  "lon": 104.1048839
},
{
  "type": "node",
  "id": 2637232711,
  "lat": 52.2178629,
  "lon": 104.1082038
},
{
  "type": "node",
  "id": 2637232713,
  "lat": 52.2169834,
  "lon": 104.1074033
},
{
  "type": "node",
  "id": 2637232715,
  "lat": 52.2163992,
  "lon": 104.1068686
},
{
  "type": "node",
  "id": 2637232717,
  "lat": 52.2162578,
  "lon": 104.1067652
},
{
  "type": "node",
  "id": 3160991184,
  "lat": 52.2160338,
  "lon": 104.1056026
},
{
  "type": "node",
  "id": 3160991196,
  "lat": 52.2162960,
  "lon": 104.1054147
},
{
  "type": "node",
  "id": 3286038331,
  "lat": 52.2169748,
  "lon": 104.1095596
},
{
  "type": "node",
  "id": 3286038332,
  "lat": 52.2178715,
  "lon": 104.1102914
},
{
  "type": "node",
  "id": 6430677224,
  "lat": 52.2162716,
  "lon": 104.1090457
},
{
  "type": "node",
  "id": 937592776,
  "lat": 52.2114810,
  "lon": 104.1105214,
  "tags": {
    "highway": "traffic_signals"
  }
},
{
  "type": "node",
  "id": 937592787,
  "lat": 52.2102433,
  "lon": 104.1108531
},
{
  "type": "node",
  "id": 937607556,
  "lat": 52.2099891,
  "lon": 104.1105596
},
{
  "type": "node",
  "id": 937607774,
  "lat": 52.2102084,
  "lon": 104.1107743
},
{
  "type": "node",
  "id": 3286038302,
  "lat": 52.2121801,
  "lon": 104.1105783
},
{
  "type": "node",
  "id": 5590052449,
  "lat": 52.2130852,
  "lon": 104.1117239
},
{
  "type": "node",
  "id": 5590055072,
  "lat": 52.2134533,
  "lon": 104.1125929
},
{
  "type": "node",
  "id": 5590055073,
  "lat": 52.2137056,
  "lon": 104.1110828
},
{
  "type": "node",
  "id": 5590055074,
  "lat": 52.2137820,
  "lon": 104.1109729
},
{
  "type": "node",
  "id": 5907114024,
  "lat": 52.2132353,
  "lon": 104.1109034
},
{
  "type": "node",
  "id": 3286038333,
  "lat": 52.2181156,
  "lon": 104.1105516
},
{
  "type": "node",
  "id": 3286038334,
  "lat": 52.2188478,
  "lon": 104.1110882
},
{
  "type": "node",
  "id": 5590060384,
  "lat": 52.2163681,
  "lon": 104.1109611
},
{
  "type": "node",
  "id": 5590063082,
  "lat": 52.2158935,
  "lon": 104.1106939
},
{
  "type": "node",
  "id": 5590066091,
  "lat": 52.2168177,
  "lon": 104.1111885
},
{
  "type": "node",
  "id": 344619690,
  "lat": 52.2225414,
  "lon": 104.1099351
},
{
  "type": "node",
  "id": 346591401,
  "lat": 52.2227928,
  "lon": 104.1086144
},
{
  "type": "node",
  "id": 346591403,
  "lat": 52.2229822,
  "lon": 104.1086531
},
{
  "type": "node",
  "id": 346591406,
  "lat": 52.2247423,
  "lon": 104.1092586
},
{
  "type": "node",
  "id": 346591408,
  "lat": 52.2255789,
  "lon": 104.1095614
},
{
  "type": "node",
  "id": 346591410,
  "lat": 52.2264431,
  "lon": 104.1098835
},
{
  "type": "node",
  "id": 346593028,
  "lat": 52.2288472,
  "lon": 104.1078064
},
{
  "type": "node",
  "id": 346593085,
  "lat": 52.2259616,
  "lon": 104.1068042
},
{
  "type": "node",
  "id": 346593976,
  "lat": 52.2234440,
  "lon": 104.1045173
},
{
  "type": "node",
  "id": 346593978,
  "lat": 52.2262339,
  "lon": 104.1055351
},
{
  "type": "node",
  "id": 346593981,
  "lat": 52.2260169,
  "lon": 104.1067913
},
{
  "type": "node",
  "id": 346594002,
  "lat": 52.2228283,
  "lon": 104.1100575
},
{
  "type": "node",
  "id": 698961073,
  "lat": 52.2268449,
  "lon": 104.1057356
},
{
  "type": "node",
  "id": 1000651933,
  "lat": 52.2233539,
  "lon": 104.1058258
},
{
  "type": "node",
  "id": 3249309004,
  "lat": 52.2231555,
  "lon": 104.1101809
},
{
  "type": "node",
  "id": 346593025,
  "lat": 52.2290346,
  "lon": 104.1064541
},
{
  "type": "node",
  "id": 344619691,
  "lat": 52.2245482,
  "lon": 104.1107064
},
{
  "type": "node",
  "id": 346591415,
  "lat": 52.2284599,
  "lon": 104.1106182
},
{
  "type": "node",
  "id": 346593032,
  "lat": 52.2282700,
  "lon": 104.1120545
},
{
  "type": "node",
  "id": 346593986,
  "lat": 52.2253816,
  "lon": 104.1109980
},
{
  "type": "node",
  "id": 344619693,
  "lat": 52.2297344,
  "lon": 104.1126020
},
{
  "type": "node",
  "id": 344619694,
  "lat": 52.2303149,
  "lon": 104.1127865
},
{
  "type": "node",
  "id": 344619695,
  "lat": 52.2305954,
  "lon": 104.1128628
},
{
  "type": "node",
  "id": 346592990,
  "lat": 52.2295130,
  "lon": 104.1125119
},
{
  "type": "node",
  "id": 5852244006,
  "lat": 52.2300787,
  "lon": 104.1127155,
  "tags": {
    "highway": "crossing"
  }
}

  ]
}
